{
"type": "FeatureCollection",
"name": "LOC_URB_JOCO",
"crs": { "type": "name", "properties": { "name": "urn:ogc:def:crs:OGC:1.3:CRS84" } },
"features": [
{ "type": "Feature", "properties": { "CVEGEO": "140500001", "NOM_ENT": "Jalisco", "NOM_MUN": "Jocotepec", "NOMGEO": "Jocotepec", "CABECERA": "Si", "POB1": 20286.0, "POB2": 1171.0, "POB2_R": 5.8, "POB4": 1153.0, "POB4_R": 5.7, "POB5": 2226.0, "POB5_R": 11.0, "POB6": 2563.0, "POB6_R": 12.6, "POB7": 1093.0, "POB7_R": 5.4, "POB8": 5643.0, "POB8_R": 27.8, "POB9": 1161.0, "POB9_R": 5.7, "POB10": 3653.0, "POB10_R": 18.0, "POB11": 5300.0, "POB11_R": 26.2, "POB12": 12983.0, "POB12_R": 64.1, "POB13": 2492.0, "POB13_R": 12.3, "POB14": 5249.0, "POB14_R": 25.9, "POB15": 1749.0, "POB15_R": 8.6, "POB17": 19095.0, "POB17_R": 94.2, "POB18": 18320.0, "POB18_R": 90.4, "POB19": 15716.0, "POB19_R": 77.5, "POB20": 14623.0, "POB20_R": 72.2, "POB21": 13462.0, "POB21_R": 66.4, "POB22": 10970.0, "POB22_R": 54.1, "POB23": 2325.0, "POB23_R": 11.5, "POB24": 1640.0, "POB24_R": 8.1, "POB25": 1094.0, "POB25_R": 5.4, "POB42": 10307.0, "POB42_R": 50.9, "POB43": 597.0, "POB43_R": 2.9, "POB45": 590.0, "POB45_R": 2.9, "POB46": 1108.0, "POB46_R": 5.5, "POB47": 1258.0, "POB47_R": 6.2, "POB48": 537.0, "POB48_R": 2.6, "POB49": 2832.0, "POB49_R": 14.0, "POB50": 581.0, "POB50_R": 2.9, "POB51": 1775.0, "POB51_R": 8.8, "POB52": 2598.0, "POB52_R": 12.8, "POB53": 5316.0, "POB53_R": 26.2, "POB54": 6620.0, "POB54_R": 32.7, "POB55": 1194.0, "POB55_R": 5.9, "POB56": 2718.0, "POB56_R": 13.4, "POB57": 929.0, "POB57_R": 4.6, "POB59": 9700.0, "POB59_R": 47.9, "POB60": 9300.0, "POB60_R": 45.9, "POB61": 8002.0, "POB61_R": 39.5, "POB62": 7465.0, "POB62_R": 36.8, "POB63": 6884.0, "POB63_R": 34.0, "POB64": 5690.0, "POB64_R": 28.1, "POB65": 1220.0, "POB65_R": 6.0, "POB66": 845.0, "POB66_R": 4.2, "POB67": 570.0, "POB67_R": 2.8, "POB84": 9979.0, "POB84_R": 49.2, "POB85": 574.0, "POB85_R": 2.8, "POB87": 563.0, "POB87_R": 2.8, "POB88": 1118.0, "POB88_R": 5.5, "POB89": 1305.0, "POB89_R": 6.4, "POB90": 556.0, "POB90_R": 2.7, "POB91": 2811.0, "POB91_R": 13.9, "POB92": 580.0, "POB92_R": 2.9, "POB93": 1878.0, "POB93_R": 9.3, "POB94": 2702.0, "POB94_R": 13.3, "POB95": 6363.0, "POB95_R": 31.4, "POB96": 1298.0, "POB96_R": 6.4, "POB97": 2531.0, "POB97_R": 12.5, "POB98": 820.0, "POB98_R": 4.0, "POB100": 9395.0, "POB100_R": 46.4, "POB101": 9020.0, "POB101_R": 44.5, "POB102": 7714.0, "POB102_R": 38.1, "POB103": 7158.0, "POB103_R": 35.3, "POB104": 6578.0, "POB104_R": 32.5, "POB105": 5280.0, "POB105_R": 26.1, "POB106": 1105.0, "POB106_R": 5.5, "POB107": 795.0, "POB107_R": 3.9, "POB108": 524.0, "POB108_R": 2.6, "POB125_R": 96.8, "POB126_R": 56.1, "POB127_R": 43.5, "POB128_R": 12.6, "POB129_R": 27.0, "POB130_R": 28.0, "POB131_R": 26.0, "POB132_R": 41.2, "POB133_R": 43.1, "POB134_R": 39.3, "POB3": 1946.0, "POB3_R": 9.6, "POB16": 685.0, "POB16_R": 3.4, "POB26": 1877.0, "POB26_R": 9.3, "POB27": 1820.0, "POB27_R": 9.0, "POB28": 1870.0, "POB28_R": 9.2, "POB29": 1783.0, "POB29_R": 8.8, "POB30": 1647.0, "POB30_R": 8.1, "POB31": 1512.0, "POB31_R": 7.5, "POB32": 1384.0, "POB32_R": 6.8, "POB33": 1215.0, "POB33_R": 6.0, "POB34": 1138.0, "POB34_R": 5.6, "POB35": 990.0, "POB35_R": 4.9, "POB36": 759.0, "POB36_R": 3.7, "POB37": 546.0, "POB37_R": 2.7, "POB38": 434.0, "POB38_R": 2.1, "POB39": 301.0, "POB39_R": 1.5, "POB40": 198.0, "POB40_R": 1.0, "POB41": 161.0, "POB41_R": 0.8, "POB44": 997.0, "POB44_R": 4.9, "POB58": 375.0, "POB58_R": 1.9, "POB68": 942.0, "POB68_R": 4.6, "POB69": 893.0, "POB69_R": 4.4, "POB70": 892.0, "POB70_R": 4.4, "POB71": 883.0, "POB71_R": 4.4, "POB72": 823.0, "POB72_R": 4.1, "POB73": 753.0, "POB73_R": 3.7, "POB74": 703.0, "POB74_R": 3.5, "POB75": 670.0, "POB75_R": 3.3, "POB76": 592.0, "POB76_R": 2.9, "POB77": 517.0, "POB77_R": 2.6, "POB78": 412.0, "POB78_R": 2.0, "POB79": 275.0, "POB79_R": 1.4, "POB80": 232.0, "POB80_R": 1.1, "POB81": 145.0, "POB81_R": 0.7, "POB82": 100.0, "POB82_R": 0.5, "POB83": 93.0, "POB83_R": 0.5, "POB86": 949.0, "POB86_R": 4.7, "POB99": 310.0, "POB99_R": 1.5, "POB109": 935.0, "POB109_R": 4.6, "POB110": 927.0, "POB110_R": 4.6, "POB111": 978.0, "POB111_R": 4.8, "POB112": 900.0, "POB112_R": 4.4, "POB113": 824.0, "POB113_R": 4.1, "POB114": 759.0, "POB114_R": 3.7, "POB115": 681.0, "POB115_R": 3.4, "POB116": 545.0, "POB116_R": 2.7, "POB117": 546.0, "POB117_R": 2.7, "POB118": 473.0, "POB118_R": 2.3, "POB119": 347.0, "POB119_R": 1.7, "POB120": 271.0, "POB120_R": 1.3, "POB121": 202.0, "POB121_R": 1.0, "POB122": 156.0, "POB122_R": 0.8, "POB123": 98.0, "POB123_R": 0.5, "POB124": 68.0, "POB124_R": 0.3, "OID": 82 }, "geometry": { "type": "Polygon", "coordinates": [ [ [ -103.4349371, 20.2930627 ], [ -103.4337178, 20.2928195 ], [ -103.4328461, 20.2926465 ], [ -103.4326811, 20.2926138 ], [ -103.4326511, 20.2925504 ], [ -103.4326207, 20.2925212 ], [ -103.4325945, 20.2925086 ], [ -103.4325552, 20.2924917 ], [ -103.4324797, 20.2924631 ], [ -103.4324582, 20.2924299 ], [ -103.432454, 20.292405 ], [ -103.4324676, 20.2923638 ], [ -103.4325031, 20.2923228 ], [ -103.4325384, 20.2922983 ], [ -103.432587, 20.2922574 ], [ -103.4326138, 20.2922081 ], [ -103.4326142, 20.2921709 ], [ -103.4325709, 20.2921168 ], [ -103.4325404, 20.2920958 ], [ -103.4324968, 20.2920748 ], [ -103.4324445, 20.2920454 ], [ -103.4324097, 20.2920203 ], [ -103.432388, 20.2919953 ], [ -103.4323707, 20.2919703 ], [ -103.4323578, 20.2919495 ], [ -103.432345, 20.2919081 ], [ -103.4323107, 20.2918417 ], [ -103.4322803, 20.2918125 ], [ -103.4322454, 20.2917915 ], [ -103.4321974, 20.2917704 ], [ -103.432145, 20.2917534 ], [ -103.4320925, 20.2917405 ], [ -103.4320358, 20.2917152 ], [ -103.4319966, 20.2916859 ], [ -103.4319663, 20.2916443 ], [ -103.4319427, 20.2915567 ], [ -103.4318344, 20.2917036 ], [ -103.4317676, 20.2918404 ], [ -103.4317084, 20.2919694 ], [ -103.4315932, 20.292187 ], [ -103.4310117, 20.2921235 ], [ -103.430618, 20.2920805 ], [ -103.4295648, 20.2919655 ], [ -103.4287044, 20.2918702 ], [ -103.4280996, 20.2918032 ], [ -103.4281023, 20.2917856 ], [ -103.428208, 20.2910799 ], [ -103.4277979, 20.2910374 ], [ -103.4272236, 20.2909779 ], [ -103.4271788, 20.2915227 ], [ -103.4271365, 20.2915166 ], [ -103.4265122, 20.2914278 ], [ -103.426161, 20.2913778 ], [ -103.4262276, 20.2908673 ], [ -103.426234, 20.2906842 ], [ -103.4249781, 20.2906349 ], [ -103.4238367, 20.2905623 ], [ -103.4228293, 20.2905148 ], [ -103.421208, 20.2904383 ], [ -103.421202, 20.2902049 ], [ -103.4211526, 20.2902032 ], [ -103.4203852, 20.2901771 ], [ -103.4197882, 20.2901568 ], [ -103.4196243, 20.2915326 ], [ -103.4184677, 20.2914008 ], [ -103.418518, 20.290899 ], [ -103.4180425, 20.2909003 ], [ -103.417841, 20.2921587 ], [ -103.4175536, 20.2920914 ], [ -103.4173958, 20.2920545 ], [ -103.417046, 20.2918508 ], [ -103.4164002, 20.2914441 ], [ -103.4160565, 20.2911986 ], [ -103.4158343, 20.2910583 ], [ -103.4156352, 20.2920939 ], [ -103.4148712, 20.292107 ], [ -103.4148887, 20.2919718 ], [ -103.4149887, 20.2911999 ], [ -103.4151284, 20.2907251 ], [ -103.4142683, 20.2905908 ], [ -103.4143077, 20.2904249 ], [ -103.4144905, 20.2896555 ], [ -103.4145072, 20.2895854 ], [ -103.4143287, 20.2895612 ], [ -103.4141526, 20.2896785 ], [ -103.4136754, 20.2900117 ], [ -103.4136731, 20.2900133 ], [ -103.413417, 20.2901793 ], [ -103.4130679, 20.2903757 ], [ -103.4127896, 20.2904678 ], [ -103.412787, 20.2904689 ], [ -103.412239, 20.2906359 ], [ -103.4117934, 20.2907433 ], [ -103.4109335, 20.2908592 ], [ -103.4104368, 20.2909067 ], [ -103.4104265, 20.2898653 ], [ -103.4104392, 20.2894495 ], [ -103.4104392, 20.2887063 ], [ -103.4104129, 20.2880895 ], [ -103.4111245, 20.2879569 ], [ -103.4122007, 20.2875373 ], [ -103.413112, 20.286773 ], [ -103.4128438, 20.2864554 ], [ -103.413404, 20.285664 ], [ -103.4135376, 20.2854885 ], [ -103.4136857, 20.2852815 ], [ -103.4138415, 20.2850488 ], [ -103.4140018, 20.284746 ], [ -103.4143207, 20.2838706 ], [ -103.4145989, 20.2834098 ], [ -103.4150155, 20.2828884 ], [ -103.4152017, 20.2824547 ], [ -103.4158149, 20.2811547 ], [ -103.4162845, 20.2801509 ], [ -103.416842, 20.2802457 ], [ -103.4168727, 20.2800019 ], [ -103.417074, 20.2795272 ], [ -103.4173159, 20.2790678 ], [ -103.4175932, 20.2784959 ], [ -103.4178329, 20.2778296 ], [ -103.4179121, 20.2771039 ], [ -103.4181563, 20.2748424 ], [ -103.4182949, 20.2738071 ], [ -103.418347, 20.2733799 ], [ -103.4183724, 20.2726583 ], [ -103.418374, 20.2716432 ], [ -103.4183832, 20.2705992 ], [ -103.4185778, 20.2701075 ], [ -103.4187256, 20.2700986 ], [ -103.4190934, 20.2701593 ], [ -103.4191462, 20.2702543 ], [ -103.4192378, 20.270397 ], [ -103.4192513, 20.2704849 ], [ -103.4192056, 20.270547 ], [ -103.4192051, 20.2705917 ], [ -103.4192234, 20.2706636 ], [ -103.4192702, 20.2707357 ], [ -103.4193547, 20.270826 ], [ -103.4194115, 20.2708534 ], [ -103.4194873, 20.270872 ], [ -103.4196773, 20.2708648 ], [ -103.4197941, 20.2708297 ], [ -103.4198599, 20.2708303 ], [ -103.4199613, 20.2708707 ], [ -103.4200566, 20.2709168 ], [ -103.4204149, 20.270999 ], [ -103.4205339, 20.2710735 ], [ -103.4206233, 20.2711138 ], [ -103.4208026, 20.2711437 ], [ -103.4208923, 20.2711558 ], [ -103.4210299, 20.2711683 ], [ -103.4211015, 20.2711859 ], [ -103.4211853, 20.2711923 ], [ -103.4214256, 20.2712114 ], [ -103.4215093, 20.2712234 ], [ -103.4216408, 20.2712416 ], [ -103.4218608, 20.2712635 ], [ -103.4222065, 20.2714389 ], [ -103.4223217, 20.2716277 ], [ -103.4224054, 20.27272 ], [ -103.421869, 20.2729988 ], [ -103.4218842, 20.2736045 ], [ -103.4222339, 20.2738998 ], [ -103.4229475, 20.274261 ], [ -103.4235567, 20.2744993 ], [ -103.4243193, 20.2746614 ], [ -103.4249299, 20.2747556 ], [ -103.42567, 20.2748287 ], [ -103.4263864, 20.2749239 ], [ -103.4269621, 20.2749734 ], [ -103.427163, 20.2750142 ], [ -103.4274648, 20.2750169 ], [ -103.4276679, 20.275004 ], [ -103.4278547, 20.275045 ], [ -103.4280209, 20.2750759 ], [ -103.4282799, 20.2751812 ], [ -103.4286173, 20.2752676 ], [ -103.4294651, 20.2752766 ], [ -103.4297582, 20.2753138 ], [ -103.4300495, 20.2753852 ], [ -103.4302921, 20.2754562 ], [ -103.4304974, 20.2756072 ], [ -103.4305201, 20.2756274 ], [ -103.4309389, 20.276001 ], [ -103.4310901, 20.2763263 ], [ -103.4311102, 20.2763697 ], [ -103.4312992, 20.2769335 ], [ -103.4317374, 20.2779229 ], [ -103.4321089, 20.278855 ], [ -103.4322047, 20.2790049 ], [ -103.4323316, 20.2789899 ], [ -103.4332407, 20.2790025 ], [ -103.4332713, 20.2783924 ], [ -103.4332314, 20.2778099 ], [ -103.4332294, 20.2774688 ], [ -103.4332105, 20.2767636 ], [ -103.4331317, 20.2761669 ], [ -103.433098, 20.2755014 ], [ -103.4331065, 20.2754469 ], [ -103.4344828, 20.2751844 ], [ -103.4350274, 20.2753205 ], [ -103.4356149, 20.2754673 ], [ -103.4356649, 20.2754783 ], [ -103.4360417, 20.2755609 ], [ -103.4364209, 20.2756996 ], [ -103.4362943, 20.2762793 ], [ -103.4360749, 20.2770365 ], [ -103.4368461, 20.2772138 ], [ -103.4367371, 20.2777086 ], [ -103.4371955, 20.277777 ], [ -103.439149, 20.2779703 ], [ -103.4391062, 20.2785394 ], [ -103.4401136, 20.2786028 ], [ -103.4407678, 20.2786498 ], [ -103.4409105, 20.2774338 ], [ -103.4446707, 20.2778471 ], [ -103.4450241, 20.2752647 ], [ -103.4450802, 20.275252 ], [ -103.4456838, 20.2751149 ], [ -103.4457395, 20.2751022 ], [ -103.4459577, 20.2755362 ], [ -103.4462092, 20.2750735 ], [ -103.447074, 20.2753971 ], [ -103.4469697, 20.2756851 ], [ -103.4479292, 20.2777199 ], [ -103.4486382, 20.2795096 ], [ -103.4477448, 20.2794729 ], [ -103.4488993, 20.2820468 ], [ -103.4466515, 20.2818032 ], [ -103.4465383, 20.2825144 ], [ -103.4464848, 20.2825052 ], [ -103.4453678, 20.2823117 ], [ -103.4443174, 20.2821297 ], [ -103.4441163, 20.2819539 ], [ -103.4430173, 20.2817088 ], [ -103.4418599, 20.2815314 ], [ -103.4417683, 20.2818771 ], [ -103.4416038, 20.282867 ], [ -103.4415563, 20.2830904 ], [ -103.4414997, 20.2833572 ], [ -103.4413731, 20.2839533 ], [ -103.4412511, 20.2844842 ], [ -103.4412358, 20.2845096 ], [ -103.4412231, 20.2845307 ], [ -103.4411902, 20.2847228 ], [ -103.4412892, 20.2847432 ], [ -103.4423445, 20.2847639 ], [ -103.4428387, 20.2850011 ], [ -103.4435212, 20.2854997 ], [ -103.4434871, 20.2860571 ], [ -103.4429393, 20.2889107 ], [ -103.4405976, 20.2885078 ], [ -103.4404964, 20.2890787 ], [ -103.4403136, 20.2906515 ], [ -103.4405335, 20.2906734 ], [ -103.4405547, 20.2906755 ], [ -103.4408964, 20.2906964 ], [ -103.4411686, 20.2907106 ], [ -103.4412692, 20.2905993 ], [ -103.4413685, 20.2906127 ], [ -103.4422166, 20.2907391 ], [ -103.4422537, 20.2910509 ], [ -103.442225, 20.2915454 ], [ -103.4421843, 20.2922631 ], [ -103.4421615, 20.2924903 ], [ -103.4420718, 20.2928206 ], [ -103.441618, 20.2929207 ], [ -103.4411961, 20.2929502 ], [ -103.4410739, 20.2929589 ], [ -103.4407789, 20.292961 ], [ -103.4406258, 20.292962 ], [ -103.4403043, 20.2929434 ], [ -103.440006, 20.2929262 ], [ -103.4397518, 20.292924 ], [ -103.4396005, 20.2937947 ], [ -103.4374068, 20.2934789 ], [ -103.4370022, 20.2934091 ], [ -103.4367112, 20.2933589 ], [ -103.4359706, 20.2932203 ], [ -103.4349376, 20.2930628 ], [ -103.4349373, 20.2930628 ], [ -103.4349371, 20.2930627 ] ] ] } },
{ "type": "Feature", "properties": { "CVEGEO": "140500002", "NOM_ENT": "Jalisco", "NOM_MUN": "Jocotepec", "NOMGEO": "Chantepec (El Chante)", "CABECERA": "No", "POB1": 3765.0, "POB2": 247.0, "POB2_R": 6.6, "POB4": 234.0, "POB4_R": 6.2, "POB5": 469.0, "POB5_R": 12.5, "POB6": 565.0, "POB6_R": 15.0, "POB7": 237.0, "POB7_R": 6.3, "POB8": 1187.0, "POB8_R": 31.5, "POB9": 210.0, "POB9_R": 5.6, "POB10": 690.0, "POB10_R": 18.3, "POB11": 973.0, "POB11_R": 25.8, "POB12": 2280.0, "POB12_R": 60.6, "POB13": 480.0, "POB13_R": 12.7, "POB14": 922.0, "POB14_R": 24.5, "POB15": 262.0, "POB15_R": 7.0, "POB17": 3518.0, "POB17_R": 93.4, "POB18": 3364.0, "POB18_R": 89.3, "POB19": 2815.0, "POB19_R": 74.8, "POB20": 2578.0, "POB20_R": 68.5, "POB21": 2368.0, "POB21_R": 62.9, "POB22": 1888.0, "POB22_R": 50.1, "POB23": 421.0, "POB23_R": 11.2, "POB24": 298.0, "POB24_R": 7.9, "POB25": 203.0, "POB25_R": 5.4, "POB42": 1914.0, "POB42_R": 50.8, "POB43": 134.0, "POB43_R": 3.6, "POB45": 124.0, "POB45_R": 3.3, "POB46": 238.0, "POB46_R": 6.3, "POB47": 275.0, "POB47_R": 7.3, "POB48": 111.0, "POB48_R": 2.9, "POB49": 607.0, "POB49_R": 16.1, "POB50": 107.0, "POB50_R": 2.8, "POB51": 349.0, "POB51_R": 9.3, "POB52": 473.0, "POB52_R": 12.6, "POB53": 947.0, "POB53_R": 25.2, "POB54": 1157.0, "POB54_R": 30.7, "POB55": 242.0, "POB55_R": 6.4, "POB56": 474.0, "POB56_R": 12.6, "POB57": 143.0, "POB57_R": 3.8, "POB59": 1780.0, "POB59_R": 47.3, "POB60": 1699.0, "POB60_R": 45.1, "POB61": 1418.0, "POB61_R": 37.7, "POB62": 1307.0, "POB62_R": 34.7, "POB63": 1200.0, "POB63_R": 31.9, "POB64": 958.0, "POB64_R": 25.4, "POB65": 217.0, "POB65_R": 5.8, "POB66": 150.0, "POB66_R": 4.0, "POB67": 97.0, "POB67_R": 2.6, "POB84": 1851.0, "POB84_R": 49.2, "POB85": 113.0, "POB85_R": 3.0, "POB87": 110.0, "POB87_R": 2.9, "POB88": 231.0, "POB88_R": 6.1, "POB89": 290.0, "POB89_R": 7.7, "POB90": 126.0, "POB90_R": 3.3, "POB91": 580.0, "POB91_R": 15.4, "POB92": 103.0, "POB92_R": 2.7, "POB93": 341.0, "POB93_R": 9.1, "POB94": 500.0, "POB94_R": 13.3, "POB95": 1123.0, "POB95_R": 29.8, "POB96": 238.0, "POB96_R": 6.3, "POB97": 448.0, "POB97_R": 11.9, "POB98": 119.0, "POB98_R": 3.2, "POB100": 1738.0, "POB100_R": 46.2, "POB101": 1665.0, "POB101_R": 44.2, "POB102": 1397.0, "POB102_R": 37.1, "POB103": 1271.0, "POB103_R": 33.8, "POB104": 1168.0, "POB104_R": 31.0, "POB105": 930.0, "POB105_R": 24.7, "POB106": 204.0, "POB106_R": 5.4, "POB107": 148.0, "POB107_R": 3.9, "POB108": 106.0, "POB108_R": 2.8, "POB125_R": 96.7, "POB126_R": 65.1, "POB127_R": 52.1, "POB128_R": 13.1, "POB129_R": 25.0, "POB130_R": 25.0, "POB131_R": 25.0, "POB132_R": 35.5, "POB133_R": 35.7, "POB134_R": 35.2, "POB3": 401.0, "POB3_R": 10.7, "POB16": 123.0, "POB16_R": 3.3, "POB26": 392.0, "POB26_R": 10.4, "POB27": 394.0, "POB27_R": 10.5, "POB28": 359.0, "POB28_R": 9.5, "POB29": 331.0, "POB29_R": 8.8, "POB30": 283.0, "POB30_R": 7.5, "POB31": 277.0, "POB31_R": 7.4, "POB32": 237.0, "POB32_R": 6.3, "POB33": 209.0, "POB33_R": 5.6, "POB34": 199.0, "POB34_R": 5.3, "POB35": 152.0, "POB35_R": 4.0, "POB36": 110.0, "POB36_R": 2.9, "POB37": 95.0, "POB37_R": 2.5, "POB38": 88.0, "POB38_R": 2.3, "POB39": 58.0, "POB39_R": 1.5, "POB40": 29.0, "POB40_R": 0.8, "POB41": 28.0, "POB41_R": 0.7, "POB44": 215.0, "POB44_R": 5.7, "POB58": 67.0, "POB58_R": 1.8, "POB68": 210.0, "POB68_R": 5.6, "POB69": 182.0, "POB69_R": 4.8, "POB70": 179.0, "POB70_R": 4.8, "POB71": 170.0, "POB71_R": 4.5, "POB72": 124.0, "POB72_R": 3.3, "POB73": 145.0, "POB73_R": 3.9, "POB74": 127.0, "POB74_R": 3.4, "POB75": 101.0, "POB75_R": 2.7, "POB76": 101.0, "POB76_R": 2.7, "POB77": 86.0, "POB77_R": 2.3, "POB78": 57.0, "POB78_R": 1.5, "POB79": 53.0, "POB79_R": 1.4, "POB80": 42.0, "POB80_R": 1.1, "POB81": 26.0, "POB81_R": 0.7, "POB82": 12.0, "POB82_R": 0.3, "POB83": 17.0, "POB83_R": 0.5, "POB86": 186.0, "POB86_R": 4.9, "POB99": 56.0, "POB99_R": 1.5, "POB109": 182.0, "POB109_R": 4.8, "POB110": 212.0, "POB110_R": 5.6, "POB111": 180.0, "POB111_R": 4.8, "POB112": 161.0, "POB112_R": 4.3, "POB113": 159.0, "POB113_R": 4.2, "POB114": 132.0, "POB114_R": 3.5, "POB115": 110.0, "POB115_R": 2.9, "POB116": 108.0, "POB116_R": 2.9, "POB117": 98.0, "POB117_R": 2.6, "POB118": 66.0, "POB118_R": 1.8, "POB119": 53.0, "POB119_R": 1.4, "POB120": 42.0, "POB120_R": 1.1, "POB121": 46.0, "POB121_R": 1.2, "POB122": 32.0, "POB122_R": 0.8, "POB123": 17.0, "POB123_R": 0.5, "POB124": 11.0, "POB124_R": 0.3, "OID": 83 }, "geometry": { "type": "Polygon", "coordinates": [ [ [ -103.3821567, 20.2999041 ], [ -103.3819722, 20.2998311 ], [ -103.381739, 20.2998539 ], [ -103.3816722, 20.2997873 ], [ -103.3816501, 20.2997201 ], [ -103.381658, 20.2996483 ], [ -103.3816024, 20.299641 ], [ -103.3815893, 20.2996393 ], [ -103.38155, 20.2996074 ], [ -103.3814636, 20.2995373 ], [ -103.3814601, 20.2994628 ], [ -103.3815339, 20.2992953 ], [ -103.3816176, 20.2991054 ], [ -103.3816052, 20.2990544 ], [ -103.3816009, 20.299037 ], [ -103.3815809, 20.2990141 ], [ -103.3815006, 20.2989227 ], [ -103.3815051, 20.298846 ], [ -103.3815122, 20.2988311 ], [ -103.3815374, 20.2987784 ], [ -103.3816147, 20.2986633 ], [ -103.38162, 20.2986554 ], [ -103.3817358, 20.2985391 ], [ -103.3819482, 20.2983496 ], [ -103.3819503, 20.2983476 ], [ -103.382222, 20.2980516 ], [ -103.3822239, 20.2980495 ], [ -103.3824507, 20.297701 ], [ -103.3824525, 20.2976988 ], [ -103.3825381, 20.2972944 ], [ -103.3824481, 20.2969164 ], [ -103.3824494, 20.2969166 ], [ -103.3832841, 20.2969978 ], [ -103.3832861, 20.2969958 ], [ -103.3835979, 20.2964764 ], [ -103.3835996, 20.2964741 ], [ -103.3838469, 20.2960594 ], [ -103.3838485, 20.2960572 ], [ -103.3840871, 20.2955682 ], [ -103.3840886, 20.2955658 ], [ -103.3841455, 20.2950523 ], [ -103.3842809, 20.2942225 ], [ -103.3822871, 20.2940956 ], [ -103.3816929, 20.2940279 ], [ -103.3813056, 20.2939838 ], [ -103.3796469, 20.293795 ], [ -103.3792706, 20.2937522 ], [ -103.3792714, 20.2937495 ], [ -103.3759637, 20.2932248 ], [ -103.3759862, 20.2926977 ], [ -103.3768048, 20.2926338 ], [ -103.3781095, 20.2925318 ], [ -103.3786169, 20.2926271 ], [ -103.3787922, 20.2925373 ], [ -103.3788849, 20.2924897 ], [ -103.3789443, 20.2924508 ], [ -103.3794525, 20.2921184 ], [ -103.3794527, 20.2921183 ], [ -103.3794527, 20.2921183 ], [ -103.3794529, 20.2921183 ], [ -103.379453, 20.2921184 ], [ -103.3796758, 20.2921629 ], [ -103.3801876, 20.2919932 ], [ -103.3810736, 20.2915537 ], [ -103.3810738, 20.2915536 ], [ -103.3810742, 20.2915534 ], [ -103.3810742, 20.2915534 ], [ -103.381179, 20.291358 ], [ -103.381179, 20.2913579 ], [ -103.3811927, 20.2913324 ], [ -103.3815291, 20.2913907 ], [ -103.3819313, 20.2911118 ], [ -103.3820181, 20.2914001 ], [ -103.3822146, 20.2917767 ], [ -103.3840198, 20.2918492 ], [ -103.3849919, 20.2918882 ], [ -103.3858367, 20.2919221 ], [ -103.3861074, 20.291933 ], [ -103.386375, 20.2919437 ], [ -103.3863783, 20.2919439 ], [ -103.386337, 20.2918672 ], [ -103.3859588, 20.2911654 ], [ -103.3859501, 20.2911493 ], [ -103.3864776, 20.2906541 ], [ -103.3866322, 20.2902201 ], [ -103.3866322, 20.2902199 ], [ -103.3867272, 20.2900971 ], [ -103.3867277, 20.2900965 ], [ -103.3867281, 20.2900959 ], [ -103.3867282, 20.2900959 ], [ -103.3867282, 20.2900958 ], [ -103.3868619, 20.2899232 ], [ -103.3870234, 20.289611 ], [ -103.3870237, 20.2896105 ], [ -103.3872795, 20.2894575 ], [ -103.3875324, 20.2896399 ], [ -103.3879064, 20.2896942 ], [ -103.3882548, 20.2896391 ], [ -103.3886071, 20.2894425 ], [ -103.3887559, 20.2894578 ], [ -103.3888447, 20.2895155 ], [ -103.3889058, 20.2897304 ], [ -103.3891418, 20.2898638 ], [ -103.3898245, 20.2899308 ], [ -103.390327, 20.2896422 ], [ -103.3908485, 20.2897569 ], [ -103.390967, 20.2896743 ], [ -103.3909808, 20.2896647 ], [ -103.3912733, 20.2891317 ], [ -103.3915007, 20.2887368 ], [ -103.3920388, 20.2883362 ], [ -103.3923666, 20.2881857 ], [ -103.3926968, 20.2879697 ], [ -103.3929272, 20.287869 ], [ -103.3929298, 20.2878678 ], [ -103.392908, 20.2877139 ], [ -103.3930168, 20.2876141 ], [ -103.3931731, 20.2874319 ], [ -103.3935114, 20.2872534 ], [ -103.3936156, 20.2872421 ], [ -103.3941285, 20.2871157 ], [ -103.3944925, 20.287169 ], [ -103.3948276, 20.2871078 ], [ -103.3948276, 20.2871078 ], [ -103.3948276, 20.2871077 ], [ -103.3948409, 20.2870998 ], [ -103.3950876, 20.2869524 ], [ -103.3957934, 20.2868678 ], [ -103.3960253, 20.2867652 ], [ -103.3963101, 20.2868184 ], [ -103.3962891, 20.2869951 ], [ -103.3964444, 20.2870585 ], [ -103.3968645, 20.2870662 ], [ -103.3975492, 20.2871984 ], [ -103.397548, 20.2872952 ], [ -103.3977255, 20.2873031 ], [ -103.3978333, 20.2873535 ], [ -103.3982533, 20.287337 ], [ -103.3985265, 20.2873549 ], [ -103.3986739, 20.2873818 ], [ -103.3990278, 20.2873452 ], [ -103.3991779, 20.2873087 ], [ -103.3991785, 20.2873086 ], [ -103.3992431, 20.2871236 ], [ -103.3992433, 20.2871232 ], [ -103.3992434, 20.2871229 ], [ -103.3994128, 20.2870692 ], [ -103.3995978, 20.2870708 ], [ -103.3998448, 20.2871359 ], [ -103.3998533, 20.2871382 ], [ -103.3998794, 20.2871451 ], [ -103.3999739, 20.2871679 ], [ -103.4000655, 20.28719 ], [ -103.4001769, 20.2871582 ], [ -103.4001769, 20.2871582 ], [ -103.400213, 20.2871334 ], [ -103.4002564, 20.2871035 ], [ -103.40028, 20.2870872 ], [ -103.4003317, 20.2870515 ], [ -103.4003507, 20.2870643 ], [ -103.4003591, 20.2870699 ], [ -103.4003827, 20.2870858 ], [ -103.4004846, 20.2871541 ], [ -103.4005629, 20.2870489 ], [ -103.4005633, 20.2870484 ], [ -103.4007091, 20.2869193 ], [ -103.400756, 20.2869273 ], [ -103.4007804, 20.2869314 ], [ -103.4008982, 20.2869514 ], [ -103.401055, 20.2869779 ], [ -103.4012328, 20.2870792 ], [ -103.4013759, 20.2872991 ], [ -103.4015963, 20.2873221 ], [ -103.4019435, 20.2871535 ], [ -103.401946, 20.2871523 ], [ -103.4024289, 20.2869039 ], [ -103.4026767, 20.286926 ], [ -103.4028101, 20.2870546 ], [ -103.4036494, 20.2871828 ], [ -103.4043702, 20.2870693 ], [ -103.4053469, 20.2877433 ], [ -103.4056795, 20.2879567 ], [ -103.4059766, 20.2880279 ], [ -103.4064419, 20.2879801 ], [ -103.4068302, 20.2881488 ], [ -103.4074121, 20.2882198 ], [ -103.4078932, 20.2878146 ], [ -103.4081527, 20.2876547 ], [ -103.4085455, 20.2877545 ], [ -103.4088238, 20.2879328 ], [ -103.4090896, 20.2880462 ], [ -103.4094305, 20.2882443 ], [ -103.4104392, 20.2887063 ], [ -103.4104392, 20.2894495 ], [ -103.4104265, 20.2898653 ], [ -103.4104368, 20.2909067 ], [ -103.4109335, 20.2908592 ], [ -103.4117934, 20.2907433 ], [ -103.412239, 20.2906359 ], [ -103.412787, 20.2904689 ], [ -103.4127896, 20.2904678 ], [ -103.4130679, 20.2903757 ], [ -103.413417, 20.2901793 ], [ -103.4136731, 20.2900133 ], [ -103.4136137, 20.2914683 ], [ -103.4135883, 20.2914759 ], [ -103.4131464, 20.291609 ], [ -103.4131444, 20.291611 ], [ -103.4131192, 20.2918483 ], [ -103.4130941, 20.2920858 ], [ -103.4128524, 20.2923185 ], [ -103.412703, 20.2924625 ], [ -103.4127024, 20.292463 ], [ -103.412645, 20.2927752 ], [ -103.4125125, 20.2935221 ], [ -103.4125125, 20.2935221 ], [ -103.4124629, 20.2938019 ], [ -103.4124627, 20.2938028 ], [ -103.4117512, 20.2938515 ], [ -103.4112178, 20.2938881 ], [ -103.4111444, 20.2938931 ], [ -103.4110562, 20.2938991 ], [ -103.4110508, 20.2938995 ], [ -103.4110706, 20.2937412 ], [ -103.4110817, 20.293652 ], [ -103.4107739, 20.2934622 ], [ -103.4107759, 20.2934602 ], [ -103.4111702, 20.2931092 ], [ -103.4115151, 20.292791 ], [ -103.4115151, 20.292791 ], [ -103.4106612, 20.2927808 ], [ -103.4104828, 20.2927441 ], [ -103.4103652, 20.2926951 ], [ -103.4102223, 20.2926361 ], [ -103.410056, 20.2925417 ], [ -103.4099048, 20.2924328 ], [ -103.4097213, 20.2922348 ], [ -103.408723, 20.2924288 ], [ -103.408783, 20.2946599 ], [ -103.4087855, 20.2947529 ], [ -103.4088173, 20.2959334 ], [ -103.4088172, 20.2959334 ], [ -103.4084396, 20.2962074 ], [ -103.4078574, 20.2966298 ], [ -103.4077315, 20.2966265 ], [ -103.4077291, 20.2966264 ], [ -103.407716, 20.2966367 ], [ -103.4076422, 20.296695 ], [ -103.407608, 20.2967198 ], [ -103.4075469, 20.296764 ], [ -103.4074235, 20.2967966 ], [ -103.4074211, 20.2967981 ], [ -103.4073477, 20.296832 ], [ -103.407183, 20.2968804 ], [ -103.4071334, 20.2968949 ], [ -103.4070083, 20.2969354 ], [ -103.4068832, 20.2969759 ], [ -103.4067687, 20.2970889 ], [ -103.4067686, 20.2970889 ], [ -103.4067684, 20.2970892 ], [ -103.4065688, 20.2973927 ], [ -103.4065673, 20.2973951 ], [ -103.4063643, 20.2977983 ], [ -103.4055661, 20.2977468 ], [ -103.4055099, 20.2977437 ], [ -103.4054692, 20.2977415 ], [ -103.4054546, 20.2978019 ], [ -103.4054525, 20.2978039 ], [ -103.4052458, 20.2977038 ], [ -103.4051129, 20.2975495 ], [ -103.4041947, 20.2976429 ], [ -103.4041947, 20.2976429 ], [ -103.4041036, 20.2977989 ], [ -103.4028998, 20.297805 ], [ -103.4028176, 20.2971863 ], [ -103.4024126, 20.2962246 ], [ -103.4015542, 20.2961857 ], [ -103.4005012, 20.2961379 ], [ -103.4005005, 20.2961379 ], [ -103.4005639, 20.2957926 ], [ -103.4008329, 20.2939848 ], [ -103.3969432, 20.2933705 ], [ -103.3968474, 20.2941867 ], [ -103.3958617, 20.2934269 ], [ -103.3939041, 20.2935534 ], [ -103.3926471, 20.2936346 ], [ -103.3926463, 20.2936346 ], [ -103.3926411, 20.293635 ], [ -103.392641, 20.2936355 ], [ -103.3926298, 20.2949842 ], [ -103.3926298, 20.2949844 ], [ -103.3926298, 20.2949848 ], [ -103.3926293, 20.2949849 ], [ -103.3906504, 20.295149 ], [ -103.3901851, 20.2949019 ], [ -103.3898887, 20.294833 ], [ -103.3898636, 20.2948272 ], [ -103.3899147, 20.2953625 ], [ -103.3897188, 20.29555 ], [ -103.3893454, 20.2957136 ], [ -103.3880751, 20.2957447 ], [ -103.3881276, 20.2953239 ], [ -103.388237, 20.29484 ], [ -103.3882561, 20.2946114 ], [ -103.3875002, 20.2944935 ], [ -103.3874999, 20.2944934 ], [ -103.3874759, 20.2945889 ], [ -103.3874455, 20.2947097 ], [ -103.3856671, 20.2946223 ], [ -103.3855728, 20.2946177 ], [ -103.3855726, 20.2946177 ], [ -103.3854569, 20.2949895 ], [ -103.3854557, 20.294992 ], [ -103.3851951, 20.2959089 ], [ -103.3851931, 20.2959109 ], [ -103.3850543, 20.2969045 ], [ -103.3850711, 20.2973174 ], [ -103.385084, 20.297633 ], [ -103.3850774, 20.2978262 ], [ -103.385076, 20.2978286 ], [ -103.3850032, 20.2980185 ], [ -103.3854182, 20.2978096 ], [ -103.3854732, 20.2982037 ], [ -103.385486, 20.298295 ], [ -103.3854861, 20.2982954 ], [ -103.3851417, 20.2983376 ], [ -103.3848113, 20.2983556 ], [ -103.3845581, 20.298157 ], [ -103.3845012, 20.2981428 ], [ -103.3843029, 20.2980936 ], [ -103.3843025, 20.2980935 ], [ -103.3839672, 20.2991811 ], [ -103.3840461, 20.2992549 ], [ -103.3842039, 20.2994024 ], [ -103.3842048, 20.2994103 ], [ -103.3842231, 20.2995756 ], [ -103.3841029, 20.2999725 ], [ -103.3839936, 20.3000825 ], [ -103.383824, 20.3002531 ], [ -103.383822, 20.3002551 ], [ -103.3838117, 20.3003921 ], [ -103.3838025, 20.3004337 ], [ -103.3837737, 20.3005636 ], [ -103.3837618, 20.3007335 ], [ -103.3837543, 20.3008417 ], [ -103.3837543, 20.3008424 ], [ -103.3837542, 20.3008426 ], [ -103.3836692, 20.3008488 ], [ -103.3833279, 20.3007944 ], [ -103.3832435, 20.300755 ], [ -103.383126, 20.3007002 ], [ -103.3829191, 20.3005583 ], [ -103.3828084, 20.3004824 ], [ -103.38242, 20.300054 ], [ -103.3822306, 20.2999334 ], [ -103.3821567, 20.2999041 ] ] ] } },
{ "type": "Feature", "properties": { "CVEGEO": "140500011", "NOM_ENT": "Jalisco", "NOM_MUN": "Jocotepec", "NOMGEO": "San Juan Cosalá", "CABECERA": "No", "POB1": 8453.0, "POB2": 537.0, "POB2_R": 6.4, "POB4": 557.0, "POB4_R": 6.6, "POB5": 1130.0, "POB5_R": 13.4, "POB6": 1229.0, "POB6_R": 14.5, "POB7": 477.0, "POB7_R": 5.6, "POB8": 2701.0, "POB8_R": 32.0, "POB9": 494.0, "POB9_R": 5.8, "POB10": 1570.0, "POB10_R": 18.6, "POB11": 2244.0, "POB11_R": 26.5, "POB12": 5100.0, "POB12_R": 60.3, "POB13": 1076.0, "POB13_R": 12.7, "POB14": 2009.0, "POB14_R": 23.8, "POB15": 617.0, "POB15_R": 7.3, "POB17": 7916.0, "POB17_R": 93.6, "POB18": 7567.0, "POB18_R": 89.5, "POB19": 6229.0, "POB19_R": 73.7, "POB20": 5752.0, "POB20_R": 68.0, "POB21": 5258.0, "POB21_R": 62.2, "POB22": 4182.0, "POB22_R": 49.5, "POB23": 882.0, "POB23_R": 10.4, "POB24": 652.0, "POB24_R": 7.7, "POB25": 451.0, "POB25_R": 5.3, "POB42": 4293.0, "POB42_R": 50.8, "POB43": 273.0, "POB43_R": 3.2, "POB45": 289.0, "POB45_R": 3.4, "POB46": 563.0, "POB46_R": 6.7, "POB47": 617.0, "POB47_R": 7.3, "POB48": 236.0, "POB48_R": 2.8, "POB49": 1361.0, "POB49_R": 16.1, "POB50": 257.0, "POB50_R": 3.0, "POB51": 751.0, "POB51_R": 8.9, "POB52": 1084.0, "POB52_R": 12.8, "POB53": 2128.0, "POB53_R": 25.2, "POB54": 2577.0, "POB54_R": 30.5, "POB55": 494.0, "POB55_R": 5.8, "POB56": 1044.0, "POB56_R": 12.4, "POB57": 323.0, "POB57_R": 3.8, "POB59": 4020.0, "POB59_R": 47.6, "POB60": 3841.0, "POB60_R": 45.4, "POB61": 3168.0, "POB61_R": 37.5, "POB62": 2932.0, "POB62_R": 34.7, "POB63": 2675.0, "POB63_R": 31.6, "POB64": 2181.0, "POB64_R": 25.8, "POB65": 481.0, "POB65_R": 5.7, "POB66": 355.0, "POB66_R": 4.2, "POB67": 244.0, "POB67_R": 2.9, "POB84": 4160.0, "POB84_R": 49.2, "POB85": 264.0, "POB85_R": 3.1, "POB87": 268.0, "POB87_R": 3.2, "POB88": 567.0, "POB88_R": 6.7, "POB89": 612.0, "POB89_R": 7.2, "POB90": 241.0, "POB90_R": 2.9, "POB91": 1340.0, "POB91_R": 15.9, "POB92": 237.0, "POB92_R": 2.8, "POB93": 819.0, "POB93_R": 9.7, "POB94": 1160.0, "POB94_R": 13.7, "POB95": 2523.0, "POB95_R": 29.8, "POB96": 582.0, "POB96_R": 6.9, "POB97": 965.0, "POB97_R": 11.4, "POB98": 294.0, "POB98_R": 3.5, "POB100": 3896.0, "POB100_R": 46.1, "POB101": 3726.0, "POB101_R": 44.1, "POB102": 3061.0, "POB102_R": 36.2, "POB103": 2820.0, "POB103_R": 33.4, "POB104": 2583.0, "POB104_R": 30.6, "POB105": 2001.0, "POB105_R": 23.7, "POB106": 401.0, "POB106_R": 4.7, "POB107": 297.0, "POB107_R": 3.5, "POB108": 207.0, "POB108_R": 2.4, "POB125_R": 96.9, "POB126_R": 65.7, "POB127_R": 53.0, "POB128_R": 12.8, "POB129_R": 24.0, "POB130_R": 25.0, "POB131_R": 23.0, "POB132_R": 32.7, "POB133_R": 35.3, "POB134_R": 29.9, "POB3": 886.0, "POB3_R": 10.5, "POB16": 230.0, "POB16_R": 2.7, "POB26": 967.0, "POB26_R": 11.4, "POB27": 848.0, "POB27_R": 10.0, "POB28": 841.0, "POB28_R": 9.9, "POB29": 729.0, "POB29_R": 8.6, "POB30": 674.0, "POB30_R": 8.0, "POB31": 585.0, "POB31_R": 6.9, "POB32": 541.0, "POB32_R": 6.4, "POB33": 450.0, "POB33_R": 5.3, "POB34": 433.0, "POB34_R": 5.1, "POB35": 351.0, "POB35_R": 4.2, "POB36": 266.0, "POB36_R": 3.1, "POB37": 201.0, "POB37_R": 2.4, "POB38": 185.0, "POB38_R": 2.2, "POB39": 133.0, "POB39_R": 1.6, "POB40": 71.0, "POB40_R": 0.8, "POB41": 62.0, "POB41_R": 0.7, "POB44": 452.0, "POB44_R": 5.3, "POB58": 126.0, "POB58_R": 1.5, "POB68": 483.0, "POB68_R": 5.7, "POB69": 426.0, "POB69_R": 5.0, "POB70": 432.0, "POB70_R": 5.1, "POB71": 319.0, "POB71_R": 3.8, "POB72": 333.0, "POB72_R": 3.9, "POB73": 296.0, "POB73_R": 3.5, "POB74": 285.0, "POB74_R": 3.4, "POB75": 242.0, "POB75_R": 2.9, "POB76": 221.0, "POB76_R": 2.6, "POB77": 181.0, "POB77_R": 2.1, "POB78": 142.0, "POB78_R": 1.7, "POB79": 111.0, "POB79_R": 1.3, "POB80": 102.0, "POB80_R": 1.2, "POB81": 71.0, "POB81_R": 0.8, "POB82": 35.0, "POB82_R": 0.4, "POB83": 36.0, "POB83_R": 0.4, "POB86": 434.0, "POB86_R": 5.1, "POB99": 104.0, "POB99_R": 1.2, "POB109": 484.0, "POB109_R": 5.7, "POB110": 422.0, "POB110_R": 5.0, "POB111": 409.0, "POB111_R": 4.8, "POB112": 410.0, "POB112_R": 4.9, "POB113": 341.0, "POB113_R": 4.0, "POB114": 289.0, "POB114_R": 3.4, "POB115": 256.0, "POB115_R": 3.0, "POB116": 208.0, "POB116_R": 2.5, "POB117": 212.0, "POB117_R": 2.5, "POB118": 170.0, "POB118_R": 2.0, "POB119": 124.0, "POB119_R": 1.5, "POB120": 90.0, "POB120_R": 1.1, "POB121": 83.0, "POB121_R": 1.0, "POB122": 62.0, "POB122_R": 0.7, "POB123": 36.0, "POB123_R": 0.4, "POB124": 26.0, "POB124_R": 0.3, "OID": 84 }, "geometry": { "type": "Polygon", "coordinates": [ [ [ -103.3295151, 20.2944009 ], [ -103.3295997, 20.2942125 ], [ -103.3293505, 20.2944691 ], [ -103.3288513, 20.2946511 ], [ -103.3286487, 20.2943856 ], [ -103.3284231, 20.2947029 ], [ -103.3278971, 20.2953066 ], [ -103.3273801, 20.2956345 ], [ -103.3265872, 20.2953743 ], [ -103.3257844, 20.2948143 ], [ -103.3258032, 20.2947692 ], [ -103.3260522, 20.2941709 ], [ -103.3273151, 20.2931165 ], [ -103.3275771, 20.2928977 ], [ -103.3272245, 20.2920817 ], [ -103.3272319, 20.2920304 ], [ -103.3272913, 20.2916189 ], [ -103.3272958, 20.2916039 ], [ -103.327402, 20.2912539 ], [ -103.3275592, 20.2911555 ], [ -103.3278496, 20.2912133 ], [ -103.3280179, 20.2905527 ], [ -103.3280795, 20.2903106 ], [ -103.3281351, 20.2900381 ], [ -103.3281494, 20.2899678 ], [ -103.3283083, 20.2895703 ], [ -103.3284382, 20.2888412 ], [ -103.3283466, 20.2884109 ], [ -103.3280013, 20.2878155 ], [ -103.3273914, 20.2873932 ], [ -103.3268962, 20.2874488 ], [ -103.3262625, 20.2866501 ], [ -103.3259124, 20.2867776 ], [ -103.3254208, 20.2869056 ], [ -103.3249757, 20.2869421 ], [ -103.3246295, 20.2869434 ], [ -103.3246091, 20.2869415 ], [ -103.3237169, 20.2868563 ], [ -103.3232648, 20.2868191 ], [ -103.3230938, 20.2868292 ], [ -103.3227176, 20.2869315 ], [ -103.3225397, 20.286615 ], [ -103.3225352, 20.286607 ], [ -103.322832, 20.2864974 ], [ -103.3236849, 20.2864706 ], [ -103.3243351, 20.2864733 ], [ -103.3249263, 20.2863924 ], [ -103.3250543, 20.2863378 ], [ -103.3251451, 20.2862991 ], [ -103.3260077, 20.2860943 ], [ -103.3265635, 20.2857739 ], [ -103.3268878, 20.2855727 ], [ -103.3273625, 20.2854078 ], [ -103.3278026, 20.2853197 ], [ -103.3281398, 20.2851043 ], [ -103.3285221, 20.284783 ], [ -103.3288986, 20.2843481 ], [ -103.329026, 20.284347 ], [ -103.3294023, 20.2843345 ], [ -103.3297257, 20.2842778 ], [ -103.3299961, 20.2841541 ], [ -103.3304755, 20.2839179 ], [ -103.3307348, 20.2838679 ], [ -103.3309001, 20.2838744 ], [ -103.3311271, 20.2839844 ], [ -103.3313945, 20.2840641 ], [ -103.3316929, 20.2840477 ], [ -103.3320652, 20.284058 ], [ -103.3324863, 20.2839289 ], [ -103.3331061, 20.283721 ], [ -103.3340555, 20.2835299 ], [ -103.3342986, 20.2833638 ], [ -103.3345974, 20.2831555 ], [ -103.3350887, 20.2829041 ], [ -103.3356444, 20.2831414 ], [ -103.3371172, 20.2834985 ], [ -103.337444, 20.2830604 ], [ -103.3380688, 20.2830665 ], [ -103.3390846, 20.2832672 ], [ -103.3395255, 20.2834106 ], [ -103.3397708, 20.2834533 ], [ -103.3400939, 20.2835199 ], [ -103.3403347, 20.2835984 ], [ -103.3405856, 20.2837136 ], [ -103.3407733, 20.2839098 ], [ -103.3409026, 20.2842045 ], [ -103.3415497, 20.2846869 ], [ -103.342117, 20.2851734 ], [ -103.3428535, 20.2857379 ], [ -103.3431773, 20.286074 ], [ -103.3437301, 20.2862345 ], [ -103.3443176, 20.2863499 ], [ -103.3447184, 20.2867371 ], [ -103.3452497, 20.2872414 ], [ -103.3455168, 20.2876562 ], [ -103.3457582, 20.287862 ], [ -103.3465087, 20.2881949 ], [ -103.3475336, 20.2883908 ], [ -103.3486501, 20.2885003 ], [ -103.3494258, 20.2887244 ], [ -103.35016, 20.2889957 ], [ -103.3509246, 20.2891347 ], [ -103.35165, 20.2890907 ], [ -103.3521692, 20.2889938 ], [ -103.3530966, 20.2894098 ], [ -103.353578, 20.2894435 ], [ -103.3542498, 20.2896399 ], [ -103.3551271, 20.2897003 ], [ -103.355994, 20.289676 ], [ -103.3563262, 20.2895983 ], [ -103.3569231, 20.2895731 ], [ -103.3572438, 20.2894108 ], [ -103.3579765, 20.2895222 ], [ -103.3580374, 20.2896649 ], [ -103.3582137, 20.289788 ], [ -103.3584733, 20.2898345 ], [ -103.3584725, 20.2898418 ], [ -103.3584576, 20.2899692 ], [ -103.3584488, 20.2901045 ], [ -103.3584472, 20.2902399 ], [ -103.3584177, 20.2903726 ], [ -103.358347, 20.2904905 ], [ -103.3583429, 20.2905193 ], [ -103.3583202, 20.2906796 ], [ -103.3583093, 20.2907591 ], [ -103.358242, 20.2910225 ], [ -103.3582395, 20.291158 ], [ -103.358259, 20.2912922 ], [ -103.3583107, 20.2914186 ], [ -103.3583271, 20.2915533 ], [ -103.3583435, 20.2916167 ], [ -103.3585479, 20.2916231 ], [ -103.3585495, 20.2917767 ], [ -103.3585565, 20.2919524 ], [ -103.3585621, 20.2920926 ], [ -103.3584991, 20.2921947 ], [ -103.3584765, 20.2923285 ], [ -103.3584811, 20.2924639 ], [ -103.3584805, 20.2925994 ], [ -103.3584593, 20.2927334 ], [ -103.3584302, 20.2928416 ], [ -103.358424, 20.2928647 ], [ -103.3584251, 20.2931358 ], [ -103.3584522, 20.2932688 ], [ -103.3584577, 20.2934042 ], [ -103.3584803, 20.2934553 ], [ -103.3585131, 20.2935292 ], [ -103.3585399, 20.2936623 ], [ -103.3585385, 20.2937446 ], [ -103.3581502, 20.2938525 ], [ -103.3575245, 20.2936939 ], [ -103.3572886, 20.2937882 ], [ -103.357256, 20.2938013 ], [ -103.3569263, 20.2943991 ], [ -103.3568135, 20.2948965 ], [ -103.3566833, 20.2949589 ], [ -103.3557256, 20.2948489 ], [ -103.3554551, 20.2948597 ], [ -103.354998, 20.2951076 ], [ -103.3550198, 20.2941662 ], [ -103.3544262, 20.294035 ], [ -103.3540104, 20.294079 ], [ -103.3538354, 20.2942558 ], [ -103.352696, 20.294285 ], [ -103.3525753, 20.2942797 ], [ -103.3524942, 20.294284 ], [ -103.3517498, 20.2943234 ], [ -103.3511288, 20.2943563 ], [ -103.351115, 20.294357 ], [ -103.3510765, 20.2943591 ], [ -103.3510616, 20.2931188 ], [ -103.3511263, 20.2928855 ], [ -103.3511237, 20.2928849 ], [ -103.3504017, 20.2927143 ], [ -103.3493198, 20.2924841 ], [ -103.3478164, 20.2921761 ], [ -103.3476793, 20.2925728 ], [ -103.3468668, 20.2921738 ], [ -103.3464987, 20.2928003 ], [ -103.3455243, 20.2923124 ], [ -103.3456816, 20.2921607 ], [ -103.3447305, 20.2918612 ], [ -103.3444267, 20.2921173 ], [ -103.3442673, 20.2923058 ], [ -103.3439998, 20.2926134 ], [ -103.3436111, 20.2929277 ], [ -103.3432877, 20.2932835 ], [ -103.3427945, 20.2935971 ], [ -103.3426404, 20.2935671 ], [ -103.3422579, 20.2934926 ], [ -103.3421483, 20.2934147 ], [ -103.3416382, 20.2928627 ], [ -103.3416908, 20.2925053 ], [ -103.3417597, 20.2920367 ], [ -103.3409184, 20.2919466 ], [ -103.3408806, 20.2919426 ], [ -103.3401295, 20.2915418 ], [ -103.3400172, 20.2916247 ], [ -103.3398815, 20.2917009 ], [ -103.3399194, 20.2913981 ], [ -103.3390803, 20.2912233 ], [ -103.3390736, 20.2912635 ], [ -103.3390545, 20.291377 ], [ -103.3390242, 20.291369 ], [ -103.3385536, 20.2912462 ], [ -103.3383771, 20.2915031 ], [ -103.3376995, 20.2913093 ], [ -103.3376402, 20.2914024 ], [ -103.3370774, 20.2912314 ], [ -103.3367333, 20.2919277 ], [ -103.3366692, 20.2920936 ], [ -103.3372053, 20.2923046 ], [ -103.3372061, 20.2924503 ], [ -103.3371411, 20.2925785 ], [ -103.3370818, 20.2926677 ], [ -103.3369753, 20.2927587 ], [ -103.33684, 20.2928039 ], [ -103.3367117, 20.2928648 ], [ -103.3366031, 20.2929535 ], [ -103.3364972, 20.293045 ], [ -103.3364466, 20.2931718 ], [ -103.3363907, 20.2932966 ], [ -103.3363145, 20.2934114 ], [ -103.3362373, 20.2935257 ], [ -103.3361509, 20.2936339 ], [ -103.3360693, 20.2937454 ], [ -103.3360182, 20.2938721 ], [ -103.3359362, 20.2939833 ], [ -103.3358684, 20.2941027 ], [ -103.3358554, 20.2941563 ], [ -103.334771, 20.2942649 ], [ -103.3344952, 20.2945231 ], [ -103.334207, 20.2947986 ], [ -103.3338951, 20.2951145 ], [ -103.3332154, 20.2957886 ], [ -103.3320478, 20.2958988 ], [ -103.3311026, 20.2960349 ], [ -103.3304641, 20.2956281 ], [ -103.3302816, 20.2951395 ], [ -103.3299238, 20.2949151 ], [ -103.3295151, 20.2944009 ] ] ] } },
{ "type": "Feature", "properties": { "CVEGEO": "140500017", "NOM_ENT": "Jalisco", "NOM_MUN": "Jocotepec", "NOMGEO": "Zapotitán de Hidalgo", "CABECERA": "No", "POB1": 3978.0, "POB2": 238.0, "POB2_R": 6.0, "POB4": 236.0, "POB4_R": 5.9, "POB5": 454.0, "POB5_R": 11.4, "POB6": 521.0, "POB6_R": 13.1, "POB7": 209.0, "POB7_R": 5.3, "POB8": 1137.0, "POB8_R": 28.6, "POB9": 243.0, "POB9_R": 6.1, "POB10": 709.0, "POB10_R": 17.8, "POB11": 994.0, "POB11_R": 25.0, "POB12": 2420.0, "POB12_R": 60.8, "POB13": 466.0, "POB13_R": 11.7, "POB14": 929.0, "POB14_R": 23.4, "POB15": 348.0, "POB15_R": 8.7, "POB17": 3740.0, "POB17_R": 94.0, "POB18": 3577.0, "POB18_R": 89.9, "POB19": 3050.0, "POB19_R": 76.7, "POB20": 2841.0, "POB20_R": 71.4, "POB21": 2598.0, "POB21_R": 65.3, "POB22": 2132.0, "POB22_R": 53.6, "POB23": 570.0, "POB23_R": 14.3, "POB24": 421.0, "POB24_R": 10.6, "POB25": 312.0, "POB25_R": 7.8, "POB42": 2058.0, "POB42_R": 51.7, "POB43": 114.0, "POB43_R": 2.9, "POB45": 122.0, "POB45_R": 3.1, "POB46": 232.0, "POB46_R": 5.8, "POB47": 277.0, "POB47_R": 7.0, "POB48": 118.0, "POB48_R": 3.0, "POB49": 586.0, "POB49_R": 14.7, "POB50": 132.0, "POB50_R": 3.3, "POB51": 362.0, "POB51_R": 9.1, "POB52": 517.0, "POB52_R": 13.0, "POB53": 996.0, "POB53_R": 25.0, "POB54": 1261.0, "POB54_R": 31.7, "POB55": 230.0, "POB55_R": 5.8, "POB56": 479.0, "POB56_R": 12.0, "POB57": 184.0, "POB57_R": 4.6, "POB59": 1944.0, "POB59_R": 48.9, "POB60": 1869.0, "POB60_R": 47.0, "POB61": 1590.0, "POB61_R": 40.0, "POB62": 1472.0, "POB62_R": 37.0, "POB63": 1340.0, "POB63_R": 33.7, "POB64": 1110.0, "POB64_R": 27.9, "POB65": 292.0, "POB65_R": 7.3, "POB66": 211.0, "POB66_R": 5.3, "POB67": 157.0, "POB67_R": 3.9, "POB84": 1920.0, "POB84_R": 48.3, "POB85": 124.0, "POB85_R": 3.1, "POB87": 114.0, "POB87_R": 2.9, "POB88": 222.0, "POB88_R": 5.6, "POB89": 244.0, "POB89_R": 6.1, "POB90": 91.0, "POB90_R": 2.3, "POB91": 551.0, "POB91_R": 13.9, "POB92": 111.0, "POB92_R": 2.8, "POB93": 347.0, "POB93_R": 8.7, "POB94": 477.0, "POB94_R": 12.0, "POB95": 1159.0, "POB95_R": 29.1, "POB96": 236.0, "POB96_R": 5.9, "POB97": 450.0, "POB97_R": 11.3, "POB98": 164.0, "POB98_R": 4.1, "POB100": 1796.0, "POB100_R": 45.1, "POB101": 1708.0, "POB101_R": 42.9, "POB102": 1460.0, "POB102_R": 36.7, "POB103": 1369.0, "POB103_R": 34.4, "POB104": 1258.0, "POB104_R": 31.6, "POB105": 1022.0, "POB105_R": 25.7, "POB106": 278.0, "POB106_R": 7.0, "POB107": 210.0, "POB107_R": 5.3, "POB108": 155.0, "POB108_R": 3.9, "POB125_R": 93.3, "POB126_R": 64.4, "POB127_R": 47.0, "POB128_R": 17.4, "POB129_R": 27.0, "POB130_R": 27.0, "POB131_R": 27.0, "POB132_R": 50.1, "POB133_R": 49.8, "POB134_R": 50.5, "POB3": 401.0, "POB3_R": 10.1, "POB16": 149.0, "POB16_R": 3.7, "POB26": 382.0, "POB26_R": 9.6, "POB27": 354.0, "POB27_R": 8.9, "POB28": 375.0, "POB28_R": 9.4, "POB29": 334.0, "POB29_R": 8.4, "POB30": 285.0, "POB30_R": 7.2, "POB31": 262.0, "POB31_R": 6.6, "POB32": 227.0, "POB32_R": 5.7, "POB33": 246.0, "POB33_R": 6.2, "POB34": 194.0, "POB34_R": 4.9, "POB35": 175.0, "POB35_R": 4.4, "POB36": 173.0, "POB36_R": 4.3, "POB37": 109.0, "POB37_R": 2.7, "POB38": 125.0, "POB38_R": 3.1, "POB39": 66.0, "POB39_R": 1.7, "POB40": 51.0, "POB40_R": 1.3, "POB41": 70.0, "POB41_R": 1.8, "POB44": 189.0, "POB44_R": 4.8, "POB58": 81.0, "POB58_R": 2.0, "POB68": 205.0, "POB68_R": 5.2, "POB69": 192.0, "POB69_R": 4.8, "POB70": 182.0, "POB70_R": 4.6, "POB71": 180.0, "POB71_R": 4.5, "POB72": 155.0, "POB72_R": 3.9, "POB73": 145.0, "POB73_R": 3.6, "POB74": 112.0, "POB74_R": 2.8, "POB75": 128.0, "POB75_R": 3.2, "POB76": 94.0, "POB76_R": 2.4, "POB77": 94.0, "POB77_R": 2.4, "POB78": 90.0, "POB78_R": 2.3, "POB79": 54.0, "POB79_R": 1.4, "POB80": 61.0, "POB80_R": 1.5, "POB81": 35.0, "POB81_R": 0.9, "POB82": 23.0, "POB82_R": 0.6, "POB83": 38.0, "POB83_R": 1.0, "POB86": 212.0, "POB86_R": 5.3, "POB99": 68.0, "POB99_R": 1.7, "POB109": 177.0, "POB109_R": 4.4, "POB110": 162.0, "POB110_R": 4.1, "POB111": 193.0, "POB111_R": 4.9, "POB112": 154.0, "POB112_R": 3.9, "POB113": 130.0, "POB113_R": 3.3, "POB114": 117.0, "POB114_R": 2.9, "POB115": 115.0, "POB115_R": 2.9, "POB116": 118.0, "POB116_R": 3.0, "POB117": 100.0, "POB117_R": 2.5, "POB118": 81.0, "POB118_R": 2.0, "POB119": 83.0, "POB119_R": 2.1, "POB120": 55.0, "POB120_R": 1.4, "POB121": 64.0, "POB121_R": 1.6, "POB122": 31.0, "POB122_R": 0.8, "POB123": 28.0, "POB123_R": 0.7, "POB124": 32.0, "POB124_R": 0.8, "OID": 85 }, "geometry": { "type": "Polygon", "coordinates": [ [ [ -103.4822977, 20.3307441 ], [ -103.481866, 20.3299832 ], [ -103.4797653, 20.3313695 ], [ -103.4771873, 20.3291757 ], [ -103.4754997, 20.3287451 ], [ -103.4743587, 20.328426 ], [ -103.4741135, 20.3286469 ], [ -103.4729956, 20.3296126 ], [ -103.4727255, 20.3294355 ], [ -103.472248, 20.3291164 ], [ -103.4719822, 20.328931 ], [ -103.4707196, 20.3298397 ], [ -103.4698825, 20.3304391 ], [ -103.4696377, 20.3302624 ], [ -103.4698407, 20.3300616 ], [ -103.4708362, 20.3290804 ], [ -103.4714483, 20.3284221 ], [ -103.4709685, 20.3279916 ], [ -103.4710966, 20.3278786 ], [ -103.4713115, 20.3276891 ], [ -103.4713171, 20.3276842 ], [ -103.4729129, 20.3280258 ], [ -103.4741102, 20.327074 ], [ -103.4738426, 20.3269755 ], [ -103.4733675, 20.3268291 ], [ -103.4728067, 20.326638 ], [ -103.4725023, 20.3265399 ], [ -103.4721721, 20.3263499 ], [ -103.4724364, 20.3260676 ], [ -103.4721823, 20.3257203 ], [ -103.4732157, 20.3248196 ], [ -103.4735558, 20.3251454 ], [ -103.4737564, 20.3254159 ], [ -103.4740314, 20.3252301 ], [ -103.4741572, 20.3251691 ], [ -103.4742618, 20.32517 ], [ -103.474443, 20.3251602 ], [ -103.4746561, 20.3251658 ], [ -103.4747929, 20.3251746 ], [ -103.4750216, 20.3252335 ], [ -103.4751936, 20.3252946 ], [ -103.4758305, 20.3247827 ], [ -103.4757388, 20.3246452 ], [ -103.4751088, 20.3237862 ], [ -103.4747909, 20.3233527 ], [ -103.4744527, 20.323584 ], [ -103.4744284, 20.3236006 ], [ -103.4737798, 20.3228589 ], [ -103.4734842, 20.3230586 ], [ -103.4733597, 20.3228868 ], [ -103.4733579, 20.3228843 ], [ -103.4732477, 20.3229615 ], [ -103.4729597, 20.3225847 ], [ -103.4724266, 20.321887 ], [ -103.4718236, 20.3210978 ], [ -103.4726799, 20.3204215 ], [ -103.472901, 20.3207572 ], [ -103.4750311, 20.3189357 ], [ -103.4747283, 20.3185498 ], [ -103.4752834, 20.318025 ], [ -103.4754314, 20.3182086 ], [ -103.4754364, 20.3182057 ], [ -103.4756617, 20.3180763 ], [ -103.4762234, 20.3177534 ], [ -103.476814, 20.3174291 ], [ -103.4771127, 20.3172651 ], [ -103.47821, 20.3187579 ], [ -103.4797607, 20.3178398 ], [ -103.4820061, 20.3209137 ], [ -103.4791077, 20.3225835 ], [ -103.4801896, 20.324084 ], [ -103.4806012, 20.3238422 ], [ -103.4814866, 20.3233375 ], [ -103.4818139, 20.3237917 ], [ -103.4821646, 20.3242878 ], [ -103.4822453, 20.3244209 ], [ -103.4824665, 20.3243215 ], [ -103.4828794, 20.3243889 ], [ -103.483834, 20.3238285 ], [ -103.4869419, 20.3220634 ], [ -103.4891373, 20.3208332 ], [ -103.4900711, 20.3203199 ], [ -103.4908875, 20.3198712 ], [ -103.4912755, 20.3196494 ], [ -103.4908256, 20.3192393 ], [ -103.4909606, 20.3191332 ], [ -103.491513, 20.3186993 ], [ -103.4907935, 20.3181008 ], [ -103.4911862, 20.3178067 ], [ -103.4919833, 20.3183883 ], [ -103.4922094, 20.3184392 ], [ -103.492425, 20.3184087 ], [ -103.4933116, 20.3178781 ], [ -103.4952256, 20.3192201 ], [ -103.4944214, 20.319714 ], [ -103.4956389, 20.3206556 ], [ -103.4954285, 20.3208475 ], [ -103.4969084, 20.3219735 ], [ -103.496538, 20.3222982 ], [ -103.4964076, 20.3223791 ], [ -103.4965524, 20.3225162 ], [ -103.4944004, 20.3237209 ], [ -103.4941525, 20.323849 ], [ -103.4937362, 20.3232164 ], [ -103.4930152, 20.3236238 ], [ -103.4924048, 20.3228858 ], [ -103.49089, 20.3237361 ], [ -103.4910175, 20.3239481 ], [ -103.4906728, 20.3241399 ], [ -103.4913342, 20.3252734 ], [ -103.4913066, 20.3252888 ], [ -103.491189, 20.3253544 ], [ -103.4898029, 20.3261277 ], [ -103.4890103, 20.3248057 ], [ -103.4878815, 20.3254981 ], [ -103.4864116, 20.3263403 ], [ -103.4851927, 20.3270311 ], [ -103.4839925, 20.3277483 ], [ -103.4846258, 20.3277494 ], [ -103.4848095, 20.3277853 ], [ -103.4849596, 20.3278369 ], [ -103.4850389, 20.327855 ], [ -103.4850968, 20.3278541 ], [ -103.4852994, 20.3278485 ], [ -103.4855034, 20.327913 ], [ -103.4859782, 20.3287126 ], [ -103.4855384, 20.3289563 ], [ -103.485438, 20.3290119 ], [ -103.4854771, 20.3290671 ], [ -103.4857648, 20.329481 ], [ -103.4859122, 20.3297146 ], [ -103.486104, 20.3300243 ], [ -103.4863982, 20.3305246 ], [ -103.4854901, 20.3310325 ], [ -103.4848306, 20.3314014 ], [ -103.4847854, 20.331326 ], [ -103.4844013, 20.3306745 ], [ -103.4843415, 20.3305754 ], [ -103.4827034, 20.3314348 ], [ -103.4822977, 20.3307441 ] ] ] } },
{ "type": "Feature", "properties": { "CVEGEO": "140500008", "NOM_ENT": "Jalisco", "NOM_MUN": "Jocotepec", "NOMGEO": "San Cristóbal Zapotitlán", "CABECERA": "No", "POB1": 2607.0, "POB2": 167.0, "POB2_R": 6.4, "POB4": 156.0, "POB4_R": 6.0, "POB5": 315.0, "POB5_R": 12.1, "POB6": 346.0, "POB6_R": 13.3, "POB7": 151.0, "POB7_R": 5.8, "POB8": 789.0, "POB8_R": 30.3, "POB9": 149.0, "POB9_R": 5.7, "POB10": 451.0, "POB10_R": 17.3, "POB11": 670.0, "POB11_R": 25.7, "POB12": 1558.0, "POB12_R": 59.8, "POB13": 302.0, "POB13_R": 11.6, "POB14": 601.0, "POB14_R": 23.1, "POB15": 206.0, "POB15_R": 7.9, "POB17": 2440.0, "POB17_R": 93.6, "POB18": 2334.0, "POB18_R": 89.5, "POB19": 1969.0, "POB19_R": 75.5, "POB20": 1818.0, "POB20_R": 69.7, "POB21": 1669.0, "POB21_R": 64.0, "POB22": 1367.0, "POB22_R": 52.4, "POB23": 341.0, "POB23_R": 13.1, "POB24": 260.0, "POB24_R": 10.0, "POB25": 194.0, "POB25_R": 7.4, "POB42": 1333.0, "POB42_R": 51.1, "POB43": 85.0, "POB43_R": 3.3, "POB45": 65.0, "POB45_R": 2.5, "POB46": 146.0, "POB46_R": 5.6, "POB47": 171.0, "POB47_R": 6.6, "POB48": 83.0, "POB48_R": 3.2, "POB49": 379.0, "POB49_R": 14.5, "POB50": 73.0, "POB50_R": 2.8, "POB51": 224.0, "POB51_R": 8.6, "POB52": 334.0, "POB52_R": 12.8, "POB53": 646.0, "POB53_R": 24.8, "POB54": 806.0, "POB54_R": 30.9, "POB55": 151.0, "POB55_R": 5.8, "POB56": 312.0, "POB56_R": 12.0, "POB57": 108.0, "POB57_R": 4.1, "POB59": 1248.0, "POB59_R": 47.9, "POB60": 1204.0, "POB60_R": 46.2, "POB61": 1037.0, "POB61_R": 39.8, "POB62": 954.0, "POB62_R": 36.6, "POB63": 881.0, "POB63_R": 33.8, "POB64": 730.0, "POB64_R": 28.0, "POB65": 200.0, "POB65_R": 7.7, "POB66": 148.0, "POB66_R": 5.7, "POB67": 115.0, "POB67_R": 4.4, "POB84": 1274.0, "POB84_R": 48.9, "POB85": 82.0, "POB85_R": 3.1, "POB87": 91.0, "POB87_R": 3.5, "POB88": 169.0, "POB88_R": 6.5, "POB89": 175.0, "POB89_R": 6.7, "POB90": 68.0, "POB90_R": 2.6, "POB91": 410.0, "POB91_R": 15.7, "POB92": 76.0, "POB92_R": 2.9, "POB93": 227.0, "POB93_R": 8.7, "POB94": 336.0, "POB94_R": 12.9, "POB95": 752.0, "POB95_R": 28.8, "POB96": 151.0, "POB96_R": 5.8, "POB97": 289.0, "POB97_R": 11.1, "POB98": 98.0, "POB98_R": 3.8, "POB100": 1192.0, "POB100_R": 45.7, "POB101": 1130.0, "POB101_R": 43.3, "POB102": 932.0, "POB102_R": 35.7, "POB103": 864.0, "POB103_R": 33.1, "POB104": 788.0, "POB104_R": 30.2, "POB105": 637.0, "POB105_R": 24.4, "POB106": 141.0, "POB106_R": 5.4, "POB107": 112.0, "POB107_R": 4.3, "POB108": 79.0, "POB108_R": 3.0, "POB125_R": 95.6, "POB126_R": 67.3, "POB127_R": 50.6, "POB128_R": 16.7, "POB129_R": 26.0, "POB130_R": 27.0, "POB131_R": 24.5, "POB132_R": 43.2, "POB133_R": 52.8, "POB134_R": 34.4, "POB3": 273.0, "POB3_R": 10.5, "POB16": 81.0, "POB16_R": 3.1, "POB26": 273.0, "POB26_R": 10.5, "POB27": 243.0, "POB27_R": 9.3, "POB28": 230.0, "POB28_R": 8.8, "POB29": 221.0, "POB29_R": 8.5, "POB30": 219.0, "POB30_R": 8.4, "POB31": 162.0, "POB31_R": 6.2, "POB32": 161.0, "POB32_R": 6.2, "POB33": 156.0, "POB33_R": 6.0, "POB34": 122.0, "POB34_R": 4.7, "POB35": 111.0, "POB35_R": 4.3, "POB36": 95.0, "POB36_R": 3.6, "POB37": 66.0, "POB37_R": 2.5, "POB38": 50.0, "POB38_R": 1.9, "POB39": 44.0, "POB39_R": 1.7, "POB40": 48.0, "POB40_R": 1.8, "POB41": 52.0, "POB41_R": 2.0, "POB44": 129.0, "POB44_R": 4.9, "POB58": 52.0, "POB58_R": 2.0, "POB68": 126.0, "POB68_R": 4.8, "POB69": 124.0, "POB69_R": 4.8, "POB70": 107.0, "POB70_R": 4.1, "POB71": 117.0, "POB71_R": 4.5, "POB72": 110.0, "POB72_R": 4.2, "POB73": 77.0, "POB73_R": 3.0, "POB74": 83.0, "POB74_R": 3.2, "POB75": 89.0, "POB75_R": 3.4, "POB76": 63.0, "POB76_R": 2.4, "POB77": 56.0, "POB77_R": 2.1, "POB78": 52.0, "POB78_R": 2.0, "POB79": 33.0, "POB79_R": 1.3, "POB80": 23.0, "POB80_R": 0.9, "POB81": 26.0, "POB81_R": 1.0, "POB82": 31.0, "POB82_R": 1.2, "POB83": 35.0, "POB83_R": 1.3, "POB86": 144.0, "POB86_R": 5.5, "POB99": 29.0, "POB99_R": 1.1, "POB109": 147.0, "POB109_R": 5.6, "POB110": 119.0, "POB110_R": 4.6, "POB111": 123.0, "POB111_R": 4.7, "POB112": 104.0, "POB112_R": 4.0, "POB113": 109.0, "POB113_R": 4.2, "POB114": 85.0, "POB114_R": 3.3, "POB115": 78.0, "POB115_R": 3.0, "POB116": 67.0, "POB116_R": 2.6, "POB117": 59.0, "POB117_R": 2.3, "POB118": 55.0, "POB118_R": 2.1, "POB119": 43.0, "POB119_R": 1.6, "POB120": 33.0, "POB120_R": 1.3, "POB121": 27.0, "POB121_R": 1.0, "POB122": 18.0, "POB122_R": 0.7, "POB123": 17.0, "POB123_R": 0.7, "POB124": 17.0, "POB124_R": 0.7, "OID": 86 }, "geometry": { "type": "Polygon", "coordinates": [ [ [ -103.3730316, 20.2274758 ], [ -103.3726467, 20.2273727 ], [ -103.3719239, 20.2274066 ], [ -103.3703896, 20.2273764 ], [ -103.3702294, 20.2273705 ], [ -103.3702293, 20.2273705 ], [ -103.3698204, 20.2273112 ], [ -103.3698204, 20.2273112 ], [ -103.369567, 20.2273255 ], [ -103.3694709, 20.2273309 ], [ -103.3694708, 20.2273309 ], [ -103.3692839, 20.2272256 ], [ -103.3692391, 20.2272384 ], [ -103.3692223, 20.2272432 ], [ -103.3692222, 20.2272432 ], [ -103.3689142, 20.2271662 ], [ -103.3684417, 20.2270482 ], [ -103.368286, 20.2269507 ], [ -103.367806, 20.2266505 ], [ -103.3676312, 20.2265682 ], [ -103.3675868, 20.2265473 ], [ -103.367346, 20.2264592 ], [ -103.3672176, 20.2264866 ], [ -103.3670027, 20.2265322 ], [ -103.3668643, 20.2265693 ], [ -103.3667471, 20.2266006 ], [ -103.3664602, 20.2266774 ], [ -103.3664549, 20.2266788 ], [ -103.3660646, 20.2267832 ], [ -103.365994, 20.2268021 ], [ -103.3655501, 20.2269209 ], [ -103.3655026, 20.2269336 ], [ -103.3653988, 20.2269613 ], [ -103.3653988, 20.2269613 ], [ -103.3653001, 20.2268734 ], [ -103.3652381, 20.226818 ], [ -103.3650634, 20.2266622 ], [ -103.3649638, 20.2265734 ], [ -103.3648919, 20.2265092 ], [ -103.3648052, 20.2264319 ], [ -103.3647061, 20.2263435 ], [ -103.3646314, 20.2262801 ], [ -103.3645169, 20.226183 ], [ -103.3644942, 20.2261638 ], [ -103.3640826, 20.2258146 ], [ -103.3639871, 20.2257336 ], [ -103.3639866, 20.2257331 ], [ -103.3640159, 20.2256054 ], [ -103.3642294, 20.2246725 ], [ -103.3642361, 20.2246434 ], [ -103.3645836, 20.2247205 ], [ -103.3655289, 20.2249303 ], [ -103.3655289, 20.2249303 ], [ -103.3655986, 20.2249152 ], [ -103.3658186, 20.2246887 ], [ -103.3659366, 20.2243866 ], [ -103.3660171, 20.2241903 ], [ -103.3660922, 20.2237474 ], [ -103.3661204, 20.2235616 ], [ -103.3661405, 20.2234302 ], [ -103.3660759, 20.2231601 ], [ -103.3660707, 20.2231383 ], [ -103.3663497, 20.2220258 ], [ -103.3664945, 20.2213865 ], [ -103.3665803, 20.2214016 ], [ -103.3665803, 20.2214016 ], [ -103.3667895, 20.2202892 ], [ -103.3670631, 20.2199922 ], [ -103.3672294, 20.2198059 ], [ -103.3672319, 20.2197949 ], [ -103.3672454, 20.219736 ], [ -103.3673872, 20.2191163 ], [ -103.3674333, 20.2189149 ], [ -103.3679647, 20.2190251 ], [ -103.3684888, 20.2191337 ], [ -103.3692126, 20.2192837 ], [ -103.3699031, 20.2194268 ], [ -103.3700564, 20.2194586 ], [ -103.3700565, 20.2194586 ], [ -103.3706519, 20.2195693 ], [ -103.3706519, 20.2195693 ], [ -103.3706666, 20.2195709 ], [ -103.3713922, 20.2196499 ], [ -103.3713922, 20.2196499 ], [ -103.3712053, 20.2208165 ], [ -103.3712053, 20.2208167 ], [ -103.3711898, 20.2209129 ], [ -103.3710902, 20.2215349 ], [ -103.3710602, 20.2217224 ], [ -103.3713452, 20.221771 ], [ -103.3714328, 20.2217859 ], [ -103.3714437, 20.2217878 ], [ -103.3712453, 20.2229758 ], [ -103.3712646, 20.2229793 ], [ -103.3713948, 20.2230028 ], [ -103.3714149, 20.2230065 ], [ -103.3718285, 20.2230814 ], [ -103.3722244, 20.2231532 ], [ -103.3723289, 20.2231721 ], [ -103.3727874, 20.2231821 ], [ -103.3727875, 20.2231821 ], [ -103.3727258, 20.2239145 ], [ -103.3734861, 20.2240265 ], [ -103.3735975, 20.2240429 ], [ -103.3735976, 20.2240429 ], [ -103.3735983, 20.2240394 ], [ -103.3736173, 20.2239524 ], [ -103.3736671, 20.2237248 ], [ -103.3736672, 20.2237246 ], [ -103.3736681, 20.2237202 ], [ -103.3736941, 20.2236014 ], [ -103.3737048, 20.2235521 ], [ -103.3737127, 20.2235523 ], [ -103.3739646, 20.2235584 ], [ -103.3740159, 20.2235597 ], [ -103.374016, 20.2235597 ], [ -103.3739892, 20.2240781 ], [ -103.3744916, 20.2241269 ], [ -103.3746382, 20.2241411 ], [ -103.3746383, 20.2241411 ], [ -103.3759177, 20.2241883 ], [ -103.3761375, 20.2241964 ], [ -103.3761376, 20.2241964 ], [ -103.3760357, 20.2245287 ], [ -103.3760405, 20.224528 ], [ -103.377838, 20.2242971 ], [ -103.3778381, 20.2242971 ], [ -103.3778454, 20.2242973 ], [ -103.3789172, 20.224325 ], [ -103.379104, 20.2243298 ], [ -103.3791041, 20.2243298 ], [ -103.3796029, 20.2243474 ], [ -103.379603, 20.2243474 ], [ -103.3798069, 20.2243827 ], [ -103.3812176, 20.2245161 ], [ -103.3812177, 20.2245161 ], [ -103.3812486, 20.226035 ], [ -103.3812442, 20.2260352 ], [ -103.3809267, 20.2260488 ], [ -103.3808047, 20.2260199 ], [ -103.3804841, 20.2256851 ], [ -103.380004, 20.2256839 ], [ -103.3796634, 20.2255719 ], [ -103.3791792, 20.2255845 ], [ -103.3780634, 20.2257191 ], [ -103.3780846, 20.2259401 ], [ -103.3780849, 20.2259431 ], [ -103.3780822, 20.2259451 ], [ -103.3777603, 20.2261822 ], [ -103.3765306, 20.22679 ], [ -103.3754563, 20.2268416 ], [ -103.3745041, 20.2269964 ], [ -103.3742319, 20.2270732 ], [ -103.3740656, 20.2272883 ], [ -103.3732462, 20.227428 ], [ -103.3730316, 20.2274758 ] ] ] } }
]
}
