{
"type": "FeatureCollection",
"name": "GEOLO_JOCO",
"crs": { "type": "name", "properties": { "name": "urn:ogc:def:crs:OGC:1.3:CRS84" } },
"features": [
{ "type": "Feature", "properties": { "AREA": 2565768562.1999998, "PERIMETER": 2136463.784, "F1312PG_": 235, "F1312PG_ID": 234, "CLAVE": "Q(al)", "FC": 8250, "ENTIDAD": "SUELO", "CLASE": "N/A", "TIPO": "Aluvial", "ERA": "Cenozoico", "DIV_ERA": "N/A", "SISTEMA": "Cuaternario", "UNION_SIST": "N/A", "SERIE": "N/A", "UNION_SER": "N/A" }, "geometry": { "type": "MultiPolygon", "coordinates": [ [ [ [ -103.3164388, 20.3975867 ], [ -103.3160149, 20.3978332 ], [ -103.3155903, 20.398094 ], [ -103.3155843, 20.3980923 ], [ -103.3152139, 20.3979866 ], [ -103.3149779, 20.3979191 ], [ -103.3148081, 20.3977622 ], [ -103.316602, 20.3973576 ], [ -103.3164388, 20.3975867 ] ] ], [ [ [ -103.3099101, 20.3986738 ], [ -103.3093808, 20.3994716 ], [ -103.3093292, 20.3999683 ], [ -103.3092612, 20.4002275 ], [ -103.3089721, 20.4006933 ], [ -103.3087871, 20.40111 ], [ -103.3084949, 20.4015309 ], [ -103.3083711, 20.4017424 ], [ -103.3082518, 20.4019461 ], [ -103.3081489, 20.4019218 ], [ -103.3061668, 20.4018073 ], [ -103.305576, 20.4017765 ], [ -103.3050867, 20.4017328 ], [ -103.3038152, 20.4017257 ], [ -103.3028681, 20.4017565 ], [ -103.3025092, 20.4017528 ], [ -103.3014786, 20.4018025 ], [ -103.300783, 20.4017953 ], [ -103.3001518, 20.4018687 ], [ -103.2994995, 20.4018625 ], [ -103.2991222, 20.401839 ], [ -103.2974739, 20.4019806 ], [ -103.2966089, 20.4020514 ], [ -103.2959986, 20.4021049 ], [ -103.2950065, 20.4021384 ], [ -103.2926119, 20.402204 ], [ -103.2923341, 20.402168 ], [ -103.291586, 20.4018669 ], [ -103.2904604, 20.4014285 ], [ -103.2899903, 20.4012728 ], [ -103.288796, 20.4008057 ], [ -103.2888547, 20.4007146 ], [ -103.2887095, 20.4005379 ], [ -103.2885831, 20.4002921 ], [ -103.2884725, 20.4001351 ], [ -103.2883893, 20.4000411 ], [ -103.2882329, 20.3999348 ], [ -103.2882452, 20.3997926 ], [ -103.2883169, 20.3996413 ], [ -103.2882681, 20.3994681 ], [ -103.2883516, 20.3995937 ], [ -103.2907488, 20.3998159 ], [ -103.2920664, 20.4010552 ], [ -103.2940166, 20.4005483 ], [ -103.2986971, 20.4001422 ], [ -103.3033527, 20.4003977 ], [ -103.3077659, 20.3982116 ], [ -103.3100711, 20.3983361 ], [ -103.3099101, 20.3986738 ] ] ] ] } },
{ "type": "Feature", "properties": { "AREA": 1755817479.6, "PERIMETER": 821705.604, "F1312PG_": 289, "F1312PG_ID": 288, "CLAVE": "Tpl-Q(B)", "FC": 6054, "ENTIDAD": "UNIDAD CRONOESTRATIGRÁFICA", "CLASE": "Ígnea extrusiva", "TIPO": "Basalto", "ERA": "Cenozoico", "DIV_ERA": "N/A", "SISTEMA": "N/A", "UNION_SIST": "N/A", "SERIE": "N/A", "UNION_SER": "Plioceno-Cuaternario" }, "geometry": { "type": "MultiPolygon", "coordinates": [ [ [ [ -103.5240812, 20.4081971 ], [ -103.5224494, 20.4080893 ], [ -103.5216489, 20.4078977 ], [ -103.5213579, 20.4076881 ], [ -103.5205927, 20.4063717 ], [ -103.5200358, 20.4062055 ], [ -103.5188609, 20.4067682 ], [ -103.518372, 20.4069244 ], [ -103.5177113, 20.4071934 ], [ -103.5168804, 20.4073003 ], [ -103.5159817, 20.4071081 ], [ -103.5153752, 20.4068953 ], [ -103.5147228, 20.4063611 ], [ -103.5140257, 20.4055274 ], [ -103.5136388, 20.4053397 ], [ -103.5127126, 20.4053534 ], [ -103.511132, 20.4050857 ], [ -103.5104781, 20.4048496 ], [ -103.5097738, 20.4046588 ], [ -103.5088717, 20.4046734 ], [ -103.5080938, 20.4045275 ], [ -103.5071889, 20.4047258 ], [ -103.5067273, 20.404744 ], [ -103.506313, 20.4048546 ], [ -103.5057787, 20.4039948 ], [ -103.5038219, 20.4025496 ], [ -103.5010974, 20.4021415 ], [ -103.4991998, 20.4008864 ], [ -103.4991158, 20.4008884 ], [ -103.49653, 20.4006339 ], [ -103.4936923, 20.3997053 ], [ -103.4922409, 20.3992749 ], [ -103.4919924, 20.3988203 ], [ -103.4915833, 20.3983567 ], [ -103.4904413, 20.3981603 ], [ -103.4891284, 20.3981693 ], [ -103.4884147, 20.3978373 ], [ -103.4881194, 20.3977144 ], [ -103.4873389, 20.3972543 ], [ -103.4853643, 20.3963229 ], [ -103.4824827, 20.3952436 ], [ -103.4816973, 20.3947831 ], [ -103.4800421, 20.393821 ], [ -103.4794511, 20.3934509 ], [ -103.4778869, 20.3919355 ], [ -103.4751161, 20.3897543 ], [ -103.4736708, 20.3886369 ], [ -103.4727078, 20.3876396 ], [ -103.4715917, 20.3869288 ], [ -103.4714961, 20.3868759 ], [ -103.4714122, 20.3868295 ], [ -103.471412, 20.3868295 ], [ -103.4696186, 20.3858379 ], [ -103.4688459, 20.3857459 ], [ -103.4675445, 20.3859937 ], [ -103.4669901, 20.3853967 ], [ -103.4660703, 20.385157 ], [ -103.4653935, 20.384828 ], [ -103.4643393, 20.3835769 ], [ -103.4636296, 20.3819859 ], [ -103.4635541, 20.3816968 ], [ -103.4617697, 20.3797753 ], [ -103.4566007, 20.3755967 ], [ -103.4565206, 20.3756017 ], [ -103.4556548, 20.3753945 ], [ -103.4556435, 20.3749758 ], [ -103.4552829, 20.3747496 ], [ -103.4552804, 20.374748 ], [ -103.4559179, 20.3743797 ], [ -103.4559182, 20.3741488 ], [ -103.4559182, 20.3741458 ], [ -103.4522637, 20.3744728 ], [ -103.4483955, 20.3736381 ], [ -103.447351, 20.3733098 ], [ -103.4429997, 20.3723038 ], [ -103.4428425, 20.3721536 ], [ -103.4372158, 20.3651922 ], [ -103.4363161, 20.3651361 ], [ -103.4360727, 20.3650375 ], [ -103.4349061, 20.3645645 ], [ -103.4344672, 20.3640503 ], [ -103.4329662, 20.3636069 ], [ -103.4324966, 20.363468 ], [ -103.4319338, 20.3633017 ], [ -103.4254468, 20.361385 ], [ -103.4250395, 20.3613539 ], [ -103.4228477, 20.3609766 ], [ -103.4179877, 20.3596959 ], [ -103.4168958, 20.3602965 ], [ -103.4157863, 20.3611457 ], [ -103.4153651, 20.3613207 ], [ -103.4148379, 20.3610298 ], [ -103.4139653, 20.3609858 ], [ -103.4128282, 20.3607606 ], [ -103.4121792, 20.3606413 ], [ -103.4113199, 20.3602785 ], [ -103.4103283, 20.3604082 ], [ -103.4093318, 20.3609437 ], [ -103.4084851, 20.3620098 ], [ -103.4077975, 20.3624691 ], [ -103.4050233, 20.3618293 ], [ -103.404491, 20.3616863 ], [ -103.4039476, 20.3615849 ], [ -103.4035434, 20.3614695 ], [ -103.4026663, 20.3617354 ], [ -103.4020323, 20.3617979 ], [ -103.4013258, 20.3618283 ], [ -103.4005873, 20.3617381 ], [ -103.4002816, 20.3619331 ], [ -103.3999036, 20.361927 ], [ -103.3991317, 20.3621432 ], [ -103.3981856, 20.3619671 ], [ -103.3975199, 20.361568 ], [ -103.3959671, 20.3617795 ], [ -103.3942415, 20.362573 ], [ -103.393607, 20.362593 ], [ -103.3927348, 20.362406 ], [ -103.391638, 20.3620737 ], [ -103.3910714, 20.3616748 ], [ -103.3897032, 20.361698 ], [ -103.3890563, 20.3619063 ], [ -103.3885203, 20.3621521 ], [ -103.3883275, 20.3625801 ], [ -103.3873328, 20.3632863 ], [ -103.3869506, 20.3635335 ], [ -103.3847868, 20.3635135 ], [ -103.3843196, 20.3637202 ], [ -103.3831172, 20.3646249 ], [ -103.3810055, 20.3642582 ], [ -103.3785718, 20.3641861 ], [ -103.3769804, 20.3640044 ], [ -103.3742892, 20.3641404 ], [ -103.3732488, 20.3639599 ], [ -103.3730093, 20.3637677 ], [ -103.3722579, 20.3636345 ], [ -103.3718304, 20.363491 ], [ -103.3713712, 20.3637275 ], [ -103.3708069, 20.3635574 ], [ -103.3701926, 20.3633872 ], [ -103.3697913, 20.3631681 ], [ -103.3688655, 20.3629398 ], [ -103.3688648, 20.3628636 ], [ -103.3688647, 20.3628606 ], [ -103.3687382, 20.3626955 ], [ -103.3588228, 20.3617536 ], [ -103.3588272, 20.361757 ], [ -103.3594221, 20.3622126 ], [ -103.3594196, 20.3622137 ], [ -103.3583498, 20.3626915 ], [ -103.3577323, 20.3636277 ], [ -103.3571159, 20.3638248 ], [ -103.3567338, 20.3642686 ], [ -103.3565709, 20.3646141 ], [ -103.3560302, 20.3650672 ], [ -103.3548735, 20.3660411 ], [ -103.3540373, 20.3667667 ], [ -103.3524914, 20.3679656 ], [ -103.3501934, 20.3687671 ], [ -103.3490223, 20.3689838 ], [ -103.3485556, 20.3689494 ], [ -103.3480744, 20.3689135 ], [ -103.3475643, 20.368876 ], [ -103.3465803, 20.368756 ], [ -103.345913, 20.3686741 ], [ -103.3431647, 20.368598 ], [ -103.3431593, 20.3688277 ], [ -103.3431594, 20.3688278 ], [ -103.3434955, 20.3692674 ], [ -103.3434953, 20.3692701 ], [ -103.3434684, 20.3696344 ], [ -103.3429524, 20.3699728 ], [ -103.3422923, 20.3701265 ], [ -103.3416796, 20.3706012 ], [ -103.3413311, 20.3711484 ], [ -103.3409335, 20.3719699 ], [ -103.3408213, 20.3730704 ], [ -103.3407081, 20.3742623 ], [ -103.3401286, 20.3759542 ], [ -103.3394575, 20.3771402 ], [ -103.3384256, 20.3776798 ], [ -103.3370538, 20.3781926 ], [ -103.3359481, 20.3787485 ], [ -103.3340737, 20.3821785 ], [ -103.3335072, 20.3835706 ], [ -103.3335074, 20.3835731 ], [ -103.3336248, 20.3850853 ], [ -103.3337522, 20.3862573 ], [ -103.3339179, 20.3863968 ], [ -103.3339777, 20.3865069 ], [ -103.3339912, 20.3866948 ], [ -103.3339911, 20.3866955 ], [ -103.3339242, 20.3870382 ], [ -103.3337275, 20.3873386 ], [ -103.3334119, 20.3875265 ], [ -103.3322297, 20.3878882 ], [ -103.3308807, 20.3882773 ], [ -103.3300994, 20.3888316 ], [ -103.3294361, 20.389555 ], [ -103.3291255, 20.3907316 ], [ -103.3289954, 20.3916849 ], [ -103.328692, 20.3921314 ], [ -103.3286095, 20.3921949 ], [ -103.3286085, 20.3907276 ], [ -103.3240527, 20.3898327 ], [ -103.3216495, 20.3855435 ], [ -103.3185359, 20.3880339 ], [ -103.3161404, 20.3887127 ], [ -103.3087125, 20.3891764 ], [ -103.3063139, 20.388051 ], [ -103.3046371, 20.3889558 ], [ -103.3022381, 20.388282 ], [ -103.3008032, 20.3900905 ], [ -103.2986253, 20.3896837 ], [ -103.2985738, 20.389604 ], [ -103.29822, 20.3890198 ], [ -103.2981027, 20.3888213 ], [ -103.2979565, 20.3884258 ], [ -103.2979912, 20.3880321 ], [ -103.2980257, 20.3876106 ], [ -103.2979422, 20.3871313 ], [ -103.2977055, 20.3868193 ], [ -103.2974727, 20.3863106 ], [ -103.2973583, 20.3859154 ], [ -103.2973318, 20.385465 ], [ -103.2973072, 20.3850985 ], [ -103.297102, 20.3845623 ], [ -103.2969282, 20.3841942 ], [ -103.2966636, 20.3836853 ], [ -103.2964913, 20.3832616 ], [ -103.296332, 20.3830011 ], [ -103.2961886, 20.3825931 ], [ -103.2954428, 20.3792366 ], [ -103.2956397, 20.3786368 ], [ -103.2965693, 20.3768572 ], [ -103.2968881, 20.3761216 ], [ -103.2947553, 20.3757328 ], [ -103.2943225, 20.3756358 ], [ -103.2943054, 20.3694153 ], [ -103.2933846, 20.3693936 ], [ -103.2923606, 20.369342 ], [ -103.2913498, 20.3692746 ], [ -103.2910539, 20.3691231 ], [ -103.2904041, 20.3691651 ], [ -103.2900602, 20.3692743 ], [ -103.289964, 20.3692767 ], [ -103.2899319, 20.3688451 ], [ -103.289921, 20.3686071 ], [ -103.2899377, 20.3685089 ], [ -103.2898021, 20.3674885 ], [ -103.2897591, 20.3672157 ], [ -103.289827, 20.3668629 ], [ -103.2899425, 20.3665011 ], [ -103.2898977, 20.3662923 ], [ -103.2899937, 20.3661034 ], [ -103.289863, 20.3659115 ], [ -103.289718, 20.3653215 ], [ -103.2914249, 20.3643537 ], [ -103.2971756, 20.3641211 ], [ -103.297893, 20.3632155 ], [ -103.2974133, 20.362086 ], [ -103.2947742, 20.3616381 ], [ -103.2915216, 20.3587829 ], [ -103.2918757, 20.3583181 ], [ -103.2925655, 20.3576413 ], [ -103.2928138, 20.3571323 ], [ -103.2929853, 20.356877 ], [ -103.2939731, 20.3567983 ], [ -103.2948528, 20.356589 ], [ -103.2950458, 20.3558505 ], [ -103.2940462, 20.3541852 ], [ -103.2929553, 20.353381 ], [ -103.2928728, 20.3525935 ], [ -103.2924455, 20.352186 ], [ -103.2913333, 20.351386 ], [ -103.2902359, 20.3497973 ], [ -103.2897746, 20.348601 ], [ -103.2892206, 20.3452311 ], [ -103.2892262, 20.3439253 ], [ -103.2899864, 20.3428959 ], [ -103.2894685, 20.3417146 ], [ -103.2892917, 20.3406171 ], [ -103.2886256, 20.3393248 ], [ -103.2881879, 20.3368599 ], [ -103.2880743, 20.3357111 ], [ -103.2871729, 20.3348878 ], [ -103.2871261, 20.3348193 ], [ -103.2863198, 20.3327435 ], [ -103.288544, 20.3317675 ], [ -103.2891924, 20.3314071 ], [ -103.2895145, 20.3307106 ], [ -103.2895851, 20.3297448 ], [ -103.289579, 20.3285971 ], [ -103.2900831, 20.3283327 ], [ -103.2903415, 20.3273975 ], [ -103.2907383, 20.3272063 ], [ -103.2911416, 20.3266377 ], [ -103.2916511, 20.3262848 ], [ -103.2926021, 20.3262481 ], [ -103.2938254, 20.3261042 ], [ -103.2944592, 20.3257077 ], [ -103.2955258, 20.3256509 ], [ -103.2963719, 20.3256914 ], [ -103.297159, 20.325603 ], [ -103.2986698, 20.325332 ], [ -103.2996637, 20.3252692 ], [ -103.3001659, 20.325034 ], [ -103.3006817, 20.3247171 ], [ -103.3010637, 20.3236401 ], [ -103.3010338, 20.3228979 ], [ -103.301064, 20.322478 ], [ -103.3010005, 20.3219848 ], [ -103.3003011, 20.3199429 ], [ -103.3001508, 20.3191491 ], [ -103.3001948, 20.3187638 ], [ -103.3001269, 20.3184002 ], [ -103.2997724, 20.3181763 ], [ -103.2987543, 20.3174652 ], [ -103.2983219, 20.3167849 ], [ -103.2983295, 20.3160707 ], [ -103.2982616, 20.3152057 ], [ -103.2988393, 20.3151059 ], [ -103.2990401, 20.3148303 ], [ -103.2991174, 20.3144965 ], [ -103.2991344, 20.3141183 ], [ -103.2993769, 20.3136702 ], [ -103.2995481, 20.3132907 ], [ -103.299912, 20.3126187 ], [ -103.3000432, 20.3123558 ], [ -103.300309, 20.3121354 ], [ -103.3004195, 20.311863 ], [ -103.3003922, 20.3111653 ], [ -103.3004073, 20.3105932 ], [ -103.3005483, 20.3102817 ], [ -103.3005116, 20.3096958 ], [ -103.3002714, 20.3093197 ], [ -103.3001317, 20.3087005 ], [ -103.3001031, 20.3078573 ], [ -103.3001001, 20.3068615 ], [ -103.3002346, 20.3065756 ], [ -103.3002031, 20.3061531 ], [ -103.3001186, 20.3059381 ], [ -103.300115, 20.3055584 ], [ -103.3000844, 20.3052308 ], [ -103.299953, 20.3048954 ], [ -103.2998408, 20.3046548 ], [ -103.2997844, 20.3045 ], [ -103.2997918, 20.3043187 ], [ -103.2999003, 20.3041711 ], [ -103.3000181, 20.3040493 ], [ -103.3001994, 20.3038665 ], [ -103.3003629, 20.3037271 ], [ -103.3005067, 20.3034497 ], [ -103.300661, 20.3033104 ], [ -103.3008206, 20.3032177 ], [ -103.3009429, 20.3031441 ], [ -103.3013001, 20.3031098 ], [ -103.3016208, 20.3029625 ], [ -103.3019405, 20.3029281 ], [ -103.3021417, 20.302855 ], [ -103.3021803, 20.3024857 ], [ -103.3021086, 20.3022159 ], [ -103.3019654, 20.3019432 ], [ -103.3020347, 20.3017722 ], [ -103.3021362, 20.3015888 ], [ -103.302394, 20.3015441 ], [ -103.3026836, 20.3014625 ], [ -103.3028564, 20.3013089 ], [ -103.3028867, 20.3011079 ], [ -103.3027616, 20.3008412 ], [ -103.3024435, 20.300566 ], [ -103.3022461, 20.3005263 ], [ -103.3020483, 20.3004492 ], [ -103.3020476, 20.3003744 ], [ -103.3023294, 20.3001889 ], [ -103.3025298, 20.3000405 ], [ -103.3026517, 20.2999289 ], [ -103.3026544, 20.2997039 ], [ -103.3025769, 20.2994399 ], [ -103.3023395, 20.2992497 ], [ -103.3019843, 20.2989835 ], [ -103.3018287, 20.2986063 ], [ -103.301872, 20.2983061 ], [ -103.3019902, 20.2980719 ], [ -103.3021675, 20.2977928 ], [ -103.302305, 20.2975882 ], [ -103.3019366, 20.2970327 ], [ -103.3018734, 20.296597 ], [ -103.3019061, 20.2962786 ], [ -103.3021039, 20.2961083 ], [ -103.3022861, 20.2958887 ], [ -103.3023301, 20.2957015 ], [ -103.3022902, 20.2953196 ], [ -103.3022704, 20.2952022 ], [ -103.3042702, 20.2940892 ], [ -103.3081062, 20.2954385 ], [ -103.3128926, 20.292946 ], [ -103.3174437, 20.2927145 ], [ -103.3282114, 20.2859228 ], [ -103.3327637, 20.2868175 ], [ -103.3334872, 20.2895277 ], [ -103.3349278, 20.2908804 ], [ -103.3401972, 20.2906464 ], [ -103.347625, 20.2928937 ], [ -103.3581642, 20.2919718 ], [ -103.3708619, 20.2939832 ], [ -103.3816432, 20.2941894 ], [ -103.3821027, 20.2915622 ], [ -103.3822146, 20.2917767 ], [ -103.3840198, 20.2918492 ], [ -103.3849919, 20.2918882 ], [ -103.3858367, 20.2919221 ], [ -103.3861074, 20.291933 ], [ -103.3862047, 20.2919369 ], [ -103.3873911, 20.2932755 ], [ -103.3849972, 20.2948594 ], [ -103.38572, 20.2962141 ], [ -103.3926666, 20.2962011 ], [ -103.3996112, 20.2950588 ], [ -103.4036776, 20.2921126 ], [ -103.4108643, 20.2920993 ], [ -103.4137335, 20.2905124 ], [ -103.4168499, 20.2905072 ], [ -103.4197258, 20.2916303 ], [ -103.4276309, 20.2916135 ], [ -103.4326576, 20.2904729 ], [ -103.4367326, 20.2915935 ], [ -103.4558997, 20.2931324 ], [ -103.4597398, 20.2960592 ], [ -103.4604633, 20.2976398 ], [ -103.4597501, 20.3003524 ], [ -103.4508906, 20.3021783 ], [ -103.445388, 20.3055804 ], [ -103.4353313, 20.3076339 ], [ -103.4183224, 20.3083484 ], [ -103.415951, 20.3198744 ], [ -103.4193081, 20.3214471 ], [ -103.4207521, 20.3243803 ], [ -103.4243475, 20.3246 ], [ -103.4260204, 20.3232399 ], [ -103.4265079, 20.3270792 ], [ -103.4281854, 20.327076 ], [ -103.430339, 20.3252641 ], [ -103.4332181, 20.3277422 ], [ -103.4370516, 20.3272843 ], [ -103.4423101, 20.3218501 ], [ -103.4456725, 20.325683 ], [ -103.4487873, 20.3256772 ], [ -103.4507027, 20.3240906 ], [ -103.4514288, 20.3277037 ], [ -103.4557355, 20.3256618 ], [ -103.4574181, 20.3274651 ], [ -103.459574, 20.3276853 ], [ -103.4622156, 20.3294861 ], [ -103.4607837, 20.3326512 ], [ -103.4610291, 20.3342319 ], [ -103.4648681, 20.3373871 ], [ -103.4691851, 20.338055 ], [ -103.4703848, 20.3394066 ], [ -103.4687228, 20.3452844 ], [ -103.4708869, 20.3484404 ], [ -103.4706545, 20.3518309 ], [ -103.4735373, 20.3543088 ], [ -103.4778525, 20.3549766 ], [ -103.480498, 20.3590352 ], [ -103.4807439, 20.3612938 ], [ -103.4790769, 20.3658167 ], [ -103.4810036, 20.3691982 ], [ -103.4810121, 20.3734917 ], [ -103.4834173, 20.3764219 ], [ -103.484385, 20.3800344 ], [ -103.488469, 20.3838641 ], [ -103.4971072, 20.3874579 ], [ -103.5050178, 20.3872115 ], [ -103.5071689, 20.3853985 ], [ -103.5083687, 20.3853951 ], [ -103.5129319, 20.3889984 ], [ -103.5186862, 20.3896614 ], [ -103.52515, 20.3864821 ], [ -103.5311384, 20.3848859 ], [ -103.5323322, 20.3830759 ], [ -103.5315974, 20.3774299 ], [ -103.5272749, 20.374505 ], [ -103.5243812, 20.3684119 ], [ -103.5258095, 20.3650206 ], [ -103.5296435, 20.3643325 ], [ -103.5281965, 20.3609485 ], [ -103.5303467, 20.358909 ], [ -103.5262684, 20.357113 ], [ -103.5231406, 20.3528293 ], [ -103.5228911, 20.3496674 ], [ -103.5209663, 20.3467353 ], [ -103.5219161, 20.3433443 ], [ -103.5211881, 20.339957 ], [ -103.5223816, 20.3381467 ], [ -103.5216569, 20.3361169 ], [ -103.5149365, 20.3318412 ], [ -103.5084605, 20.3298255 ], [ -103.5074987, 20.3289253 ], [ -103.5077302, 20.3257609 ], [ -103.5031724, 20.3237413 ], [ -103.5041281, 20.3219312 ], [ -103.5031577, 20.3180929 ], [ -103.501958, 20.3169666 ], [ -103.4976468, 20.3174286 ], [ -103.4954798, 20.3133674 ], [ -103.4926002, 20.3117934 ], [ -103.4911545, 20.308183 ], [ -103.489715, 20.3079608 ], [ -103.4873136, 20.3057087 ], [ -103.4832432, 20.3068475 ], [ -103.4777303, 20.3057313 ], [ -103.4746132, 20.3041576 ], [ -103.471969, 20.3003241 ], [ -103.4688523, 20.2998793 ], [ -103.466932, 20.2980757 ], [ -103.4657301, 20.2960463 ], [ -103.4638126, 20.2955983 ], [ -103.4621302, 20.2935685 ], [ -103.4590136, 20.2919967 ], [ -103.4614014, 20.2888288 ], [ -103.4539695, 20.2863598 ], [ -103.4508482, 20.2832045 ], [ -103.4510835, 20.2816232 ], [ -103.4522799, 20.2807169 ], [ -103.4520371, 20.2795879 ], [ -103.4474818, 20.2777905 ], [ -103.4474793, 20.2766616 ], [ -103.4491538, 20.2757547 ], [ -103.4522674, 20.2757459 ], [ -103.4539368, 20.2730327 ], [ -103.4572855, 20.2705392 ], [ -103.4635125, 20.2705264 ], [ -103.4635114, 20.2699925 ], [ -103.4635722, 20.2700505 ], [ -103.4637509, 20.2701367 ], [ -103.4641978, 20.2701409 ], [ -103.4645339, 20.2701223 ], [ -103.4648917, 20.2701466 ], [ -103.4652509, 20.2702134 ], [ -103.4660085, 20.2705156 ], [ -103.4662976, 20.2708563 ], [ -103.4667412, 20.2711773 ], [ -103.4670989, 20.2713706 ], [ -103.4674802, 20.2713527 ], [ -103.4679934, 20.2714418 ], [ -103.4678808, 20.271694 ], [ -103.4676094, 20.2719244 ], [ -103.4676977, 20.2720941 ], [ -103.4681213, 20.272161 ], [ -103.4683469, 20.2721417 ], [ -103.4689055, 20.2722525 ], [ -103.4691931, 20.2726351 ], [ -103.4694836, 20.272659 ], [ -103.4701328, 20.2727071 ], [ -103.4708247, 20.2728817 ], [ -103.4715462, 20.2732177 ], [ -103.4717492, 20.27332 ], [ -103.4718577, 20.2735745 ], [ -103.4719045, 20.2736381 ], [ -103.471966, 20.273998 ], [ -103.4721453, 20.2739572 ], [ -103.4724372, 20.2740229 ], [ -103.4727036, 20.2742159 ], [ -103.4727927, 20.2742796 ], [ -103.4729736, 20.2743023 ], [ -103.4732634, 20.2742626 ], [ -103.4733532, 20.2743059 ], [ -103.4734858, 20.2743913 ], [ -103.4737331, 20.27433 ], [ -103.4738693, 20.27431 ], [ -103.4740016, 20.2745439 ], [ -103.4742447, 20.2747995 ], [ -103.4744435, 20.2749704 ], [ -103.4747802, 20.2749943 ], [ -103.4750488, 20.2749543 ], [ -103.4754771, 20.2747467 ], [ -103.4759726, 20.2746245 ], [ -103.4762625, 20.2747747 ], [ -103.4763825, 20.2749368 ], [ -103.4767705, 20.275705 ], [ -103.4771547, 20.2761224 ], [ -103.4776828, 20.2767933 ], [ -103.4789148, 20.2774031 ], [ -103.4795482, 20.2775012 ], [ -103.4801039, 20.2777826 ], [ -103.4801936, 20.2783343 ], [ -103.4804755, 20.2787274 ], [ -103.4803668, 20.2791931 ], [ -103.4801459, 20.2797849 ], [ -103.4800002, 20.2803223 ], [ -103.4797999, 20.2810748 ], [ -103.4793396, 20.2823122 ], [ -103.478871, 20.2827813 ], [ -103.4784281, 20.2831729 ], [ -103.4784391, 20.2832162 ], [ -103.4784834, 20.2833912 ], [ -103.4783123, 20.2833894 ], [ -103.4789057, 20.2846583 ], [ -103.4798184, 20.2857693 ], [ -103.48099, 20.2876181 ], [ -103.4818545, 20.2884536 ], [ -103.4831037, 20.2900045 ], [ -103.4836056, 20.2908129 ], [ -103.4844729, 20.2914648 ], [ -103.4850544, 20.2917232 ], [ -103.4863159, 20.2919426 ], [ -103.4879217, 20.2920052 ], [ -103.4891981, 20.2920114 ], [ -103.4902042, 20.2921614 ], [ -103.4910729, 20.2923285 ], [ -103.4917366, 20.2925487 ], [ -103.4933131, 20.2930008 ], [ -103.4948918, 20.2932233 ], [ -103.4958908, 20.2931648 ], [ -103.4972545, 20.2924565 ], [ -103.4984303, 20.2924851 ], [ -103.4997873, 20.2929053 ], [ -103.5002394, 20.2938054 ], [ -103.5000679, 20.2939415 ], [ -103.4997504, 20.2939152 ], [ -103.4990443, 20.2941148 ], [ -103.4983329, 20.2945441 ], [ -103.4982324, 20.2948415 ], [ -103.4983793, 20.2955218 ], [ -103.498897, 20.2962717 ], [ -103.499381, 20.2965747 ], [ -103.5000337, 20.2969259 ], [ -103.5006673, 20.2972891 ], [ -103.5012086, 20.2977418 ], [ -103.5017015, 20.2982385 ], [ -103.5021249, 20.2988917 ], [ -103.5029462, 20.2997106 ], [ -103.5032533, 20.2999217 ], [ -103.5034001, 20.3000279 ], [ -103.5035929, 20.3004749 ], [ -103.5040775, 20.3008671 ], [ -103.505989, 20.3014564 ], [ -103.506485, 20.3026993 ], [ -103.5071336, 20.3025967 ], [ -103.5097475, 20.3043973 ], [ -103.5095083, 20.3044397 ], [ -103.5111044, 20.3053972 ], [ -103.5111784, 20.3053843 ], [ -103.5113657, 20.3055125 ], [ -103.5116543, 20.306344 ], [ -103.5125094, 20.3088082 ], [ -103.5126357, 20.3091718 ], [ -103.5148868, 20.3156505 ], [ -103.5150884, 20.3162249 ], [ -103.5151253, 20.3163331 ], [ -103.5152026, 20.3165593 ], [ -103.5163549, 20.3198731 ], [ -103.5165407, 20.3204103 ], [ -103.5166687, 20.3206017 ], [ -103.5175311, 20.3218905 ], [ -103.5182293, 20.3227045 ], [ -103.5184697, 20.3229848 ], [ -103.519397, 20.3240659 ], [ -103.5196751, 20.3243901 ], [ -103.5199532, 20.3247144 ], [ -103.5208147, 20.3257188 ], [ -103.5241494, 20.3296062 ], [ -103.5247959, 20.3303599 ], [ -103.5250775, 20.3306882 ], [ -103.5253277, 20.3309798 ], [ -103.5256256, 20.3313271 ], [ -103.5260646, 20.3318388 ], [ -103.5263347, 20.3321536 ], [ -103.5263593, 20.3321826 ], [ -103.5272786, 20.3332622 ], [ -103.5274145, 20.3334217 ], [ -103.5278205, 20.3338986 ], [ -103.5278853, 20.333987 ], [ -103.5279133, 20.3340251 ], [ -103.5280481, 20.3342119 ], [ -103.5281817, 20.3343969 ], [ -103.5283478, 20.3346271 ], [ -103.5285166, 20.3346883 ], [ -103.5282011, 20.3349785 ], [ -103.5276678, 20.3350623 ], [ -103.5277893, 20.3354698 ], [ -103.5279349, 20.3356968 ], [ -103.527927, 20.3359715 ], [ -103.5279813, 20.3360074 ], [ -103.5280665, 20.3360232 ], [ -103.5283536, 20.3360215 ], [ -103.5291191, 20.3365103 ], [ -103.5291288, 20.3366814 ], [ -103.5289563, 20.3369401 ], [ -103.5297214, 20.3374229 ], [ -103.5297101, 20.3374524 ], [ -103.5309642, 20.3382263 ], [ -103.5309543, 20.3382397 ], [ -103.5397751, 20.3492888 ], [ -103.539901, 20.3494465 ], [ -103.5402861, 20.3510643 ], [ -103.5404385, 20.3517045 ], [ -103.5404408, 20.3517142 ], [ -103.5409151, 20.3537068 ], [ -103.5442888, 20.3631137 ], [ -103.5456999, 20.3653581 ], [ -103.5468693, 20.3686067 ], [ -103.5474723, 20.3702023 ], [ -103.5477874, 20.3715243 ], [ -103.5477799, 20.3715801 ], [ -103.5476988, 20.3721833 ], [ -103.5474478, 20.3726852 ], [ -103.5470308, 20.3732251 ], [ -103.546241, 20.3737954 ], [ -103.5456692, 20.3744225 ], [ -103.5454516, 20.3749863 ], [ -103.5453411, 20.3755837 ], [ -103.5455495, 20.3759847 ], [ -103.5456137, 20.3765508 ], [ -103.5457152, 20.3770174 ], [ -103.545891, 20.3772514 ], [ -103.5458455, 20.3783152 ], [ -103.546089, 20.3785837 ], [ -103.5465793, 20.3789868 ], [ -103.5467535, 20.3792543 ], [ -103.54668, 20.3795531 ], [ -103.5464326, 20.3797836 ], [ -103.5460349, 20.3805789 ], [ -103.5455188, 20.3812909 ], [ -103.5445626, 20.3819474 ], [ -103.5433643, 20.3824577 ], [ -103.5421118, 20.3831209 ], [ -103.5414953, 20.3841222 ], [ -103.5410624, 20.3848599 ], [ -103.5408258, 20.3852186 ], [ -103.5405898, 20.385992 ], [ -103.5406324, 20.3861208 ], [ -103.5403204, 20.3864277 ], [ -103.5408769, 20.3870787 ], [ -103.5410049, 20.3874004 ], [ -103.5409405, 20.3879615 ], [ -103.5409675, 20.3884799 ], [ -103.5414316, 20.3891955 ], [ -103.541856, 20.3900035 ], [ -103.5419931, 20.3902484 ], [ -103.5424343, 20.3903948 ], [ -103.5434172, 20.3918165 ], [ -103.5434198, 20.3918202 ], [ -103.5432403, 20.3918295 ], [ -103.5432394, 20.3918295 ], [ -103.543378, 20.3924052 ], [ -103.5435182, 20.3927538 ], [ -103.5437979, 20.3928741 ], [ -103.5440551, 20.3928934 ], [ -103.5444129, 20.392905 ], [ -103.5447965, 20.3932981 ], [ -103.5453193, 20.3935196 ], [ -103.5455089, 20.3940047 ], [ -103.5455106, 20.3941001 ], [ -103.5461735, 20.3941063 ], [ -103.5464026, 20.3943107 ], [ -103.5464383, 20.394439 ], [ -103.5464101, 20.3945729 ], [ -103.5463799, 20.3947164 ], [ -103.5460749, 20.3949319 ], [ -103.5457221, 20.3951543 ], [ -103.5454895, 20.3951309 ], [ -103.5448917, 20.3948345 ], [ -103.5445134, 20.3946259 ], [ -103.5441848, 20.3945713 ], [ -103.5440208, 20.394573 ], [ -103.5436035, 20.3951244 ], [ -103.5435114, 20.3952765 ], [ -103.5432698, 20.3953359 ], [ -103.5425345, 20.3961879 ], [ -103.5441868, 20.3974583 ], [ -103.5448602, 20.3978681 ], [ -103.5452077, 20.3981771 ], [ -103.5455926, 20.3986051 ], [ -103.5459295, 20.3990563 ], [ -103.5463989, 20.3994834 ], [ -103.5466984, 20.3997617 ], [ -103.5469244, 20.4000095 ], [ -103.5473047, 20.4007765 ], [ -103.5476983, 20.4015762 ], [ -103.5479524, 20.4022471 ], [ -103.5480491, 20.4027678 ], [ -103.5480699, 20.4028798 ], [ -103.5480569, 20.4032223 ], [ -103.5483061, 20.4043185 ], [ -103.5481928, 20.4045434 ], [ -103.5478423, 20.4028223 ], [ -103.5439447, 20.4038697 ], [ -103.536258, 20.405929 ], [ -103.5365775, 20.4081861 ], [ -103.536273, 20.4082717 ], [ -103.5359151, 20.4082619 ], [ -103.534335, 20.409154 ], [ -103.5336273, 20.4095165 ], [ -103.5320754, 20.4100888 ], [ -103.5299517, 20.4105505 ], [ -103.5287268, 20.4111127 ], [ -103.5280655, 20.4113359 ], [ -103.5275308, 20.4112619 ], [ -103.5265712, 20.4099434 ], [ -103.5260193, 20.409203 ], [ -103.5249555, 20.4085267 ], [ -103.5240812, 20.4081971 ] ], [ [ -103.3610884, 20.3211055 ], [ -103.3560559, 20.3211148 ], [ -103.3536636, 20.3226998 ], [ -103.3443162, 20.320455 ], [ -103.3409665, 20.3231717 ], [ -103.3366527, 20.3229524 ], [ -103.3345001, 20.324989 ], [ -103.3280327, 20.3249997 ], [ -103.3261181, 20.3268086 ], [ -103.3234834, 20.3274901 ], [ -103.3222871, 20.3295245 ], [ -103.3194144, 20.3302081 ], [ -103.3179781, 20.3317911 ], [ -103.315822, 20.3320189 ], [ -103.315345, 20.3331504 ], [ -103.3237387, 20.3381066 ], [ -103.3297379, 20.344196 ], [ -103.3333328, 20.3455452 ], [ -103.3364547, 20.3493799 ], [ -103.3407709, 20.3507288 ], [ -103.3448501, 20.3543378 ], [ -103.3482038, 20.3538796 ], [ -103.3493977, 20.3516189 ], [ -103.351312, 20.3502614 ], [ -103.3544272, 20.3504808 ], [ -103.3568244, 20.349573 ], [ -103.3608985, 20.3500178 ], [ -103.3695163, 20.345261 ], [ -103.3728736, 20.3466086 ], [ -103.3798206, 20.346145 ], [ -103.381018, 20.3454647 ], [ -103.380776, 20.3436583 ], [ -103.3814926, 20.3429807 ], [ -103.3853247, 20.3413923 ], [ -103.3865157, 20.3384539 ], [ -103.3908238, 20.3359598 ], [ -103.3908219, 20.3346047 ], [ -103.3886618, 20.3328028 ], [ -103.3891384, 20.3307676 ], [ -103.3927256, 20.3273726 ], [ -103.3965568, 20.3266874 ], [ -103.396795, 20.325784 ], [ -103.3958363, 20.3251087 ], [ -103.3927215, 20.3253402 ], [ -103.3922369, 20.3226297 ], [ -103.3910358, 20.3212776 ], [ -103.3860015, 20.3197066 ], [ -103.3845666, 20.319935 ], [ -103.3819339, 20.3226501 ], [ -103.3790575, 20.3217518 ], [ -103.3754664, 20.3228884 ], [ -103.3704304, 20.3201856 ], [ -103.3665975, 20.3197411 ], [ -103.3610884, 20.3211055 ] ] ], [ [ [ -103.3730978, 20.2112824 ], [ -103.3735025, 20.2109331 ], [ -103.3735092, 20.2103629 ], [ -103.3735985, 20.2101739 ], [ -103.3738875, 20.2100676 ], [ -103.3738392, 20.2097495 ], [ -103.3745349, 20.2092128 ], [ -103.3749132, 20.2089175 ], [ -103.3749799, 20.2079138 ], [ -103.3749895, 20.2071537 ], [ -103.3750791, 20.2068015 ], [ -103.3751431, 20.206015 ], [ -103.3750359, 20.2053891 ], [ -103.3746997, 20.2046259 ], [ -103.3741041, 20.2036702 ], [ -103.3737398, 20.202608 ], [ -103.3737465, 20.2020379 ], [ -103.374037, 20.2017961 ], [ -103.3742701, 20.2015809 ], [ -103.3742756, 20.2015381 ], [ -103.3742579, 20.2015352 ], [ -103.3733106, 20.1994711 ], [ -103.3734992, 20.1993441 ], [ -103.3736684, 20.1990267 ], [ -103.373661, 20.1986124 ], [ -103.3731281, 20.1979422 ], [ -103.3731742, 20.1972185 ], [ -103.3728574, 20.1970279 ], [ -103.372549, 20.1968465 ], [ -103.3722322, 20.1964095 ], [ -103.3706995, 20.1940402 ], [ -103.3705885, 20.1933578 ], [ -103.369511, 20.1930803 ], [ -103.3680291, 20.1936265 ], [ -103.3681605, 20.1924468 ], [ -103.3680064, 20.1924158 ], [ -103.3677304, 20.1924744 ], [ -103.3671218, 20.192604 ], [ -103.366394, 20.192526 ], [ -103.3658475, 20.1921422 ], [ -103.365273, 20.191647 ], [ -103.3648867, 20.1909568 ], [ -103.3641838, 20.1904989 ], [ -103.3637784, 20.1901081 ], [ -103.3637299, 20.190061 ], [ -103.3636885, 20.1900353 ], [ -103.3621035, 20.1900128 ], [ -103.362163, 20.1896851 ], [ -103.3618779, 20.1893036 ], [ -103.3616295, 20.188904 ], [ -103.3617278, 20.1882506 ], [ -103.3591721, 20.1859998 ], [ -103.3585874, 20.1857967 ], [ -103.3577318, 20.1857131 ], [ -103.3565039, 20.1853727 ], [ -103.3557563, 20.185041 ], [ -103.3550057, 20.1848817 ], [ -103.3547912, 20.1847527 ], [ -103.35434, 20.1842909 ], [ -103.3536694, 20.1839801 ], [ -103.353213, 20.1839507 ], [ -103.3522757, 20.1833832 ], [ -103.3516638, 20.1826917 ], [ -103.3512383, 20.1822053 ], [ -103.3511602, 20.1820778 ], [ -103.3507563, 20.1820231 ], [ -103.3504083, 20.1817916 ], [ -103.349834, 20.1814992 ], [ -103.3489252, 20.1810845 ], [ -103.3479861, 20.1806185 ], [ -103.346565, 20.1801482 ], [ -103.345758, 20.1801151 ], [ -103.3456178, 20.1800263 ], [ -103.3448576, 20.1793864 ], [ -103.3443313, 20.1790895 ], [ -103.3441748, 20.1790008 ], [ -103.3435239, 20.1790128 ], [ -103.343422, 20.1789094 ], [ -103.3425926, 20.1780695 ], [ -103.3432709, 20.1777116 ], [ -103.3435666, 20.1770324 ], [ -103.3434268, 20.1764856 ], [ -103.3433373, 20.1758936 ], [ -103.3429574, 20.1753445 ], [ -103.3422873, 20.1748835 ], [ -103.3419724, 20.1745983 ], [ -103.3420505, 20.1739527 ], [ -103.3424233, 20.1735799 ], [ -103.3430462, 20.1726847 ], [ -103.3435977, 20.1724214 ], [ -103.3446694, 20.1715499 ], [ -103.3456321, 20.1708303 ], [ -103.3465243, 20.1702595 ], [ -103.3467654, 20.1700744 ], [ -103.3472275, 20.1697155 ], [ -103.3479006, 20.1691321 ], [ -103.3480101, 20.1690359 ], [ -103.3480667, 20.1689874 ], [ -103.3496268, 20.1682261 ], [ -103.3499745, 20.1681367 ], [ -103.3506517, 20.1681675 ], [ -103.3515122, 20.1682743 ], [ -103.3525835, 20.1683333 ], [ -103.3534206, 20.1682182 ], [ -103.3538365, 20.1683205 ], [ -103.3542542, 20.1683241 ], [ -103.3546458, 20.1683036 ], [ -103.3551175, 20.1682337 ], [ -103.3557442, 20.1681907 ], [ -103.3562659, 20.1683186 ], [ -103.3567, 20.1682275 ], [ -103.3574053, 20.1681849 ], [ -103.3582937, 20.1681934 ], [ -103.3588691, 20.1679276 ], [ -103.3593391, 20.1678826 ], [ -103.3602828, 20.1676696 ], [ -103.3611228, 20.1673571 ], [ -103.362061, 20.1673663 ], [ -103.3630795, 20.1674246 ], [ -103.3646965, 20.1675138 ], [ -103.3658154, 20.1680172 ], [ -103.3665101, 20.1686432 ], [ -103.3669449, 20.167956 ], [ -103.3684451, 20.1689175 ], [ -103.3704337, 20.1699479 ], [ -103.3716064, 20.1685134 ], [ -103.3748173, 20.1697377 ], [ -103.3749233, 20.1723686 ], [ -103.375393, 20.1727919 ], [ -103.3770488, 20.1725327 ], [ -103.3778169, 20.174714 ], [ -103.3779337, 20.1747425 ], [ -103.3787122, 20.1741451 ], [ -103.3793969, 20.1755031 ], [ -103.3796551, 20.1754963 ], [ -103.3796899, 20.1757978 ], [ -103.3790358, 20.1769038 ], [ -103.3795213, 20.177559 ], [ -103.3801249, 20.178369 ], [ -103.3809971, 20.1793347 ], [ -103.3814834, 20.1794566 ], [ -103.3825946, 20.1801261 ], [ -103.3839573, 20.1807801 ], [ -103.3846582, 20.1814283 ], [ -103.3852564, 20.181758 ], [ -103.3859967, 20.1831276 ], [ -103.3861026, 20.1831015 ], [ -103.3905543, 20.1846211 ], [ -103.3918322, 20.1835458 ], [ -103.3920994, 20.1836225 ], [ -103.3921804, 20.1835362 ], [ -103.392015, 20.1830611 ], [ -103.3922005, 20.1826293 ], [ -103.3943619, 20.1837064 ], [ -103.3989177, 20.1870857 ], [ -103.4065746, 20.1854889 ], [ -103.4048285, 20.1835887 ], [ -103.4054931, 20.1835757 ], [ -103.4063285, 20.1835905 ], [ -103.4077158, 20.1833647 ], [ -103.4083453, 20.1829036 ], [ -103.4096399, 20.1830544 ], [ -103.40994, 20.1824335 ], [ -103.4110277, 20.1824709 ], [ -103.4117185, 20.1821381 ], [ -103.4122324, 20.1816912 ], [ -103.410699, 20.1818052 ], [ -103.4104774, 20.180998 ], [ -103.4111708, 20.1807246 ], [ -103.4122844, 20.1805018 ], [ -103.41278, 20.1810605 ], [ -103.4125421, 20.1821893 ], [ -103.4126303, 20.1823411 ], [ -103.4121247, 20.1832164 ], [ -103.4127653, 20.1838301 ], [ -103.4138407, 20.1849714 ], [ -103.4154638, 20.1858271 ], [ -103.4156112, 20.1860334 ], [ -103.4156293, 20.1861007 ], [ -103.4154993, 20.1862993 ], [ -103.4156565, 20.1863993 ], [ -103.415604, 20.1867341 ], [ -103.4154646, 20.1867177 ], [ -103.4149822, 20.187155 ], [ -103.4150606, 20.1874062 ], [ -103.4123264, 20.1888652 ], [ -103.4135265, 20.1908954 ], [ -103.4221528, 20.1944917 ], [ -103.4233072, 20.1943984 ], [ -103.4233318, 20.1944149 ], [ -103.4234725, 20.1948585 ], [ -103.423675, 20.1951241 ], [ -103.4241527, 20.1963251 ], [ -103.424165, 20.1964352 ], [ -103.4244864, 20.1966442 ], [ -103.4249363, 20.1968722 ], [ -103.4259151, 20.1974291 ], [ -103.4259798, 20.1978435 ], [ -103.4259105, 20.1985726 ], [ -103.4244591, 20.2001012 ], [ -103.4242132, 20.2002548 ], [ -103.4242178, 20.2004886 ], [ -103.4241874, 20.2005756 ], [ -103.4236204, 20.2014202 ], [ -103.4233658, 20.2016991 ], [ -103.4232715, 20.2018799 ], [ -103.4230226, 20.2023157 ], [ -103.4229242, 20.2025486 ], [ -103.4226878, 20.2027052 ], [ -103.422178, 20.2029637 ], [ -103.4215565, 20.2030619 ], [ -103.4207551, 20.2028951 ], [ -103.4201984, 20.2036503 ], [ -103.4200777, 20.2037432 ], [ -103.4198447, 20.2040503 ], [ -103.4196477, 20.2043159 ], [ -103.4177841, 20.2069263 ], [ -103.4187387, 20.207555 ], [ -103.4193775, 20.2065689 ], [ -103.4206579, 20.2073083 ], [ -103.4207358, 20.2072749 ], [ -103.4228744, 20.207179 ], [ -103.4238606, 20.2075044 ], [ -103.4252406, 20.2077925 ], [ -103.4257361, 20.2078735 ], [ -103.4258674, 20.2077225 ], [ -103.4262366, 20.2074081 ], [ -103.4266194, 20.2072722 ], [ -103.4306004, 20.2073504 ], [ -103.4307702, 20.2070545 ], [ -103.4323325, 20.2076666 ], [ -103.4360163, 20.2075788 ], [ -103.4361861, 20.2082423 ], [ -103.4365583, 20.2081339 ], [ -103.4371095, 20.2077073 ], [ -103.4372782, 20.2075293 ], [ -103.4381221, 20.2067913 ], [ -103.4391683, 20.2074782 ], [ -103.4406726, 20.2063849 ], [ -103.4417027, 20.2071638 ], [ -103.4414675, 20.2074865 ], [ -103.4432334, 20.2074513 ], [ -103.4437427, 20.2108072 ], [ -103.4447982, 20.2143831 ], [ -103.4460539, 20.2152277 ], [ -103.4478453, 20.21656 ], [ -103.4490499, 20.2171935 ], [ -103.4496542, 20.2175606 ], [ -103.4511288, 20.2184573 ], [ -103.452878, 20.2196143 ], [ -103.4541924, 20.2203527 ], [ -103.455844, 20.2220474 ], [ -103.4571961, 20.223477 ], [ -103.4587779, 20.2242327 ], [ -103.4590721, 20.225054 ], [ -103.4592731, 20.225612 ], [ -103.4595607, 20.226002 ], [ -103.459957, 20.2276312 ], [ -103.4600524, 20.2276298 ], [ -103.4600142, 20.2278662 ], [ -103.4621043, 20.2280829 ], [ -103.4620085, 20.2284058 ], [ -103.4618269, 20.2293909 ], [ -103.4625119, 20.2302359 ], [ -103.4629399, 20.2299597 ], [ -103.4629065, 20.2305791 ], [ -103.4628472, 20.2306206 ], [ -103.4627557, 20.2311944 ], [ -103.4639344, 20.2325622 ], [ -103.4641031, 20.2327468 ], [ -103.4636694, 20.2345625 ], [ -103.46585, 20.235165 ], [ -103.4661399, 20.2367797 ], [ -103.4669711, 20.2381251 ], [ -103.4673182, 20.2386874 ], [ -103.4674299, 20.2387934 ], [ -103.4675172, 20.2388787 ], [ -103.4675658, 20.2389247 ], [ -103.4677066, 20.2395043 ], [ -103.467797, 20.23987 ], [ -103.4681535, 20.2412874 ], [ -103.4688587, 20.2438559 ], [ -103.469614, 20.2466126 ], [ -103.4678299, 20.2489053 ], [ -103.467691, 20.2491568 ], [ -103.4677239, 20.2494402 ], [ -103.4676938, 20.2498821 ], [ -103.4675847, 20.2502069 ], [ -103.4675589, 20.2504488 ], [ -103.4674193, 20.2507052 ], [ -103.4673213, 20.2508538 ], [ -103.4673098, 20.2511089 ], [ -103.4672121, 20.2512844 ], [ -103.4671997, 20.251459 ], [ -103.467145, 20.2516609 ], [ -103.467034, 20.2519304 ], [ -103.4670218, 20.2521184 ], [ -103.4667976, 20.2524428 ], [ -103.466691, 20.2527191 ], [ -103.4664284, 20.2530929 ], [ -103.4662219, 20.2531825 ], [ -103.4660267, 20.2535279 ], [ -103.4655302, 20.2536763 ], [ -103.4653858, 20.2538347 ], [ -103.4651874, 20.2539664 ], [ -103.4650167, 20.2541777 ], [ -103.4648447, 20.2544429 ], [ -103.464672, 20.2547342 ], [ -103.4645942, 20.2548222 ], [ -103.4644138, 20.2550252 ], [ -103.4641295, 20.2552517 ], [ -103.4640778, 20.2552964 ], [ -103.4640116, 20.2553509 ], [ -103.4638398, 20.2554549 ], [ -103.4633508, 20.2554925 ], [ -103.4631501, 20.2555109 ], [ -103.4631527, 20.2555935 ], [ -103.4626012, 20.2560275 ], [ -103.4624985, 20.2563794 ], [ -103.4619171, 20.2569921 ], [ -103.4618577, 20.2570742 ], [ -103.4616561, 20.2578876 ], [ -103.461624, 20.2580088 ], [ -103.4615364, 20.2582153 ], [ -103.4614125, 20.2585645 ], [ -103.4613306, 20.2589537 ], [ -103.4613857, 20.2593381 ], [ -103.4613683, 20.2594321 ], [ -103.4613435, 20.2595664 ], [ -103.4612427, 20.2598622 ], [ -103.4609885, 20.2606135 ], [ -103.4608556, 20.2610095 ], [ -103.4607391, 20.2613799 ], [ -103.4606913, 20.2615414 ], [ -103.4605429, 20.2620063 ], [ -103.4606124, 20.2620408 ], [ -103.4607517, 20.2622984 ], [ -103.4609023, 20.2624071 ], [ -103.461013, 20.2626218 ], [ -103.4610931, 20.2627857 ], [ -103.4611501, 20.2630464 ], [ -103.4611342, 20.2632453 ], [ -103.4611113, 20.2636401 ], [ -103.4612027, 20.2642091 ], [ -103.4612133, 20.2644713 ], [ -103.4617412, 20.2645218 ], [ -103.4617907, 20.264525 ], [ -103.462058, 20.2645555 ], [ -103.4621546, 20.2646256 ], [ -103.4621724, 20.2647589 ], [ -103.462157, 20.2651112 ], [ -103.4621376, 20.2652402 ], [ -103.4622727, 20.265457 ], [ -103.461942, 20.2661859 ], [ -103.4620069, 20.2662629 ], [ -103.461829, 20.2664654 ], [ -103.4601459, 20.2648867 ], [ -103.4543971, 20.2639959 ], [ -103.4524751, 20.2619666 ], [ -103.4507983, 20.2615185 ], [ -103.4488763, 20.2590397 ], [ -103.444443, 20.2580312 ], [ -103.4450326, 20.2538514 ], [ -103.443351, 20.2520482 ], [ -103.440238, 20.2520545 ], [ -103.4376005, 20.2507051 ], [ -103.4342496, 20.2513913 ], [ -103.4330487, 20.2498129 ], [ -103.436635, 20.2475461 ], [ -103.4361475, 20.2430292 ], [ -103.4373412, 20.2416714 ], [ -103.4392555, 20.241214 ], [ -103.4397311, 20.2398584 ], [ -103.4351796, 20.2385124 ], [ -103.433496, 20.2358056 ], [ -103.4279865, 20.2342361 ], [ -103.4270235, 20.2326583 ], [ -103.4265341, 20.2276897 ], [ -103.4229344, 20.2240822 ], [ -103.4186237, 20.2231874 ], [ -103.4121499, 20.2195878 ], [ -103.4095179, 20.2193674 ], [ -103.4075971, 20.2175637 ], [ -103.4042447, 20.2173431 ], [ -103.4030466, 20.2164429 ], [ -103.4030423, 20.2146357 ], [ -103.4018419, 20.2135093 ], [ -103.3972895, 20.2117105 ], [ -103.3970452, 20.2094521 ], [ -103.3903494, 20.2121754 ], [ -103.3845987, 20.210831 ], [ -103.3798163, 20.2137773 ], [ -103.376224, 20.2135588 ], [ -103.3731102, 20.211757 ], [ -103.3730945, 20.211555 ], [ -103.3730978, 20.2112824 ] ] ] ] } },
{ "type": "Feature", "properties": { "AREA": 66221295.626999997, "PERIMETER": 137284.101, "F1312PG_": 364, "F1312PG_ID": 363, "CLAVE": "Ts(lm-ar)", "FC": 6967, "ENTIDAD": "UNIDAD CRONOESTRATIGRÁFICA", "CLASE": "Sedimentaria", "TIPO": "Limolita-Arenisca", "ERA": "Cenozoico", "DIV_ERA": "N/A", "SISTEMA": "Neógeno", "UNION_SIST": "N/A", "SERIE": "N/D", "UNION_SER": "N/A" }, "geometry": { "type": "Polygon", "coordinates": [ [ [ -103.2894642, 20.3642885 ], [ -103.2895142, 20.3642683 ], [ -103.289604, 20.3633622 ], [ -103.2891194, 20.3621262 ], [ -103.2902042, 20.3618974 ], [ -103.2903766, 20.3613133 ], [ -103.2906792, 20.3602808 ], [ -103.2910502, 20.3596969 ], [ -103.2914069, 20.3589335 ], [ -103.2915216, 20.3587829 ], [ -103.2947742, 20.3616381 ], [ -103.2974133, 20.362086 ], [ -103.297893, 20.3632155 ], [ -103.2971756, 20.3641211 ], [ -103.2914249, 20.3643537 ], [ -103.289718, 20.3653215 ], [ -103.2894642, 20.3642885 ] ] ] } },
{ "type": "Feature", "properties": { "AREA": 7249127.797, "PERIMETER": 21601.276, "F1312PG_": 370, "F1312PG_ID": 369, "CLAVE": "Q(Vc)", "FC": 6041, "ENTIDAD": "UNIDAD CRONOESTRATIGRÁFICA", "CLASE": "Ígnea extrusiva", "TIPO": "Volcanoclástico", "ERA": "Cenozoico", "DIV_ERA": "N/A", "SISTEMA": "Cuaternario", "UNION_SIST": "N/A", "SERIE": "N/A", "UNION_SER": "N/A" }, "geometry": { "type": "Polygon", "coordinates": [ [ [ -103.3279713, 20.3926864 ], [ -103.3250214, 20.393629 ], [ -103.3191765, 20.3959054 ], [ -103.3189555, 20.3960463 ], [ -103.3187169, 20.395997 ], [ -103.3169015, 20.395622 ], [ -103.3169035, 20.3956254 ], [ -103.3171043, 20.3959629 ], [ -103.317104, 20.3959653 ], [ -103.3169613, 20.3969927 ], [ -103.3167109, 20.3972048 ], [ -103.316602, 20.3973576 ], [ -103.3148081, 20.3977622 ], [ -103.3147041, 20.3976659 ], [ -103.314704, 20.3976659 ], [ -103.3149969, 20.395863 ], [ -103.3149969, 20.3958628 ], [ -103.3146147, 20.3953211 ], [ -103.3131106, 20.3940262 ], [ -103.312542, 20.3935368 ], [ -103.3104732, 20.3918139 ], [ -103.3102655, 20.3926368 ], [ -103.3104626, 20.3927609 ], [ -103.310548, 20.3926943 ], [ -103.3108125, 20.3927883 ], [ -103.3109646, 20.392939 ], [ -103.3109492, 20.3930202 ], [ -103.3109389, 20.3930608 ], [ -103.3109555, 20.3931063 ], [ -103.3109991, 20.3931718 ], [ -103.3110801, 20.3932066 ], [ -103.3111353, 20.393348 ], [ -103.3115837, 20.3935417 ], [ -103.3112514, 20.3947861 ], [ -103.309863, 20.3944771 ], [ -103.3095626, 20.3960461 ], [ -103.3093882, 20.3969424 ], [ -103.3098984, 20.3980067 ], [ -103.3102139, 20.3978171 ], [ -103.3102005, 20.3980648 ], [ -103.3100711, 20.3983361 ], [ -103.3077659, 20.3982116 ], [ -103.3033527, 20.4003977 ], [ -103.2986971, 20.4001422 ], [ -103.2940166, 20.4005483 ], [ -103.2920664, 20.4010552 ], [ -103.2907488, 20.3998159 ], [ -103.2883516, 20.3995937 ], [ -103.2882681, 20.3994681 ], [ -103.2882649, 20.3994566 ], [ -103.2883666, 20.3993615 ], [ -103.2884999, 20.3992923 ], [ -103.2886268, 20.3992065 ], [ -103.2887126, 20.3991264 ], [ -103.2889144, 20.3991014 ], [ -103.2890298, 20.3991027 ], [ -103.2892275, 20.3991583 ], [ -103.2893432, 20.3991868 ], [ -103.2894847, 20.3991879 ], [ -103.2895998, 20.399162 ], [ -103.2896591, 20.3990283 ], [ -103.2897752, 20.3988946 ], [ -103.2899182, 20.3987608 ], [ -103.2900756, 20.3985157 ], [ -103.2902175, 20.3983445 ], [ -103.2903775, 20.398147 ], [ -103.2906888, 20.3977956 ], [ -103.2907528, 20.3977181 ], [ -103.2909541, 20.3976182 ], [ -103.2911475, 20.3976305 ], [ -103.2914001, 20.3976144 ], [ -103.2916304, 20.3976055 ], [ -103.2919422, 20.3975538 ], [ -103.2922386, 20.3974856 ], [ -103.2924856, 20.3973645 ], [ -103.2925715, 20.3972968 ], [ -103.2930508, 20.3971146 ], [ -103.2934996, 20.3972776 ], [ -103.2936179, 20.3973339 ], [ -103.2939973, 20.3973657 ], [ -103.2943913, 20.397486 ], [ -103.2946877, 20.3976013 ], [ -103.2949864, 20.3976606 ], [ -103.2954052, 20.3976927 ], [ -103.295732, 20.3976679 ], [ -103.2959719, 20.3976142 ], [ -103.2964516, 20.3974781 ], [ -103.296559, 20.3973751 ], [ -103.2967586, 20.3971695 ], [ -103.2969874, 20.3969003 ], [ -103.2971938, 20.3966314 ], [ -103.2973337, 20.3961919 ], [ -103.2973411, 20.3954158 ], [ -103.2973451, 20.3950666 ], [ -103.2974977, 20.3947304 ], [ -103.297588, 20.3946185 ], [ -103.2977055, 20.394379 ], [ -103.2977174, 20.3940046 ], [ -103.2977268, 20.3935818 ], [ -103.2978919, 20.3933406 ], [ -103.2981717, 20.3931805 ], [ -103.2983631, 20.3928949 ], [ -103.2984803, 20.3925862 ], [ -103.2985741, 20.3921371 ], [ -103.2985197, 20.3916863 ], [ -103.2984035, 20.3914034 ], [ -103.2984067, 20.3912344 ], [ -103.2985291, 20.3909545 ], [ -103.2988008, 20.3907039 ], [ -103.2990105, 20.3905088 ], [ -103.2990132, 20.3902838 ], [ -103.2986253, 20.3896837 ], [ -103.3008032, 20.3900905 ], [ -103.3022381, 20.388282 ], [ -103.3046371, 20.3889558 ], [ -103.3063139, 20.388051 ], [ -103.3087125, 20.3891764 ], [ -103.3161404, 20.3887127 ], [ -103.3185359, 20.3880339 ], [ -103.3216495, 20.3855435 ], [ -103.3240527, 20.3898327 ], [ -103.3286085, 20.3907276 ], [ -103.3286095, 20.3921949 ], [ -103.3279713, 20.3926864 ] ] ] } },
{ "type": "Feature", "properties": { "AREA": 81509881.179000005, "PERIMETER": 120923.766, "F1312PG_": 377, "F1312PG_ID": 376, "CLAVE": "Q(al)", "FC": 8250, "ENTIDAD": "SUELO", "CLASE": "N/A", "TIPO": "Aluvial", "ERA": "Cenozoico", "DIV_ERA": "N/A", "SISTEMA": "Cuaternario", "UNION_SIST": "N/A", "SERIE": "N/A", "UNION_SER": "N/A" }, "geometry": { "type": "MultiPolygon", "coordinates": [ [ [ [ -103.3022413, 20.2950293 ], [ -103.3021703, 20.2946428 ], [ -103.3020208, 20.2942905 ], [ -103.3019908, 20.2942197 ], [ -103.3019441, 20.2941097 ], [ -103.3019219, 20.2940834 ], [ -103.3018991, 20.2940564 ], [ -103.3017185, 20.2938419 ], [ -103.3016132, 20.293661 ], [ -103.3016132, 20.293661 ], [ -103.3015915, 20.2936237 ], [ -103.3015861, 20.2936115 ], [ -103.3015001, 20.2934147 ], [ -103.3015962, 20.2929703 ], [ -103.3016344, 20.2926069 ], [ -103.3015697, 20.2923354 ], [ -103.3014211, 20.2920788 ], [ -103.3006903, 20.2916601 ], [ -103.3005531, 20.2913875 ], [ -103.3004262, 20.2912081 ], [ -103.3002356, 20.2909535 ], [ -103.3001561, 20.2907185 ], [ -103.3001078, 20.2905149 ], [ -103.2999396, 20.2900598 ], [ -103.2998407, 20.2897694 ], [ -103.2997668, 20.2895756 ], [ -103.2995405, 20.2892357 ], [ -103.2994943, 20.2887283 ], [ -103.2995915, 20.2884419 ], [ -103.2991399, 20.2878449 ], [ -103.2992076, 20.2873904 ], [ -103.299116, 20.2870556 ], [ -103.2994387, 20.2869373 ], [ -103.2997621, 20.2867889 ], [ -103.3000208, 20.2867 ], [ -103.30028, 20.2866722 ], [ -103.3006025, 20.2865233 ], [ -103.3009264, 20.2864354 ], [ -103.3012148, 20.2864381 ], [ -103.3018913, 20.2862932 ], [ -103.3055619, 20.2865067 ], [ -103.3077924, 20.2861928 ], [ -103.3078199, 20.2861989 ], [ -103.3079791, 20.286261 ], [ -103.3083661, 20.2863251 ], [ -103.3084945, 20.2863875 ], [ -103.3088796, 20.2864516 ], [ -103.3091359, 20.2864239 ], [ -103.3095243, 20.2863367 ], [ -103.3097502, 20.2863387 ], [ -103.3099414, 20.2864317 ], [ -103.3101348, 20.2865547 ], [ -103.3105199, 20.2866194 ], [ -103.310616, 20.2866203 ], [ -103.3108085, 20.2866527 ], [ -103.3110657, 20.2867156 ], [ -103.3113877, 20.286719 ], [ -103.3117111, 20.2865701 ], [ -103.3119706, 20.2865729 ], [ -103.3124367, 20.2865683 ], [ -103.3125611, 20.2865694 ], [ -103.3128539, 20.2866015 ], [ -103.3129826, 20.2866645 ], [ -103.3130813, 20.2866347 ], [ -103.3130985, 20.2866283 ], [ -103.3136969, 20.2866939 ], [ -103.3137171, 20.2866932 ], [ -103.3137883, 20.2867023 ], [ -103.3139475, 20.2867649 ], [ -103.314075, 20.2868268 ], [ -103.3143665, 20.28686 ], [ -103.3146235, 20.2868929 ], [ -103.314816, 20.2869252 ], [ -103.3149444, 20.286987 ], [ -103.3151703, 20.2869891 ], [ -103.3152978, 20.2870508 ], [ -103.3155551, 20.2870231 ], [ -103.3157156, 20.2870245 ], [ -103.3158773, 20.2870566 ], [ -103.3160379, 20.287058 ], [ -103.3162961, 20.2871215 ], [ -103.3165193, 20.2871536 ], [ -103.3166814, 20.2872163 ], [ -103.3172601, 20.2872214 ], [ -103.3174215, 20.2872235 ], [ -103.3176785, 20.2872563 ], [ -103.3181617, 20.2872307 ], [ -103.3183558, 20.2872323 ], [ -103.3204409, 20.2875886 ], [ -103.3216366, 20.2867535 ], [ -103.3226923, 20.286526 ], [ -103.3238215, 20.2856518 ], [ -103.323863, 20.2862745 ], [ -103.3245033, 20.2863391 ], [ -103.3250543, 20.2863378 ], [ -103.3251451, 20.2862991 ], [ -103.3260077, 20.2860943 ], [ -103.3265635, 20.2857739 ], [ -103.3268878, 20.2855727 ], [ -103.3273625, 20.2854078 ], [ -103.3278026, 20.2853197 ], [ -103.3281398, 20.2851043 ], [ -103.3285221, 20.284783 ], [ -103.3288986, 20.2843481 ], [ -103.329026, 20.284347 ], [ -103.3294023, 20.2843345 ], [ -103.3297257, 20.2842778 ], [ -103.3299961, 20.2841541 ], [ -103.3304755, 20.2839179 ], [ -103.3307348, 20.2838679 ], [ -103.3309001, 20.2838744 ], [ -103.3311271, 20.2839844 ], [ -103.3313945, 20.2840641 ], [ -103.3316929, 20.2840477 ], [ -103.3320652, 20.284058 ], [ -103.3324863, 20.2839289 ], [ -103.3331061, 20.283721 ], [ -103.3340555, 20.2835299 ], [ -103.3342986, 20.2833638 ], [ -103.3345974, 20.2831555 ], [ -103.3350887, 20.2829041 ], [ -103.3356444, 20.2831414 ], [ -103.3371172, 20.2834985 ], [ -103.337444, 20.2830604 ], [ -103.3380688, 20.2830665 ], [ -103.3390846, 20.2832672 ], [ -103.3395255, 20.2834106 ], [ -103.3397708, 20.2834533 ], [ -103.3400939, 20.2835199 ], [ -103.3403347, 20.2835984 ], [ -103.3405856, 20.2837136 ], [ -103.3407733, 20.2839098 ], [ -103.3409026, 20.2842045 ], [ -103.3415497, 20.2846869 ], [ -103.342117, 20.2851734 ], [ -103.3428535, 20.2857379 ], [ -103.3431773, 20.286074 ], [ -103.3437301, 20.2862345 ], [ -103.3443176, 20.2863499 ], [ -103.3447184, 20.2867371 ], [ -103.3452497, 20.2872414 ], [ -103.3455169, 20.2876562 ], [ -103.3457582, 20.287862 ], [ -103.3465087, 20.2881949 ], [ -103.3475336, 20.2883908 ], [ -103.3486501, 20.2885003 ], [ -103.3494258, 20.2887243 ], [ -103.35016, 20.2889957 ], [ -103.3509246, 20.2891347 ], [ -103.35165, 20.2890907 ], [ -103.3521692, 20.2889938 ], [ -103.3530966, 20.2894098 ], [ -103.353578, 20.2894435 ], [ -103.3542498, 20.2896399 ], [ -103.3551271, 20.2897003 ], [ -103.355994, 20.289676 ], [ -103.3563262, 20.2895983 ], [ -103.3569231, 20.2895731 ], [ -103.3572438, 20.2894108 ], [ -103.358267, 20.2890328 ], [ -103.35861, 20.2890607 ], [ -103.3613226, 20.2892812 ], [ -103.3622507, 20.2893548 ], [ -103.3633843, 20.2895275 ], [ -103.3642763, 20.2897628 ], [ -103.3650318, 20.2898996 ], [ -103.36682, 20.2899812 ], [ -103.367983, 20.289919 ], [ -103.3681537, 20.2899769 ], [ -103.3683168, 20.2899465 ], [ -103.36835, 20.2898986 ], [ -103.3684631, 20.2898755 ], [ -103.3685903, 20.2899004 ], [ -103.3688112, 20.2898865 ], [ -103.3688635, 20.2898305 ], [ -103.3689735, 20.2897836 ], [ -103.3691875, 20.2897454 ], [ -103.3692557, 20.2896484 ], [ -103.3693738, 20.2896337 ], [ -103.3696385, 20.2896835 ], [ -103.3697895, 20.289685 ], [ -103.3700898, 20.2896403 ], [ -103.3702911, 20.2895791 ], [ -103.3703582, 20.2895643 ], [ -103.3704928, 20.2895653 ], [ -103.370557, 20.28955 ], [ -103.3707089, 20.2895514 ], [ -103.3708433, 20.2895372 ], [ -103.3709745, 20.289489 ], [ -103.3711407, 20.2894802 ], [ -103.3711858, 20.2894752 ], [ -103.3713039, 20.2894707 ], [ -103.3713587, 20.2894714 ], [ -103.3713971, 20.2894665 ], [ -103.3714867, 20.2894832 ], [ -103.3716261, 20.2894842 ], [ -103.3717787, 20.2894735 ], [ -103.3731509, 20.2896319 ], [ -103.3748144, 20.2906591 ], [ -103.3760078, 20.290627 ], [ -103.3759195, 20.2918683 ], [ -103.3758186, 20.2932045 ], [ -103.375963, 20.2932247 ], [ -103.3759637, 20.2932248 ], [ -103.3759862, 20.2926977 ], [ -103.3768048, 20.2926338 ], [ -103.3781095, 20.2925318 ], [ -103.3786169, 20.2926271 ], [ -103.3787922, 20.2925373 ], [ -103.3788849, 20.2924897 ], [ -103.3789443, 20.2924508 ], [ -103.3794525, 20.2921184 ], [ -103.3794527, 20.2921183 ], [ -103.3794527, 20.2921183 ], [ -103.3794529, 20.2921183 ], [ -103.379453, 20.2921184 ], [ -103.3796758, 20.2921629 ], [ -103.3801876, 20.2919932 ], [ -103.3810736, 20.2915537 ], [ -103.3810738, 20.2915536 ], [ -103.3810742, 20.2915534 ], [ -103.3810742, 20.2915534 ], [ -103.381179, 20.291358 ], [ -103.381179, 20.2913579 ], [ -103.3811927, 20.2913324 ], [ -103.3815291, 20.2913907 ], [ -103.3819313, 20.2911118 ], [ -103.3820181, 20.2914001 ], [ -103.3821027, 20.2915622 ], [ -103.3816432, 20.2941894 ], [ -103.3708619, 20.2939832 ], [ -103.3581642, 20.2919718 ], [ -103.347625, 20.2928937 ], [ -103.3401972, 20.2906464 ], [ -103.3349278, 20.2908804 ], [ -103.3334872, 20.2895277 ], [ -103.3327637, 20.2868175 ], [ -103.3282114, 20.2859228 ], [ -103.3174437, 20.2927145 ], [ -103.3128926, 20.292946 ], [ -103.3081062, 20.2954385 ], [ -103.3042702, 20.2940892 ], [ -103.3022704, 20.2952022 ], [ -103.3022413, 20.2950293 ] ] ], [ [ [ -103.386375, 20.2919437 ], [ -103.3863783, 20.2919439 ], [ -103.386337, 20.2918672 ], [ -103.3859588, 20.2911654 ], [ -103.3859501, 20.2911493 ], [ -103.3864776, 20.2906541 ], [ -103.3866322, 20.2902201 ], [ -103.3866322, 20.2902199 ], [ -103.3867272, 20.2900971 ], [ -103.3867277, 20.2900965 ], [ -103.3867281, 20.2900959 ], [ -103.3867282, 20.2900959 ], [ -103.3867282, 20.2900958 ], [ -103.3868619, 20.2899232 ], [ -103.3870234, 20.289611 ], [ -103.3870237, 20.2896105 ], [ -103.3872795, 20.2894575 ], [ -103.3875324, 20.2896399 ], [ -103.3879064, 20.2896942 ], [ -103.3882548, 20.2896391 ], [ -103.3886071, 20.2894425 ], [ -103.3887559, 20.2894578 ], [ -103.3888447, 20.2895155 ], [ -103.3889058, 20.2897304 ], [ -103.3891418, 20.2898638 ], [ -103.3898245, 20.2899308 ], [ -103.390327, 20.2896422 ], [ -103.3908485, 20.2897569 ], [ -103.390967, 20.2896743 ], [ -103.3909808, 20.2896647 ], [ -103.3912733, 20.2891317 ], [ -103.3915007, 20.2887368 ], [ -103.3920388, 20.2883362 ], [ -103.3923666, 20.2881857 ], [ -103.3926968, 20.2879697 ], [ -103.3929272, 20.287869 ], [ -103.3929298, 20.2878678 ], [ -103.392908, 20.2877139 ], [ -103.3930168, 20.2876141 ], [ -103.3931731, 20.2874319 ], [ -103.3935114, 20.2872534 ], [ -103.3936156, 20.2872421 ], [ -103.3941285, 20.2871157 ], [ -103.3944925, 20.287169 ], [ -103.3948276, 20.2871078 ], [ -103.3948276, 20.2871078 ], [ -103.3948276, 20.2871077 ], [ -103.3948409, 20.2870998 ], [ -103.3950876, 20.2869524 ], [ -103.3957934, 20.2868678 ], [ -103.3960253, 20.2867652 ], [ -103.3963101, 20.2868184 ], [ -103.3962891, 20.2869951 ], [ -103.3964444, 20.2870585 ], [ -103.3968645, 20.2870662 ], [ -103.3975492, 20.2871984 ], [ -103.397548, 20.2872952 ], [ -103.3977255, 20.2873031 ], [ -103.3978333, 20.2873535 ], [ -103.3982533, 20.287337 ], [ -103.3985265, 20.2873549 ], [ -103.3986739, 20.2873818 ], [ -103.3990278, 20.2873452 ], [ -103.3991779, 20.2873087 ], [ -103.3991785, 20.2873086 ], [ -103.3992431, 20.2871236 ], [ -103.3992433, 20.2871232 ], [ -103.3992434, 20.2871229 ], [ -103.3994128, 20.2870692 ], [ -103.3995978, 20.2870708 ], [ -103.3998448, 20.2871359 ], [ -103.3998533, 20.2871382 ], [ -103.3998794, 20.2871451 ], [ -103.3999739, 20.2871679 ], [ -103.4000655, 20.28719 ], [ -103.4001769, 20.2871582 ], [ -103.4001769, 20.2871582 ], [ -103.400213, 20.2871334 ], [ -103.4002564, 20.2871035 ], [ -103.40028, 20.2870872 ], [ -103.4003317, 20.2870515 ], [ -103.4003507, 20.2870643 ], [ -103.4003591, 20.2870699 ], [ -103.4003827, 20.2870858 ], [ -103.4004846, 20.2871541 ], [ -103.4005629, 20.2870489 ], [ -103.4005633, 20.2870484 ], [ -103.4007091, 20.2869193 ], [ -103.400756, 20.2869273 ], [ -103.4007804, 20.2869314 ], [ -103.4008982, 20.2869514 ], [ -103.401055, 20.2869779 ], [ -103.4012328, 20.2870792 ], [ -103.4013759, 20.2872991 ], [ -103.4015963, 20.2873221 ], [ -103.4019435, 20.2871535 ], [ -103.401946, 20.2871523 ], [ -103.4024289, 20.2869039 ], [ -103.4026767, 20.286926 ], [ -103.4028101, 20.2870546 ], [ -103.4036494, 20.2871828 ], [ -103.4043702, 20.2870693 ], [ -103.4053469, 20.2877433 ], [ -103.4056795, 20.2879567 ], [ -103.4059766, 20.2880279 ], [ -103.4064419, 20.2879801 ], [ -103.4068302, 20.2881488 ], [ -103.4074121, 20.2882198 ], [ -103.4078932, 20.2878146 ], [ -103.4081527, 20.2876547 ], [ -103.4085455, 20.2877545 ], [ -103.4088238, 20.2879328 ], [ -103.4090896, 20.2880462 ], [ -103.4094305, 20.2882443 ], [ -103.4104392, 20.2887063 ], [ -103.4104129, 20.2880895 ], [ -103.4111245, 20.2879569 ], [ -103.4122007, 20.2875373 ], [ -103.413112, 20.286773 ], [ -103.4128438, 20.2864554 ], [ -103.413404, 20.285664 ], [ -103.4135376, 20.2854885 ], [ -103.4136857, 20.2852815 ], [ -103.4138415, 20.2850488 ], [ -103.4140018, 20.284746 ], [ -103.4143207, 20.2838706 ], [ -103.4145989, 20.2834098 ], [ -103.4150155, 20.2828884 ], [ -103.4152017, 20.2824547 ], [ -103.4158149, 20.2811547 ], [ -103.4162845, 20.2801509 ], [ -103.416842, 20.2802457 ], [ -103.4168727, 20.2800019 ], [ -103.417074, 20.2795272 ], [ -103.4173159, 20.2790678 ], [ -103.4175932, 20.2784959 ], [ -103.4178329, 20.2778296 ], [ -103.4179121, 20.2771039 ], [ -103.4181563, 20.2748424 ], [ -103.4182949, 20.2738071 ], [ -103.418347, 20.2733799 ], [ -103.4183724, 20.2726583 ], [ -103.418374, 20.2716432 ], [ -103.4183832, 20.2705992 ], [ -103.4185779, 20.2701075 ], [ -103.4187256, 20.2700986 ], [ -103.4190934, 20.2701593 ], [ -103.4188988, 20.2700207 ], [ -103.4178085, 20.2698952 ], [ -103.4192045, 20.2661279 ], [ -103.4195991, 20.2624281 ], [ -103.4192231, 20.2619108 ], [ -103.4194866, 20.2597282 ], [ -103.4190472, 20.2593598 ], [ -103.419166, 20.2586766 ], [ -103.4214503, 20.2570286 ], [ -103.4220109, 20.2513763 ], [ -103.4219938, 20.2462918 ], [ -103.4219691, 20.2459704 ], [ -103.4218367, 20.2442514 ], [ -103.4213652, 20.2410252 ], [ -103.4207609, 20.2364833 ], [ -103.4202839, 20.2354369 ], [ -103.4202341, 20.2353243 ], [ -103.4198901, 20.2345471 ], [ -103.4198804, 20.234525 ], [ -103.4198072, 20.2343598 ], [ -103.4195886, 20.2334689 ], [ -103.4193989, 20.2329461 ], [ -103.4192354, 20.2326986 ], [ -103.4191748, 20.2326069 ], [ -103.4190879, 20.2326022 ], [ -103.4185952, 20.2325758 ], [ -103.4184838, 20.2325624 ], [ -103.4178794, 20.2324898 ], [ -103.4176127, 20.2321331 ], [ -103.4176053, 20.2321151 ], [ -103.416234, 20.2302865 ], [ -103.4129041, 20.2283413 ], [ -103.410832, 20.2264309 ], [ -103.4108316, 20.2264291 ], [ -103.4108269, 20.2264065 ], [ -103.4108083, 20.2263185 ], [ -103.4107592, 20.2262279 ], [ -103.4106634, 20.2260513 ], [ -103.4105009, 20.2257518 ], [ -103.4104046, 20.2255743 ], [ -103.4097351, 20.2252156 ], [ -103.4090638, 20.2250332 ], [ -103.4085407, 20.2249932 ], [ -103.408501, 20.2249909 ], [ -103.4069651, 20.2242225 ], [ -103.4055339, 20.2237761 ], [ -103.4039894, 20.2232922 ], [ -103.4034551, 20.2234054 ], [ -103.4034338, 20.2233952 ], [ -103.4026126, 20.2232467 ], [ -103.4018651, 20.2232046 ], [ -103.4010059, 20.2231262 ], [ -103.3999215, 20.2231164 ], [ -103.3990362, 20.2230242 ], [ -103.3972152, 20.223103 ], [ -103.3937861, 20.2239503 ], [ -103.3931178, 20.224129 ], [ -103.3927344, 20.2243054 ], [ -103.393004, 20.2230136 ], [ -103.3920355, 20.2180449 ], [ -103.3968156, 20.2141977 ], [ -103.3996899, 20.2148672 ], [ -103.4016105, 20.216671 ], [ -103.4030466, 20.2164429 ], [ -103.4042447, 20.2173431 ], [ -103.4075971, 20.2175637 ], [ -103.4095179, 20.2193674 ], [ -103.4121499, 20.2195878 ], [ -103.4186237, 20.2231874 ], [ -103.4229344, 20.2240822 ], [ -103.4265341, 20.2276897 ], [ -103.4270235, 20.2326583 ], [ -103.4279865, 20.2342361 ], [ -103.433496, 20.2358056 ], [ -103.4351796, 20.2385124 ], [ -103.4397311, 20.2398584 ], [ -103.4392555, 20.241214 ], [ -103.4373412, 20.2416714 ], [ -103.4361475, 20.2430292 ], [ -103.436635, 20.2475461 ], [ -103.4330487, 20.2498129 ], [ -103.4342496, 20.2513913 ], [ -103.434252, 20.2527464 ], [ -103.4356932, 20.2543242 ], [ -103.4352199, 20.2570344 ], [ -103.4359405, 20.2579378 ], [ -103.4380977, 20.2583838 ], [ -103.4404975, 20.2606388 ], [ -103.4416938, 20.260636 ], [ -103.444443, 20.2580312 ], [ -103.4488763, 20.2590397 ], [ -103.4507983, 20.2615185 ], [ -103.4524751, 20.2619666 ], [ -103.4543971, 20.2639959 ], [ -103.4601459, 20.2648867 ], [ -103.461829, 20.2664654 ], [ -103.4618129, 20.2664838 ], [ -103.4614283, 20.2672039 ], [ -103.4613233, 20.2673653 ], [ -103.461262, 20.2677383 ], [ -103.4610617, 20.2680559 ], [ -103.460746, 20.2684529 ], [ -103.4604087, 20.2690204 ], [ -103.4604975, 20.2692912 ], [ -103.4611175, 20.2696045 ], [ -103.4614805, 20.2697283 ], [ -103.4616522, 20.2699805 ], [ -103.4620266, 20.2700246 ], [ -103.4626076, 20.2699788 ], [ -103.4630125, 20.2698344 ], [ -103.4633265, 20.269816 ], [ -103.4635114, 20.2699925 ], [ -103.4635125, 20.2705264 ], [ -103.4572855, 20.2705392 ], [ -103.4539368, 20.2730327 ], [ -103.4522674, 20.2757459 ], [ -103.4491538, 20.2757547 ], [ -103.4474793, 20.2766616 ], [ -103.4474818, 20.2777905 ], [ -103.4520371, 20.2795879 ], [ -103.4522799, 20.2807169 ], [ -103.4510835, 20.2816232 ], [ -103.4508482, 20.2832045 ], [ -103.4539695, 20.2863598 ], [ -103.4614014, 20.2888288 ], [ -103.4590136, 20.2919967 ], [ -103.4621302, 20.2935685 ], [ -103.4638126, 20.2955983 ], [ -103.4657301, 20.2960463 ], [ -103.466932, 20.2980757 ], [ -103.4688523, 20.2998793 ], [ -103.471969, 20.3003241 ], [ -103.4746132, 20.3041576 ], [ -103.4777303, 20.3057313 ], [ -103.4832432, 20.3068475 ], [ -103.4873136, 20.3057087 ], [ -103.489715, 20.3079608 ], [ -103.4911545, 20.308183 ], [ -103.4926002, 20.3117934 ], [ -103.4954798, 20.3133674 ], [ -103.4976468, 20.3174286 ], [ -103.501958, 20.3169666 ], [ -103.5031577, 20.3180929 ], [ -103.5041281, 20.3219312 ], [ -103.5031724, 20.3237413 ], [ -103.5077302, 20.3257609 ], [ -103.5074987, 20.3289253 ], [ -103.5084605, 20.3298255 ], [ -103.5149365, 20.3318412 ], [ -103.5216569, 20.3361169 ], [ -103.5223816, 20.3381467 ], [ -103.5211881, 20.339957 ], [ -103.5219161, 20.3433443 ], [ -103.5209663, 20.3467353 ], [ -103.5228911, 20.3496674 ], [ -103.5231406, 20.3528293 ], [ -103.5262684, 20.357113 ], [ -103.5303467, 20.358909 ], [ -103.5281965, 20.3609485 ], [ -103.5296435, 20.3643325 ], [ -103.5258095, 20.3650206 ], [ -103.5243812, 20.3684119 ], [ -103.5272749, 20.374505 ], [ -103.5315974, 20.3774299 ], [ -103.5323322, 20.3830759 ], [ -103.5311384, 20.3848859 ], [ -103.52515, 20.3864821 ], [ -103.5186862, 20.3896614 ], [ -103.5129319, 20.3889984 ], [ -103.5083687, 20.3853951 ], [ -103.5071689, 20.3853985 ], [ -103.5050178, 20.3872115 ], [ -103.4971072, 20.3874579 ], [ -103.488469, 20.3838641 ], [ -103.484385, 20.3800344 ], [ -103.4834173, 20.3764219 ], [ -103.4810121, 20.3734917 ], [ -103.4810036, 20.3691982 ], [ -103.4790769, 20.3658167 ], [ -103.4807439, 20.3612938 ], [ -103.480498, 20.3590352 ], [ -103.4778525, 20.3549766 ], [ -103.4735373, 20.3543088 ], [ -103.4706545, 20.3518309 ], [ -103.4708869, 20.3484404 ], [ -103.4687228, 20.3452844 ], [ -103.4703848, 20.3394066 ], [ -103.4691851, 20.338055 ], [ -103.4648681, 20.3373871 ], [ -103.4610291, 20.3342319 ], [ -103.4607837, 20.3326512 ], [ -103.4622156, 20.3294861 ], [ -103.459574, 20.3276853 ], [ -103.4653175, 20.3247343 ], [ -103.4669897, 20.3217947 ], [ -103.4667467, 20.3204402 ], [ -103.4636243, 20.3177361 ], [ -103.4643402, 20.3159291 ], [ -103.4624198, 20.3145772 ], [ -103.4624146, 20.3125447 ], [ -103.4607346, 20.3109671 ], [ -103.4612101, 20.3091579 ], [ -103.4585714, 20.3087123 ], [ -103.4571294, 20.3069084 ], [ -103.4509031, 20.307375 ], [ -103.4463493, 20.3064809 ], [ -103.445388, 20.3055804 ], [ -103.4508906, 20.3021783 ], [ -103.4597501, 20.3003524 ], [ -103.4604633, 20.2976398 ], [ -103.4597398, 20.2960592 ], [ -103.4558997, 20.2931324 ], [ -103.4367326, 20.2915935 ], [ -103.4326576, 20.2904729 ], [ -103.4276309, 20.2916135 ], [ -103.4197258, 20.2916303 ], [ -103.4168499, 20.2905072 ], [ -103.4137335, 20.2905124 ], [ -103.4108643, 20.2920993 ], [ -103.4036776, 20.2921126 ], [ -103.3996112, 20.2950588 ], [ -103.3926666, 20.2962011 ], [ -103.38572, 20.2962141 ], [ -103.3849972, 20.2948594 ], [ -103.3873911, 20.2932755 ], [ -103.3862047, 20.2919369 ], [ -103.386375, 20.2919437 ] ], [ [ -103.4333383, 20.2730777 ], [ -103.4333477, 20.2773691 ], [ -103.4369467, 20.2800725 ], [ -103.4372036, 20.2877515 ], [ -103.4410408, 20.2900037 ], [ -103.4484651, 20.2886307 ], [ -103.4487005, 20.2875017 ], [ -103.4475015, 20.2866012 ], [ -103.4479722, 20.2829848 ], [ -103.44389, 20.2780253 ], [ -103.4448364, 20.2726021 ], [ -103.4429168, 20.2717016 ], [ -103.4378886, 20.2721653 ], [ -103.4357312, 20.2710391 ], [ -103.4333383, 20.2730777 ] ] ] ] } },
{ "type": "Feature", "properties": { "AREA": 16256805.655, "PERIMETER": 35106.13, "F1312PG_": 407, "F1312PG_ID": 406, "CLAVE": "Ts(lm-ar)", "FC": 6967, "ENTIDAD": "UNIDAD CRONOESTRATIGRÁFICA", "CLASE": "Sedimentaria", "TIPO": "Limolita-Arenisca", "ERA": "Cenozoico", "DIV_ERA": "N/A", "SISTEMA": "Neógeno", "UNION_SIST": "N/A", "SERIE": "N/D", "UNION_SER": "N/A" }, "geometry": { "type": "Polygon", "coordinates": [ [ [ -103.3665975, 20.3197411 ], [ -103.3704304, 20.3201856 ], [ -103.3754664, 20.3228884 ], [ -103.3790575, 20.3217518 ], [ -103.3819339, 20.3226501 ], [ -103.3845666, 20.319935 ], [ -103.3860015, 20.3197066 ], [ -103.3910358, 20.3212776 ], [ -103.3922369, 20.3226297 ], [ -103.3927215, 20.3253402 ], [ -103.3958363, 20.3251087 ], [ -103.396795, 20.325784 ], [ -103.3965568, 20.3266874 ], [ -103.3927256, 20.3273726 ], [ -103.3891384, 20.3307676 ], [ -103.3886618, 20.3328028 ], [ -103.3908219, 20.3346047 ], [ -103.3908238, 20.3359598 ], [ -103.3865157, 20.3384539 ], [ -103.3853247, 20.3413923 ], [ -103.3814926, 20.3429807 ], [ -103.380776, 20.3436583 ], [ -103.381018, 20.3454647 ], [ -103.3798206, 20.346145 ], [ -103.3728736, 20.3466086 ], [ -103.3695163, 20.345261 ], [ -103.3608985, 20.3500178 ], [ -103.3568244, 20.349573 ], [ -103.3544272, 20.3504808 ], [ -103.351312, 20.3502614 ], [ -103.3493977, 20.3516189 ], [ -103.3482038, 20.3538796 ], [ -103.3448501, 20.3543378 ], [ -103.3407709, 20.3507288 ], [ -103.3364547, 20.3493799 ], [ -103.3333328, 20.3455452 ], [ -103.3297379, 20.344196 ], [ -103.3237387, 20.3381066 ], [ -103.315345, 20.3331504 ], [ -103.315822, 20.3320189 ], [ -103.3179781, 20.3317911 ], [ -103.3194144, 20.3302081 ], [ -103.3222871, 20.3295245 ], [ -103.3234834, 20.3274901 ], [ -103.3261181, 20.3268086 ], [ -103.3280327, 20.3249997 ], [ -103.3345001, 20.324989 ], [ -103.3366527, 20.3229524 ], [ -103.3409665, 20.3231717 ], [ -103.3443162, 20.320455 ], [ -103.3536636, 20.3226998 ], [ -103.3560559, 20.3211148 ], [ -103.3610884, 20.3211055 ], [ -103.3665975, 20.3197411 ] ], [ [ -103.3606155, 20.3242695 ], [ -103.3594197, 20.3265303 ], [ -103.3565489, 20.3283413 ], [ -103.3548674, 20.3269887 ], [ -103.3534301, 20.3269913 ], [ -103.3524678, 20.324735 ], [ -103.3495951, 20.3258686 ], [ -103.3500809, 20.3290303 ], [ -103.344568, 20.328136 ], [ -103.3436122, 20.3303963 ], [ -103.344815, 20.3324267 ], [ -103.3417034, 20.334464 ], [ -103.3417049, 20.335593 ], [ -103.3441027, 20.3369457 ], [ -103.3436275, 20.3394302 ], [ -103.3477046, 20.3421356 ], [ -103.3508179, 20.3412255 ], [ -103.3517753, 20.3400942 ], [ -103.3515251, 20.3330932 ], [ -103.3531989, 20.33151 ], [ -103.3555953, 20.3312795 ], [ -103.3591901, 20.3326281 ], [ -103.3659134, 20.3402971 ], [ -103.3685496, 20.3414217 ], [ -103.3690284, 20.3405179 ], [ -103.3668646, 20.3369071 ], [ -103.3683021, 20.3366788 ], [ -103.3709428, 20.3382551 ], [ -103.3718997, 20.337801 ], [ -103.3687771, 20.3337409 ], [ -103.3704527, 20.3330609 ], [ -103.3733293, 20.3339594 ], [ -103.3750029, 20.332376 ], [ -103.3776396, 20.3321452 ], [ -103.3783543, 20.3303358 ], [ -103.3711601, 20.3267349 ], [ -103.3654126, 20.328551 ], [ -103.3649291, 20.3249399 ], [ -103.3625346, 20.3262973 ], [ -103.3618122, 20.3244929 ], [ -103.3606155, 20.3242695 ] ] ] } },
{ "type": "Feature", "properties": { "AREA": 3501055.204, "PERIMETER": 13755.771, "F1312PG_": 420, "F1312PG_ID": 419, "CLAVE": "Q(al)", "FC": 8250, "ENTIDAD": "SUELO", "CLASE": "N/A", "TIPO": "Aluvial", "ERA": "Cenozoico", "DIV_ERA": "N/A", "SISTEMA": "Cuaternario", "UNION_SIST": "N/A", "SERIE": "N/A", "UNION_SER": "N/A" }, "geometry": { "type": "Polygon", "coordinates": [ [ [ -103.3606155, 20.3242695 ], [ -103.3618122, 20.3244929 ], [ -103.3625346, 20.3262973 ], [ -103.3649291, 20.3249399 ], [ -103.3654126, 20.328551 ], [ -103.3711601, 20.3267349 ], [ -103.3783543, 20.3303358 ], [ -103.3776396, 20.3321452 ], [ -103.3750029, 20.332376 ], [ -103.3733293, 20.3339594 ], [ -103.3704527, 20.3330609 ], [ -103.3687771, 20.3337409 ], [ -103.3718997, 20.337801 ], [ -103.3709428, 20.3382551 ], [ -103.3683021, 20.3366788 ], [ -103.3668646, 20.3369071 ], [ -103.3690284, 20.3405179 ], [ -103.3685496, 20.3414217 ], [ -103.3659134, 20.3402971 ], [ -103.3591901, 20.3326281 ], [ -103.3555953, 20.3312795 ], [ -103.3531989, 20.33151 ], [ -103.3515251, 20.3330932 ], [ -103.3517753, 20.3400942 ], [ -103.3508179, 20.3412255 ], [ -103.3477046, 20.3421356 ], [ -103.3436275, 20.3394302 ], [ -103.3441027, 20.3369457 ], [ -103.3417049, 20.335593 ], [ -103.3417034, 20.334464 ], [ -103.344815, 20.3324267 ], [ -103.3436122, 20.3303963 ], [ -103.344568, 20.328136 ], [ -103.3500809, 20.3290303 ], [ -103.3495951, 20.3258686 ], [ -103.3524678, 20.324735 ], [ -103.3534301, 20.3269913 ], [ -103.3548674, 20.3269887 ], [ -103.3565489, 20.3283413 ], [ -103.3594197, 20.3265303 ], [ -103.3606155, 20.3242695 ] ] ] } },
{ "type": "Feature", "properties": { "AREA": 1098752880.5, "PERIMETER": 221635.201, "F1312PG_": 430, "F1312PG_ID": 429, "CLAVE": "H2O", "FC": 6292, "ENTIDAD": "CUERPO DE AGUA PERENNE", "CLASE": "N/A", "TIPO": "N/A", "ERA": "N/A", "DIV_ERA": "N/A", "SISTEMA": "N/A", "UNION_SIST": "N/A", "SERIE": "N/A", "UNION_SER": "N/A" }, "geometry": { "type": "MultiPolygon", "coordinates": [ [ [ [ -103.3018929, 20.2862928 ], [ -103.3021835, 20.2862354 ], [ -103.3025055, 20.2862383 ], [ -103.3028278, 20.2862718 ], [ -103.3031162, 20.2862745 ], [ -103.3034065, 20.2862776 ], [ -103.303664, 20.2862799 ], [ -103.3040171, 20.2863137 ], [ -103.3043391, 20.2863167 ], [ -103.3046614, 20.2863502 ], [ -103.3049854, 20.2862623 ], [ -103.305242, 20.2862647 ], [ -103.3055971, 20.2862078 ], [ -103.3057919, 20.286179 ], [ -103.3060175, 20.2861509 ], [ -103.3064353, 20.2861247 ], [ -103.3069514, 20.2861293 ], [ -103.3072731, 20.2861021 ], [ -103.307531, 20.2861351 ], [ -103.3077924, 20.2861928 ], [ -103.3055619, 20.2865067 ], [ -103.3018913, 20.2862932 ], [ -103.3018929, 20.2862928 ] ] ], [ [ [ -103.3127923, 20.2865714 ], [ -103.3128539, 20.2866015 ], [ -103.3125611, 20.2865694 ], [ -103.3127923, 20.2865714 ] ] ], [ [ [ -103.3132412, 20.2865755 ], [ -103.3133693, 20.2866073 ], [ -103.3135305, 20.2866693 ], [ -103.3137171, 20.2866932 ], [ -103.3136969, 20.2866939 ], [ -103.3130985, 20.2866283 ], [ -103.3132412, 20.2865755 ] ] ], [ [ [ -103.37182, 20.2894706 ], [ -103.3719282, 20.2894293 ], [ -103.3719828, 20.2894091 ], [ -103.3720722, 20.2894099 ], [ -103.3722838, 20.2894222 ], [ -103.3725249, 20.2893118 ], [ -103.3725905, 20.2893429 ], [ -103.372677, 20.2893439 ], [ -103.372708, 20.2893645 ], [ -103.3727948, 20.2893966 ], [ -103.3728938, 20.2893974 ], [ -103.3730354, 20.2894296 ], [ -103.3731107, 20.2894607 ], [ -103.3731655, 20.2894612 ], [ -103.3733173, 20.2894525 ], [ -103.3734057, 20.2894535 ], [ -103.3734611, 20.2894229 ], [ -103.3735475, 20.2894136 ], [ -103.3736552, 20.2894144 ], [ -103.3736988, 20.2894457 ], [ -103.3738288, 20.2894779 ], [ -103.373906, 20.2894993 ], [ -103.3741221, 20.2894906 ], [ -103.3742753, 20.2894308 ], [ -103.374321, 20.2893902 ], [ -103.3744191, 20.2894012 ], [ -103.3745153, 20.2894021 ], [ -103.3745943, 20.2893311 ], [ -103.3746471, 20.2893209 ], [ -103.3748327, 20.2894258 ], [ -103.3749288, 20.2894266 ], [ -103.3749646, 20.2893549 ], [ -103.3750508, 20.2893247 ], [ -103.3751486, 20.289305 ], [ -103.3753006, 20.2893167 ], [ -103.3754213, 20.2893695 ], [ -103.3755508, 20.2893502 ], [ -103.375759, 20.2893109 ], [ -103.3759013, 20.2893226 ], [ -103.3760961, 20.289386 ], [ -103.3760078, 20.290627 ], [ -103.3748144, 20.2906591 ], [ -103.3731509, 20.2896319 ], [ -103.3717787, 20.2894735 ], [ -103.37182, 20.2894706 ] ] ], [ [ [ -103.4186643, 20.2590386 ], [ -103.419166, 20.2586766 ], [ -103.4190472, 20.2593598 ], [ -103.4186643, 20.2590386 ] ] ], [ [ [ -103.4178658, 20.2324882 ], [ -103.4174082, 20.2324841 ], [ -103.4169638, 20.2324801 ], [ -103.4161272, 20.2322224 ], [ -103.4156489, 20.2320751 ], [ -103.4152422, 20.231613 ], [ -103.414597, 20.2310581 ], [ -103.4145378, 20.2310071 ], [ -103.4144961, 20.230965 ], [ -103.4138345, 20.2302955 ], [ -103.413227, 20.2298036 ], [ -103.4131297, 20.2297249 ], [ -103.4129025, 20.2295894 ], [ -103.4127482, 20.2294974 ], [ -103.4123491, 20.2292594 ], [ -103.4118882, 20.2288409 ], [ -103.411774, 20.2287373 ], [ -103.4116821, 20.2286539 ], [ -103.4114748, 20.2283819 ], [ -103.4112762, 20.2281212 ], [ -103.4112458, 20.2280582 ], [ -103.4110373, 20.2276262 ], [ -103.4110198, 20.2275899 ], [ -103.4109955, 20.2272782 ], [ -103.4109935, 20.2272527 ], [ -103.4109904, 20.2272132 ], [ -103.4109867, 20.2271665 ], [ -103.410982, 20.227144 ], [ -103.4109803, 20.227136 ], [ -103.4108422, 20.2264795 ], [ -103.4108389, 20.2264637 ], [ -103.410832, 20.2264309 ], [ -103.4129041, 20.2283413 ], [ -103.416234, 20.2302865 ], [ -103.4176053, 20.2321151 ], [ -103.4176127, 20.2321331 ], [ -103.4178794, 20.2324898 ], [ -103.4178658, 20.2324882 ] ] ], [ [ [ -103.4077932, 20.2249511 ], [ -103.4070101, 20.2247325 ], [ -103.4063406, 20.2243737 ], [ -103.4057442, 20.224192 ], [ -103.4049978, 20.2240441 ], [ -103.4039548, 20.2236468 ], [ -103.4034551, 20.2234054 ], [ -103.4039894, 20.2232922 ], [ -103.4055339, 20.2237761 ], [ -103.4069651, 20.2242225 ], [ -103.408501, 20.2249909 ], [ -103.4077932, 20.2249511 ] ] ], [ [ [ -103.3920148, 20.2246365 ], [ -103.3902866, 20.2249534 ], [ -103.3884431, 20.2266045 ], [ -103.3857125, 20.2265795 ], [ -103.3846548, 20.2264646 ], [ -103.3836522, 20.2264028 ], [ -103.3821514, 20.2260211 ], [ -103.3816486, 20.2260332 ], [ -103.3812444, 20.226043 ], [ -103.3812443, 20.226043 ], [ -103.3812434, 20.226043 ], [ -103.3809867, 20.2260549 ], [ -103.3809866, 20.2260549 ], [ -103.3809297, 20.2260575 ], [ -103.380925, 20.2260563 ], [ -103.3807946, 20.2260241 ], [ -103.3807945, 20.226024 ], [ -103.380794, 20.2260239 ], [ -103.3804781, 20.2256914 ], [ -103.3804768, 20.2256901 ], [ -103.3800092, 20.2256886 ], [ -103.3798447, 20.2256385 ], [ -103.3798436, 20.2256382 ], [ -103.3796574, 20.2255815 ], [ -103.3791715, 20.2255894 ], [ -103.3780716, 20.2257235 ], [ -103.3780715, 20.2257235 ], [ -103.3780707, 20.2257236 ], [ -103.378073, 20.2257485 ], [ -103.3780733, 20.2257517 ], [ -103.3780915, 20.2259498 ], [ -103.3777989, 20.2261623 ], [ -103.377797, 20.2261637 ], [ -103.3777678, 20.2261849 ], [ -103.3776294, 20.2262561 ], [ -103.3776266, 20.2262575 ], [ -103.3770327, 20.2265631 ], [ -103.3765367, 20.2267998 ], [ -103.3765345, 20.2267999 ], [ -103.3765343, 20.2267999 ], [ -103.3754713, 20.2268489 ], [ -103.3753419, 20.2268698 ], [ -103.3753371, 20.2268706 ], [ -103.3745131, 20.2270039 ], [ -103.3743329, 20.227052 ], [ -103.3743316, 20.2270524 ], [ -103.3742431, 20.227076 ], [ -103.3742412, 20.2270784 ], [ -103.3742412, 20.2270784 ], [ -103.374094, 20.2272641 ], [ -103.3740916, 20.2272671 ], [ -103.374067, 20.2272981 ], [ -103.3732543, 20.2274281 ], [ -103.3730327, 20.2274811 ], [ -103.3728118, 20.2274247 ], [ -103.3728094, 20.2274241 ], [ -103.3728094, 20.227424 ], [ -103.3728093, 20.227424 ], [ -103.3726436, 20.2273817 ], [ -103.3719233, 20.2274154 ], [ -103.3702409, 20.2273808 ], [ -103.3702399, 20.2273807 ], [ -103.3702294, 20.2273791 ], [ -103.3701645, 20.2273695 ], [ -103.3698083, 20.2273169 ], [ -103.3696523, 20.2273279 ], [ -103.3694689, 20.2273408 ], [ -103.3694039, 20.227305 ], [ -103.3692836, 20.2272389 ], [ -103.3692316, 20.2272563 ], [ -103.3692265, 20.227255 ], [ -103.3692251, 20.2272546 ], [ -103.3690254, 20.2272045 ], [ -103.3684341, 20.2270561 ], [ -103.3678234, 20.2266769 ], [ -103.3677575, 20.2266421 ], [ -103.3676488, 20.2265847 ], [ -103.3674822, 20.2265236 ], [ -103.3673541, 20.2264766 ], [ -103.367153, 20.2265133 ], [ -103.3670519, 20.2265318 ], [ -103.3670508, 20.226532 ], [ -103.3667297, 20.2266173 ], [ -103.3659689, 20.2268195 ], [ -103.3653947, 20.2269722 ], [ -103.3647604, 20.2264182 ], [ -103.3646096, 20.2262793 ], [ -103.3644483, 20.2261351 ], [ -103.3642707, 20.2259807 ], [ -103.364155, 20.2258922 ], [ -103.3640269, 20.2257908 ], [ -103.3640124, 20.2257998 ], [ -103.363968, 20.2258272 ], [ -103.3637279, 20.2258773 ], [ -103.3636698, 20.2258767 ], [ -103.3632437, 20.2259729 ], [ -103.3629453, 20.2260403 ], [ -103.36194, 20.2271385 ], [ -103.3608012, 20.2266153 ], [ -103.3614401, 20.2259528 ], [ -103.3619098, 20.2250838 ], [ -103.3619917, 20.2249198 ], [ -103.3623901, 20.2241279 ], [ -103.3625084, 20.224048 ], [ -103.3628273, 20.2241504 ], [ -103.3670975, 20.2248681 ], [ -103.3678432, 20.2249923 ], [ -103.3705847, 20.2253518 ], [ -103.3731019, 20.2253756 ], [ -103.3750225, 20.2248328 ], [ -103.378252, 20.2242935 ], [ -103.3804872, 20.2246937 ], [ -103.3815964, 20.2248939 ], [ -103.3818967, 20.2249054 ], [ -103.3853084, 20.2250364 ], [ -103.3884201, 20.2249564 ], [ -103.3926939, 20.2243241 ], [ -103.3920148, 20.2246365 ] ] ] ] } },
{ "type": "Feature", "properties": { "AREA": 9721010.589, "PERIMETER": 15182.418, "F1312PG_": 433, "F1312PG_ID": 432, "CLAVE": "Ts(lm-ar)", "FC": 6967, "ENTIDAD": "UNIDAD CRONOESTRATIGRÁFICA", "CLASE": "Sedimentaria", "TIPO": "Limolita-Arenisca", "ERA": "Cenozoico", "DIV_ERA": "N/A", "SISTEMA": "Neógeno", "UNION_SIST": "N/A", "SERIE": "N/D", "UNION_SER": "N/A" }, "geometry": { "type": "Polygon", "coordinates": [ [ [ -103.445388, 20.3055804 ], [ -103.4463493, 20.3064809 ], [ -103.4509031, 20.307375 ], [ -103.4571294, 20.3069084 ], [ -103.4585714, 20.3087123 ], [ -103.4612101, 20.3091579 ], [ -103.4607346, 20.3109671 ], [ -103.4624146, 20.3125447 ], [ -103.4624198, 20.3145772 ], [ -103.4643402, 20.3159291 ], [ -103.4636243, 20.3177361 ], [ -103.4667467, 20.3204402 ], [ -103.4669897, 20.3217947 ], [ -103.4653175, 20.3247343 ], [ -103.459574, 20.3276853 ], [ -103.4574181, 20.3274651 ], [ -103.4557355, 20.3256618 ], [ -103.4514288, 20.3277037 ], [ -103.4507027, 20.3240906 ], [ -103.4487873, 20.3256772 ], [ -103.4456725, 20.325683 ], [ -103.4423101, 20.3218501 ], [ -103.4370516, 20.3272843 ], [ -103.4332181, 20.3277422 ], [ -103.430339, 20.3252641 ], [ -103.4281854, 20.327076 ], [ -103.4265079, 20.3270792 ], [ -103.4260204, 20.3232399 ], [ -103.4243475, 20.3246 ], [ -103.4207521, 20.3243803 ], [ -103.4193081, 20.3214471 ], [ -103.415951, 20.3198744 ], [ -103.4183224, 20.3083484 ], [ -103.4353313, 20.3076339 ], [ -103.445388, 20.3055804 ] ] ] } },
{ "type": "Feature", "properties": { "AREA": 2099195.052, "PERIMETER": 6408.59, "F1312PG_": 450, "F1312PG_ID": 449, "CLAVE": "Ts(lm-ar)", "FC": 6967, "ENTIDAD": "UNIDAD CRONOESTRATIGRÁFICA", "CLASE": "Sedimentaria", "TIPO": "Limolita-Arenisca", "ERA": "Cenozoico", "DIV_ERA": "N/A", "SISTEMA": "Neógeno", "UNION_SIST": "N/A", "SERIE": "N/D", "UNION_SER": "N/A" }, "geometry": { "type": "Polygon", "coordinates": [ [ [ -103.4357312, 20.2710391 ], [ -103.4378886, 20.2721653 ], [ -103.4429168, 20.2717016 ], [ -103.4448364, 20.2726021 ], [ -103.44389, 20.2780253 ], [ -103.4479722, 20.2829848 ], [ -103.4475015, 20.2866012 ], [ -103.4487005, 20.2875017 ], [ -103.4484651, 20.2886307 ], [ -103.4410408, 20.2900037 ], [ -103.4372036, 20.2877515 ], [ -103.4369467, 20.2800725 ], [ -103.4333477, 20.2773691 ], [ -103.4333383, 20.2730777 ], [ -103.4357312, 20.2710391 ] ] ] } },
{ "type": "Feature", "properties": { "AREA": 828347.667, "PERIMETER": 3655.85, "F1312PG_": 469, "F1312PG_ID": 468, "CLAVE": "Ts(lm-ar)", "FC": 6967, "ENTIDAD": "UNIDAD CRONOESTRATIGRÁFICA", "CLASE": "Sedimentaria", "TIPO": "Limolita-Arenisca", "ERA": "Cenozoico", "DIV_ERA": "N/A", "SISTEMA": "Neógeno", "UNION_SIST": "N/A", "SERIE": "N/D", "UNION_SER": "N/A" }, "geometry": { "type": "Polygon", "coordinates": [ [ [ -103.4342496, 20.2513913 ], [ -103.4376005, 20.2507051 ], [ -103.440238, 20.2520545 ], [ -103.443351, 20.2520482 ], [ -103.4450326, 20.2538514 ], [ -103.444443, 20.2580312 ], [ -103.4416938, 20.260636 ], [ -103.4404975, 20.2606388 ], [ -103.4380977, 20.2583838 ], [ -103.4359405, 20.2579378 ], [ -103.4352199, 20.2570344 ], [ -103.4356932, 20.2543242 ], [ -103.434252, 20.2527464 ], [ -103.4342496, 20.2513913 ] ] ] } },
{ "type": "Feature", "properties": { "AREA": 2915434.536, "PERIMETER": 12645.285, "F1312PG_": 487, "F1312PG_ID": 486, "CLAVE": "Q(al)", "FC": 8250, "ENTIDAD": "SUELO", "CLASE": "N/A", "TIPO": "Aluvial", "ERA": "Cenozoico", "DIV_ERA": "N/A", "SISTEMA": "Cuaternario", "UNION_SIST": "N/A", "SERIE": "N/A", "UNION_SER": "N/A" }, "geometry": { "type": "MultiPolygon", "coordinates": [ [ [ [ -103.3628099, 20.2238442 ], [ -103.3633346, 20.223763 ], [ -103.363751, 20.2231421 ], [ -103.3641919, 20.2225651 ], [ -103.364948, 20.222292 ], [ -103.3657086, 20.2215025 ], [ -103.3660476, 20.2213045 ], [ -103.3665604, 20.2209077 ], [ -103.3665207, 20.2203045 ], [ -103.3667343, 20.2195743 ], [ -103.3668217, 20.2195188 ], [ -103.3668399, 20.2195073 ], [ -103.3671017, 20.2193409 ], [ -103.3670777, 20.2191833 ], [ -103.3670163, 20.21878 ], [ -103.3670482, 20.2183167 ], [ -103.3673486, 20.2179105 ], [ -103.3679429, 20.2177868 ], [ -103.3682665, 20.2174886 ], [ -103.3684535, 20.2171673 ], [ -103.3688218, 20.2168262 ], [ -103.3693274, 20.2166771 ], [ -103.3700191, 20.2166839 ], [ -103.3702284, 20.2160071 ], [ -103.3702357, 20.2153008 ], [ -103.3704691, 20.214923 ], [ -103.3706299, 20.2147247 ], [ -103.3708183, 20.214492 ], [ -103.3710535, 20.2140053 ], [ -103.3710701, 20.2139986 ], [ -103.3707212, 20.2158273 ], [ -103.3747917, 20.21582 ], [ -103.3764718, 20.217624 ], [ -103.3810225, 20.2178399 ], [ -103.3807921, 20.2230367 ], [ -103.3818967, 20.2249054 ], [ -103.3815964, 20.2248939 ], [ -103.3804872, 20.2246937 ], [ -103.378252, 20.2242935 ], [ -103.3750225, 20.2248328 ], [ -103.3731019, 20.2253756 ], [ -103.3705847, 20.2253518 ], [ -103.3678432, 20.2249923 ], [ -103.3670975, 20.2248681 ], [ -103.3628273, 20.2241504 ], [ -103.3625084, 20.224048 ], [ -103.3628099, 20.2238442 ] ] ], [ [ [ -103.3721057, 20.2124407 ], [ -103.372313, 20.2120353 ], [ -103.3723983, 20.2119275 ], [ -103.3728196, 20.2119974 ], [ -103.37197, 20.2127002 ], [ -103.3721057, 20.2124407 ] ] ], [ [ [ -103.3730945, 20.211555 ], [ -103.3731102, 20.211757 ], [ -103.3730919, 20.2117722 ], [ -103.3730945, 20.211555 ] ] ] ] } },
{ "type": "Feature", "properties": { "AREA": 2658518.962, "PERIMETER": 9651.084, "F1312PG_": 488, "F1312PG_ID": 487, "CLAVE": "Q(cg)", "FC": 6770, "ENTIDAD": "UNIDAD CRONOESTRATIGRÁFICA", "CLASE": "Sedimentaria", "TIPO": "Conglomerado", "ERA": "Cenozoico", "DIV_ERA": "N/A", "SISTEMA": "Cuaternario", "UNION_SIST": "N/A", "SERIE": "N/A", "UNION_SER": "N/A" }, "geometry": { "type": "Polygon", "coordinates": [ [ [ -103.3926939, 20.2243241 ], [ -103.3884201, 20.2249564 ], [ -103.3853084, 20.2250364 ], [ -103.3818967, 20.2249054 ], [ -103.3807921, 20.2230367 ], [ -103.3810225, 20.2178399 ], [ -103.3764718, 20.217624 ], [ -103.3747917, 20.21582 ], [ -103.3707212, 20.2158273 ], [ -103.3710701, 20.2139986 ], [ -103.3713756, 20.2138765 ], [ -103.3717184, 20.2137403 ], [ -103.3717241, 20.2131701 ], [ -103.37197, 20.2127002 ], [ -103.3728196, 20.2119974 ], [ -103.372916, 20.2120135 ], [ -103.37309, 20.2119336 ], [ -103.3730919, 20.2117722 ], [ -103.3731102, 20.211757 ], [ -103.376224, 20.2135588 ], [ -103.3798163, 20.2137773 ], [ -103.3845987, 20.210831 ], [ -103.3903494, 20.2121754 ], [ -103.3970452, 20.2094521 ], [ -103.3972895, 20.2117105 ], [ -103.4018419, 20.2135093 ], [ -103.4030423, 20.2146357 ], [ -103.4030466, 20.2164429 ], [ -103.4016105, 20.216671 ], [ -103.3996899, 20.2148672 ], [ -103.3968156, 20.2141977 ], [ -103.3920355, 20.2180449 ], [ -103.393004, 20.2230136 ], [ -103.3927344, 20.2243054 ], [ -103.3926939, 20.2243241 ] ] ] } },
{ "type": "Feature", "properties": { "AREA": 825278.597, "PERIMETER": 4626.843, "F1312PG_": 508, "F1312PG_ID": 507, "CLAVE": "Q(al)", "FC": 8250, "ENTIDAD": "SUELO", "CLASE": "N/A", "TIPO": "Aluvial", "ERA": "Cenozoico", "DIV_ERA": "N/A", "SISTEMA": "Cuaternario", "UNION_SIST": "N/A", "SERIE": "N/A", "UNION_SER": "N/A" }, "geometry": { "type": "Polygon", "coordinates": [ [ [ -103.4153858, 20.1884471 ], [ -103.4155878, 20.1888589 ], [ -103.4172344, 20.1892178 ], [ -103.4172146, 20.1893252 ], [ -103.417198, 20.1893835 ], [ -103.4175969, 20.1896091 ], [ -103.4187229, 20.1902568 ], [ -103.4188492, 20.1904028 ], [ -103.4188126, 20.1906399 ], [ -103.4192348, 20.1910035 ], [ -103.4196398, 20.1911845 ], [ -103.42041, 20.1919479 ], [ -103.4207824, 20.1925754 ], [ -103.4210811, 20.1926214 ], [ -103.4220599, 20.1934152 ], [ -103.4220889, 20.1934997 ], [ -103.4222775, 20.1935686 ], [ -103.4229462, 20.1941577 ], [ -103.4233072, 20.1943984 ], [ -103.4221528, 20.1944917 ], [ -103.4135265, 20.1908954 ], [ -103.4123264, 20.1888652 ], [ -103.4150606, 20.1874062 ], [ -103.4153858, 20.1884471 ] ] ] } },
{ "type": "Feature", "properties": { "AREA": 1362059.23, "PERIMETER": 6288.191, "F1312PG_": 513, "F1312PG_ID": 512, "CLAVE": "Q(al)", "FC": 8250, "ENTIDAD": "SUELO", "CLASE": "N/A", "TIPO": "Aluvial", "ERA": "Cenozoico", "DIV_ERA": "N/A", "SISTEMA": "Cuaternario", "UNION_SIST": "N/A", "SERIE": "N/A", "UNION_SER": "N/A" }, "geometry": { "type": "Polygon", "coordinates": [ [ [ -103.3930505, 20.1806492 ], [ -103.3945066, 20.1811329 ], [ -103.3967499, 20.1816363 ], [ -103.3981855, 20.1813468 ], [ -103.3993878, 20.1816479 ], [ -103.3988914, 20.1832551 ], [ -103.4004382, 20.1835434 ], [ -103.4019737, 20.1838104 ], [ -103.4020146, 20.1838381 ], [ -103.4036046, 20.1835001 ], [ -103.4042723, 20.1834941 ], [ -103.4045646, 20.1835939 ], [ -103.4048285, 20.1835887 ], [ -103.4065746, 20.1854889 ], [ -103.3989177, 20.1870857 ], [ -103.3943619, 20.1837064 ], [ -103.3922005, 20.1826293 ], [ -103.3930505, 20.1806492 ] ] ] } }
]
}
