{
"type": "FeatureCollection",
"name": "SALUD_JOCO",
"crs": { "type": "name", "properties": { "name": "urn:ogc:def:crs:OGC:1.3:CRS84" } },
"features": [
{ "type": "Feature", "properties": { "id": 9895801, "clee": "14050621331000021000000000U3", "nom_estab": "CONSULTORIO DE PSICOLOGO", "raz_social": null, "codigo_act": "621331", "nombre_act": "Consultorios de psicología del sector privado", "per_ocu": "0 a 5 personas", "tipo_vial": "CALLE", "nom_vial": "ZARAGOZA", "tipo_v_e_1": "CALLE", "nom_v_e_1": "MATAMOROS", "tipo_v_e_2": "CALLE", "nom_v_e_2": "GALEANA", "tipo_v_e_3": "CALLE", "nom_v_e_3": "MATAMOROS", "numero_ext": "327", "letra_ext": "A", "edificio": null, "edificio_e": null, "numero_int": null, "letra_int": null, "tipo_asent": "MANZANA", "nomb_asent": "SAN JUAN COSALA", "tipoCenCom": null, "nom_CenCom": null, "num_local": null, "cod_postal": "45820", "cve_ent": "14", "entidad": "JALISCO", "cve_mun": "050", "municipio": "Jocotepec", "cve_loc": "0011", "localidad": "San Juan Cosalá", "ageb": "0201", "manzana": "007", "telefono": null, "correoelec": null, "www": null, "tipoUniEco": "Fijo", "latitud": 20.28946068, "longitud": -103.34773023, "fecha_alta": "2024-11" }, "geometry": { "type": "Point", "coordinates": [ -103.3477302, 20.2894607 ] } },
{ "type": "Feature", "properties": { "id": 7021365, "clee": "14050621211000271000000000U8", "nom_estab": "CONSULTORIO DENTAL", "raz_social": null, "codigo_act": "621211", "nombre_act": "Consultorios dentales del sector privado", "per_ocu": "0 a 5 personas", "tipo_vial": "CALLE", "nom_vial": "MATAMOROS SUR", "tipo_v_e_1": "CALLE", "nom_v_e_1": "MIGUEL ARANA ORIENTE", "tipo_v_e_2": "CALLE", "nom_v_e_2": "JOSE SANTANA ORIENTE", "tipo_v_e_3": "CALLE", "nom_v_e_3": "PEDRO MORENO SUR", "numero_ext": "81", "letra_ext": "A", "edificio": null, "edificio_e": null, "numero_int": "0", "letra_int": null, "tipo_asent": "COLONIA", "nomb_asent": "CENTRO", "tipoCenCom": null, "nom_CenCom": null, "num_local": null, "cod_postal": "45800", "cve_ent": "14", "entidad": "JALISCO", "cve_mun": "050", "municipio": "Jocotepec", "cve_loc": "0001", "localidad": "Jocotepec", "ageb": "0184", "manzana": "024", "telefono": null, "correoelec": null, "www": null, "tipoUniEco": "Fijo", "latitud": 20.28482854, "longitud": -103.42834054, "fecha_alta": "2019-11" }, "geometry": { "type": "Point", "coordinates": [ -103.4283405, 20.2848285 ] } },
{ "type": "Feature", "properties": { "id": 9851833, "clee": "14050621391000071000000000U2", "nom_estab": "ITZAE CLINICA SPA", "raz_social": null, "codigo_act": "621391", "nombre_act": "Consultorios de nutriólogos y dietistas del sector privado", "per_ocu": "0 a 5 personas", "tipo_vial": "CALLE", "nom_vial": "MATAMOROS NORTE", "tipo_v_e_1": "AVENIDA", "nom_v_e_1": "AVENIDA DE LOS MAESTROS ORIENTE", "tipo_v_e_2": "PRIVADA", "nom_v_e_2": "PRIVADA DEL ANGEL", "tipo_v_e_3": "CALLE", "nom_v_e_3": "GUADALUPE VICTORIA NORTE", "numero_ext": "141", "letra_ext": null, "edificio": null, "edificio_e": null, "numero_int": null, "letra_int": null, "tipo_asent": "COLONIA", "nomb_asent": "CENTRO", "tipoCenCom": null, "nom_CenCom": null, "num_local": null, "cod_postal": "45800", "cve_ent": "14", "entidad": "JALISCO", "cve_mun": "050", "municipio": "Jocotepec", "cve_loc": "0001", "localidad": "Jocotepec", "ageb": "0184", "manzana": "003", "telefono": null, "correoelec": null, "www": null, "tipoUniEco": "Fijo", "latitud": 20.29023298, "longitud": -103.42738786, "fecha_alta": "2024-11" }, "geometry": { "type": "Point", "coordinates": [ -103.4273879, 20.290233 ] } },
{ "type": "Feature", "properties": { "id": 1757339, "clee": "14050621113000051000000000U2", "nom_estab": "CONSULTORIO", "raz_social": null, "codigo_act": "621113", "nombre_act": "Consultorios de medicina especializada del sector privado", "per_ocu": "0 a 5 personas", "tipo_vial": "CALLE", "nom_vial": "ALLENDE NORTE", "tipo_v_e_1": "CALLE", "nom_v_e_1": "MIGUEL ARANA ORIENTE", "tipo_v_e_2": "CALLE", "nom_v_e_2": "MORELOS PONIENTE", "tipo_v_e_3": "CALLE", "nom_v_e_3": "GUADALUPE VICTORIA SUR", "numero_ext": "11", "letra_ext": null, "edificio": null, "edificio_e": null, "numero_int": "4", "letra_int": null, "tipo_asent": "COLONIA", "nomb_asent": "CENTRO", "tipoCenCom": null, "nom_CenCom": null, "num_local": null, "cod_postal": "45800", "cve_ent": "14", "entidad": "JALISCO", "cve_mun": "050", "municipio": "Jocotepec", "cve_loc": "0001", "localidad": "Jocotepec", "ageb": "0184", "manzana": "015", "telefono": null, "correoelec": null, "www": null, "tipoUniEco": "Fijo", "latitud": 20.28635901, "longitud": -103.42946855, "fecha_alta": "2014-12" }, "geometry": { "type": "Point", "coordinates": [ -103.4294685, 20.286359 ] } },
{ "type": "Feature", "properties": { "id": 10870720, "clee": "14050621391000061000000000U3", "nom_estab": "CONSULTORIO DE NUTRICION", "raz_social": null, "codigo_act": "621391", "nombre_act": "Consultorios de nutriólogos y dietistas del sector privado", "per_ocu": "0 a 5 personas", "tipo_vial": "CALLE", "nom_vial": "JOSE SANTANA ORIENTE", "tipo_v_e_1": "CALLE", "nom_v_e_1": "GONZALEZ ORTEGA SUR", "tipo_v_e_2": "CALLE", "nom_v_e_2": "LOS ARCOS", "tipo_v_e_3": "PRIVADA", "nom_v_e_3": "JUAREZ ORIENTE", "numero_ext": "408", "letra_ext": null, "edificio": null, "edificio_e": null, "numero_int": null, "letra_int": null, "tipo_asent": "COLONIA", "nomb_asent": "CENTRO", "tipoCenCom": null, "nom_CenCom": null, "num_local": null, "cod_postal": "45800", "cve_ent": "14", "entidad": "JALISCO", "cve_mun": "050", "municipio": "Jocotepec", "cve_loc": "0001", "localidad": "Jocotepec", "ageb": "0108", "manzana": "003", "telefono": null, "correoelec": null, "www": null, "tipoUniEco": "Fijo", "latitud": 20.28332621, "longitud": -103.42253808, "fecha_alta": "2024-11" }, "geometry": { "type": "Point", "coordinates": [ -103.4225381, 20.2833262 ] } },
{ "type": "Feature", "properties": { "id": 1634411, "clee": "14050621211000181000000000U9", "nom_estab": "CONSULTORIO DENTAL", "raz_social": null, "codigo_act": "621211", "nombre_act": "Consultorios dentales del sector privado", "per_ocu": "0 a 5 personas", "tipo_vial": "CALLE", "nom_vial": "JUAREZ PONIENTE", "tipo_v_e_1": "CALLE", "nom_v_e_1": "INDEPENDENCIA SUR", "tipo_v_e_2": "CALLE", "nom_v_e_2": "HIDALGO", "tipo_v_e_3": "CALLE", "nom_v_e_3": "JOSE SANTANA PONIENTE", "numero_ext": "24", "letra_ext": "B", "edificio": null, "edificio_e": null, "numero_int": "0", "letra_int": null, "tipo_asent": "MANZANA", "nomb_asent": "JOCOTEPEC", "tipoCenCom": null, "nom_CenCom": null, "num_local": null, "cod_postal": "45800", "cve_ent": "14", "entidad": "JALISCO", "cve_mun": "050", "municipio": "Jocotepec", "cve_loc": "0001", "localidad": "Jocotepec", "ageb": "017A", "manzana": "020", "telefono": "3877632485", "correoelec": null, "www": null, "tipoUniEco": "Fijo", "latitud": 20.28422843, "longitud": -103.43142589, "fecha_alta": "2010-07" }, "geometry": { "type": "Point", "coordinates": [ -103.4314259, 20.2842284 ] } },
{ "type": "Feature", "properties": { "id": 1634349, "clee": "14050621211000241000000000U1", "nom_estab": "CONSULTORIO DENTAL", "raz_social": null, "codigo_act": "621211", "nombre_act": "Consultorios dentales del sector privado", "per_ocu": "0 a 5 personas", "tipo_vial": "CALLE", "nom_vial": "JOSE SANTANA ORIENTE", "tipo_v_e_1": "CALLE", "nom_v_e_1": "HIDALGO", "tipo_v_e_2": "CALLE", "nom_v_e_2": "GUADALUPE VICTORIA SUR", "tipo_v_e_3": "CALLE", "nom_v_e_3": "JUAREZ ORIENTE", "numero_ext": "98", "letra_ext": null, "edificio": null, "edificio_e": null, "numero_int": "1", "letra_int": null, "tipo_asent": "COLONIA", "nomb_asent": "CENTRO", "tipoCenCom": null, "nom_CenCom": null, "num_local": null, "cod_postal": "45800", "cve_ent": "14", "entidad": "JALISCO", "cve_mun": "050", "municipio": "Jocotepec", "cve_loc": "0001", "localidad": "Jocotepec", "ageb": "0184", "manzana": "027", "telefono": "3339592434", "correoelec": null, "www": null, "tipoUniEco": "Fijo", "latitud": 20.28449422, "longitud": -103.42969091000001, "fecha_alta": "2010-07" }, "geometry": { "type": "Point", "coordinates": [ -103.4296909, 20.2844942 ] } },
{ "type": "Feature", "properties": { "id": 1634840, "clee": "14050621211000211000000000U4", "nom_estab": "CONSULTORIO DENTAL", "raz_social": null, "codigo_act": "621211", "nombre_act": "Consultorios dentales del sector privado", "per_ocu": "0 a 5 personas", "tipo_vial": "CALLE", "nom_vial": "ALLENDE NORTE", "tipo_v_e_1": "CALLE", "nom_v_e_1": "MIGUEL ARANA ORIENTE", "tipo_v_e_2": "CALLE", "nom_v_e_2": "MORELOS PONIENTE", "tipo_v_e_3": "CALLE", "nom_v_e_3": "GUADALUPE VICTORIA SUR", "numero_ext": "11", "letra_ext": null, "edificio": null, "edificio_e": null, "numero_int": "2", "letra_int": null, "tipo_asent": "COLONIA", "nomb_asent": "CENTRO", "tipoCenCom": null, "nom_CenCom": null, "num_local": null, "cod_postal": "45800", "cve_ent": "14", "entidad": "JALISCO", "cve_mun": "050", "municipio": "Jocotepec", "cve_loc": "0001", "localidad": "Jocotepec", "ageb": "0184", "manzana": "015", "telefono": null, "correoelec": null, "www": null, "tipoUniEco": "Fijo", "latitud": 20.28635901, "longitud": -103.42946855, "fecha_alta": "2010-07" }, "geometry": { "type": "Point", "coordinates": [ -103.4294685, 20.286359 ] } },
{ "type": "Feature", "properties": { "id": 1634848, "clee": "14050621211000011000000000U8", "nom_estab": "CONSULTORIO DENTAL", "raz_social": null, "codigo_act": "621211", "nombre_act": "Consultorios dentales del sector privado", "per_ocu": "0 a 5 personas", "tipo_vial": "CALLE", "nom_vial": "ALLENDE NORTE", "tipo_v_e_1": "CALLE", "nom_v_e_1": "MORELOS PONIENTE", "tipo_v_e_2": "CALLE", "nom_v_e_2": "DEGOLLADO", "tipo_v_e_3": "CALLE", "nom_v_e_3": "GUADALUPE VICTORIA NORTE", "numero_ext": "32", "letra_ext": null, "edificio": null, "edificio_e": null, "numero_int": "0", "letra_int": null, "tipo_asent": "COLONIA", "nomb_asent": "CENTRO", "tipoCenCom": null, "nom_CenCom": null, "num_local": null, "cod_postal": "45800", "cve_ent": "14", "entidad": "JALISCO", "cve_mun": "050", "municipio": "Jocotepec", "cve_loc": "0001", "localidad": "Jocotepec", "ageb": "0184", "manzana": "011", "telefono": null, "correoelec": null, "www": null, "tipoUniEco": "Fijo", "latitud": 20.28730308, "longitud": -103.42932115000001, "fecha_alta": "2010-07" }, "geometry": { "type": "Point", "coordinates": [ -103.4293212, 20.2873031 ] } },
{ "type": "Feature", "properties": { "id": 1634248, "clee": "14050621211000121000000000U5", "nom_estab": "CONSULTORIO DENTAL", "raz_social": null, "codigo_act": "621211", "nombre_act": "Consultorios dentales del sector privado", "per_ocu": "11 a 30 personas", "tipo_vial": "CALLE", "nom_vial": "HIDALGO", "tipo_v_e_1": "CALLE", "nom_v_e_1": "RAMON CORONA", "tipo_v_e_2": "CALLE", "nom_v_e_2": "ABASOLO", "tipo_v_e_3": "PRIVADA", "nom_v_e_3": "JOSEFA ORTIZ DE DOMINGUEZ", "numero_ext": "32", "letra_ext": null, "edificio": "PASAJE SAN JORGE", "edificio_e": "PLANTA BAJA", "numero_int": "19", "letra_int": null, "tipo_asent": "MANZANA", "nomb_asent": "JOCOTEPEC", "tipoCenCom": "PASAJE Y ANDADOR COMERCIAL", "nom_CenCom": "PASAJE SAN JORGE", "num_local": "19-21", "cod_postal": "45800", "cve_ent": "14", "entidad": "JALISCO", "cve_mun": "050", "municipio": "Jocotepec", "cve_loc": "0001", "localidad": "Jocotepec", "ageb": "017A", "manzana": "013", "telefono": "3313313225", "correoelec": null, "www": null, "tipoUniEco": "Fijo", "latitud": 20.28600662, "longitud": -103.43035206, "fecha_alta": "2010-07" }, "geometry": { "type": "Point", "coordinates": [ -103.4303521, 20.2860066 ] } },
{ "type": "Feature", "properties": { "id": 7866610, "clee": "14050463211001321000000000U1", "nom_estab": "CONSULTORIO DENTAL", "raz_social": null, "codigo_act": "621211", "nombre_act": "Consultorios dentales del sector privado", "per_ocu": "0 a 5 personas", "tipo_vial": "CALLE", "nom_vial": "HIDALGO", "tipo_v_e_1": "CALLE", "nom_v_e_1": "PEDRO MORENO", "tipo_v_e_2": "CALLE", "nom_v_e_2": "ALLENDE", "tipo_v_e_3": "OTRO(ESPECIFIQUE)", "nom_v_e_3": "NINGUNO", "numero_ext": "40", "letra_ext": null, "edificio": null, "edificio_e": null, "numero_int": "0", "letra_int": null, "tipo_asent": "EJIDO", "nomb_asent": "ZAPOTITAN DE HIDALGO", "tipoCenCom": null, "nom_CenCom": null, "num_local": null, "cod_postal": "45810", "cve_ent": "14", "entidad": "JALISCO", "cve_mun": "050", "municipio": "Jocotepec", "cve_loc": "0017", "localidad": "Zapotitán de Hidalgo", "ageb": "0076", "manzana": "015", "telefono": "3310419052", "correoelec": null, "www": null, "tipoUniEco": "Fijo", "latitud": 20.32720666, "longitud": -103.47847213, "fecha_alta": "2019-11" }, "geometry": { "type": "Point", "coordinates": [ -103.4784721, 20.3272067 ] } },
{ "type": "Feature", "properties": { "id": 7866608, "clee": "14050621211000281000000000U7", "nom_estab": "CONSULTORIO DENTAL", "raz_social": null, "codigo_act": "621211", "nombre_act": "Consultorios dentales del sector privado", "per_ocu": "0 a 5 personas", "tipo_vial": "CALLE", "nom_vial": "INDEPENDENCIA SUR", "tipo_v_e_1": "CALLE", "nom_v_e_1": "RAMON CORONA", "tipo_v_e_2": "CALLE", "nom_v_e_2": "JOSE SANTANA PONIENTE", "tipo_v_e_3": "CALLE", "nom_v_e_3": "HIDALGO", "numero_ext": "45", "letra_ext": "A", "edificio": null, "edificio_e": null, "numero_int": "0", "letra_int": null, "tipo_asent": "MANZANA", "nomb_asent": "JOCOTEPEC", "tipoCenCom": null, "nom_CenCom": null, "num_local": null, "cod_postal": "45800", "cve_ent": "14", "entidad": "JALISCO", "cve_mun": "050", "municipio": "Jocotepec", "cve_loc": "0001", "localidad": "Jocotepec", "ageb": "017A", "manzana": "017", "telefono": "3310424451", "correoelec": null, "www": null, "tipoUniEco": "Fijo", "latitud": 20.28525968, "longitud": -103.43259078, "fecha_alta": "2019-11" }, "geometry": { "type": "Point", "coordinates": [ -103.4325908, 20.2852597 ] } },
{ "type": "Feature", "properties": { "id": 1634397, "clee": "14050621399000022000000000U8", "nom_estab": "REGION SANITARIA IV CENTRO DE SALUD JOCOTEPEC", "raz_social": "SECRETARIA DE SALUD JALISCO", "codigo_act": "621399", "nombre_act": "Otros consultorios del sector público para el cuidado de la salud", "per_ocu": "11 a 30 personas", "tipo_vial": "CALLE", "nom_vial": "DONATO GUERRA ORIENTE", "tipo_v_e_1": "CALLE", "nom_v_e_1": "HIDALGO SUR", "tipo_v_e_2": "CALLE", "nom_v_e_2": "MATAMOROS SUR", "tipo_v_e_3": "OTRO(ESPECIFIQUE)", "nom_v_e_3": "NINGUNO", "numero_ext": "6", "letra_ext": null, "edificio": null, "edificio_e": null, "numero_int": null, "letra_int": null, "tipo_asent": "COLONIA", "nomb_asent": "CENTRO", "tipoCenCom": null, "nom_CenCom": null, "num_local": null, "cod_postal": "49440", "cve_ent": "14", "entidad": "JALISCO", "cve_mun": "050", "municipio": "Jocotepec", "cve_loc": "0001", "localidad": "Jocotepec", "ageb": "0184", "manzana": "038", "telefono": null, "correoelec": null, "www": null, "tipoUniEco": "Fijo", "latitud": 20.28050588, "longitud": -103.4311389, "fecha_alta": "2010-07" }, "geometry": { "type": "Point", "coordinates": [ -103.4311389, 20.2805059 ] } },
{ "type": "Feature", "properties": { "id": 9892438, "clee": "14050621211000341000000000U9", "nom_estab": "CONSULTORIO DENTAL", "raz_social": null, "codigo_act": "621211", "nombre_act": "Consultorios dentales del sector privado", "per_ocu": "0 a 5 personas", "tipo_vial": "CALLE", "nom_vial": "MORELOS PONIENTE", "tipo_v_e_1": "CALLE", "nom_v_e_1": "INDEPENDENCIA SUR", "tipo_v_e_2": "CALLE", "nom_v_e_2": "NIÑOS HEROES SUR", "tipo_v_e_3": "CALLE", "nom_v_e_3": "JOSE SANTANA PONIENTE", "numero_ext": "249", "letra_ext": null, "edificio": null, "edificio_e": null, "numero_int": null, "letra_int": null, "tipo_asent": "MANZANA", "nomb_asent": "JOCOTEPEC", "tipoCenCom": null, "nom_CenCom": null, "num_local": null, "cod_postal": "45800", "cve_ent": "14", "entidad": "JALISCO", "cve_mun": "050", "municipio": "Jocotepec", "cve_loc": "0001", "localidad": "Jocotepec", "ageb": "017A", "manzana": "016", "telefono": "3314796278", "correoelec": null, "www": null, "tipoUniEco": "Fijo", "latitud": 20.28669222, "longitud": -103.43492327, "fecha_alta": "2024-11" }, "geometry": { "type": "Point", "coordinates": [ -103.4349233, 20.2866922 ] } },
{ "type": "Feature", "properties": { "id": 9620850, "clee": "14050621398000071000000000U7", "nom_estab": "SERVICIOS PODOLOGICOS PREVENTIVOS", "raz_social": null, "codigo_act": "621398", "nombre_act": "Otros consultorios del sector privado para el cuidado de la salud", "per_ocu": "0 a 5 personas", "tipo_vial": "CALLE", "nom_vial": "DONATO GUERRA PONIENTE", "tipo_v_e_1": "CALLE", "nom_v_e_1": "HIDALGO SUR", "tipo_v_e_2": "PROLONGACION", "nom_v_e_2": "JOSEFA ORTIZ DE DOMINGUEZ", "tipo_v_e_3": "CALLE", "nom_v_e_3": "VICENTE GUERRERO PONIENTE", "numero_ext": "34", "letra_ext": null, "edificio": null, "edificio_e": null, "numero_int": null, "letra_int": null, "tipo_asent": "COLONIA", "nomb_asent": "CENTRO", "tipoCenCom": null, "nom_CenCom": null, "num_local": null, "cod_postal": "45800", "cve_ent": "14", "entidad": "JALISCO", "cve_mun": "050", "municipio": "Jocotepec", "cve_loc": "0001", "localidad": "Jocotepec", "ageb": "017A", "manzana": "028", "telefono": "3334770637", "correoelec": null, "www": null, "tipoUniEco": "Fijo", "latitud": 20.28073301, "longitud": -103.43195831, "fecha_alta": "2024-11" }, "geometry": { "type": "Point", "coordinates": [ -103.4319583, 20.280733 ] } },
{ "type": "Feature", "properties": { "id": 1634351, "clee": "14050621211000031000000000U6", "nom_estab": "CONSULTORIO DENTAL", "raz_social": null, "codigo_act": "621211", "nombre_act": "Consultorios dentales del sector privado", "per_ocu": "0 a 5 personas", "tipo_vial": "CALLE", "nom_vial": "JUAREZ ORIENTE", "tipo_v_e_1": "CALLE", "nom_v_e_1": "HIDALGO", "tipo_v_e_2": "CALLE", "nom_v_e_2": "GUADALUPE VICTORIA SUR", "tipo_v_e_3": "CALLE", "nom_v_e_3": "JOSE SANTANA ORIENTE", "numero_ext": "69", "letra_ext": "A", "edificio": null, "edificio_e": null, "numero_int": "0", "letra_int": null, "tipo_asent": "COLONIA", "nomb_asent": "CENTRO", "tipoCenCom": null, "nom_CenCom": null, "num_local": null, "cod_postal": "45800", "cve_ent": "14", "entidad": "JALISCO", "cve_mun": "050", "municipio": "Jocotepec", "cve_loc": "0001", "localidad": "Jocotepec", "ageb": "0184", "manzana": "027", "telefono": null, "correoelec": null, "www": null, "tipoUniEco": "Fijo", "latitud": 20.28387741, "longitud": -103.42992404, "fecha_alta": "2010-07" }, "geometry": { "type": "Point", "coordinates": [ -103.429924, 20.2838774 ] } },
{ "type": "Feature", "properties": { "id": 1634489, "clee": "14050622112000023001000000U2", "nom_estab": "UNIDAD MEDICA FAMILIAR 58", "raz_social": "INSTITUTO MEXICANO DEL SEGURO SOCIAL", "codigo_act": "622112", "nombre_act": "Hospitales generales del sector público", "per_ocu": "11 a 30 personas", "tipo_vial": "CALLE", "nom_vial": "DONATO GUERRA PONIENTE", "tipo_v_e_1": "CALLE", "nom_v_e_1": "HIDALGO SUR", "tipo_v_e_2": "CALLE", "nom_v_e_2": "PRIMERO DE MAYO", "tipo_v_e_3": "OTRO(ESPECIFIQUE)", "nom_v_e_3": "NINGUNO", "numero_ext": "97", "letra_ext": null, "edificio": null, "edificio_e": null, "numero_int": null, "letra_int": null, "tipo_asent": "BARRIO", "nomb_asent": "LA LOMA", "tipoCenCom": null, "nom_CenCom": null, "num_local": null, "cod_postal": "45800", "cve_ent": "14", "entidad": "JALISCO", "cve_mun": "050", "municipio": "Jocotepec", "cve_loc": "0001", "localidad": "Jocotepec", "ageb": "017A", "manzana": "033", "telefono": "3877630386", "correoelec": null, "www": "WWW.IMSS.COM.MX", "tipoUniEco": "Fijo", "latitud": 20.28089002, "longitud": -103.43319852, "fecha_alta": "2010-07" }, "geometry": { "type": "Point", "coordinates": [ -103.4331985, 20.28089 ] } },
{ "type": "Feature", "properties": { "id": 8845910, "clee": "14050621111000121000000000U7", "nom_estab": "CONSULTORIO DENTAL", "raz_social": null, "codigo_act": "621211", "nombre_act": "Consultorios dentales del sector privado", "per_ocu": "0 a 5 personas", "tipo_vial": "CALLE", "nom_vial": "PORFIRIO DIAZ", "tipo_v_e_1": "CALLE", "nom_v_e_1": "ITURBIDE", "tipo_v_e_2": "CALLE", "nom_v_e_2": "CALLE DEL CARDENAL", "tipo_v_e_3": "CALLE", "nom_v_e_3": "MORELOS", "numero_ext": "25", "letra_ext": null, "edificio": null, "edificio_e": null, "numero_int": "0", "letra_int": null, "tipo_asent": "MANZANA", "nomb_asent": "SAN JUAN COSALA", "tipoCenCom": null, "nom_CenCom": null, "num_local": null, "cod_postal": "45800", "cve_ent": "14", "entidad": "JALISCO", "cve_mun": "050", "municipio": "Jocotepec", "cve_loc": "0011", "localidad": "San Juan Cosalá", "ageb": "0201", "manzana": "023", "telefono": null, "correoelec": null, "www": null, "tipoUniEco": "Fijo", "latitud": 20.28711567, "longitud": -103.34115316000002, "fecha_alta": "2019-11" }, "geometry": { "type": "Point", "coordinates": [ -103.3411532, 20.2871157 ] } },
{ "type": "Feature", "properties": { "id": 1634925, "clee": "14050621391000041000000000U5", "nom_estab": "UNIDAD NUTRICIONAL", "raz_social": null, "codigo_act": "621391", "nombre_act": "Consultorios de nutriólogos y dietistas del sector privado", "per_ocu": "0 a 5 personas", "tipo_vial": "CALLE", "nom_vial": "MIGUEL ARANA ORIENTE", "tipo_v_e_1": "CALLE", "nom_v_e_1": "GONZALEZ ORTEGA SUR", "tipo_v_e_2": "CALLE", "nom_v_e_2": "NICOLAS BRAVO SUR", "tipo_v_e_3": "CALLE", "nom_v_e_3": "MORELOS PONIENTE", "numero_ext": "253", "letra_ext": null, "edificio": null, "edificio_e": null, "numero_int": "0", "letra_int": null, "tipo_asent": "COLONIA", "nomb_asent": "CENTRO", "tipoCenCom": null, "nom_CenCom": null, "num_local": null, "cod_postal": "45800", "cve_ent": "14", "entidad": "JALISCO", "cve_mun": "050", "municipio": "Jocotepec", "cve_loc": "0001", "localidad": "Jocotepec", "ageb": "0184", "manzana": "019", "telefono": "3310072061", "correoelec": null, "www": null, "tipoUniEco": "Fijo", "latitud": 20.28503836, "longitud": -103.42503494, "fecha_alta": "2010-07" }, "geometry": { "type": "Point", "coordinates": [ -103.4250349, 20.2850384 ] } },
{ "type": "Feature", "properties": { "id": 11528889, "clee": "14050621211000381000000000U5", "nom_estab": "CONSULTORIO DENTAL", "raz_social": null, "codigo_act": "621211", "nombre_act": "Consultorios dentales del sector privado", "per_ocu": "0 a 5 personas", "tipo_vial": "CALLE", "nom_vial": "DEGOLLADO", "tipo_v_e_1": "CALLE", "nom_v_e_1": "GUADALUPE VICTORIA NORTE", "tipo_v_e_2": "CALLE", "nom_v_e_2": "MATAMOROS NORTE", "tipo_v_e_3": "CALLE", "nom_v_e_3": "MORELOS PONIENTE", "numero_ext": "130", "letra_ext": "C", "edificio": null, "edificio_e": null, "numero_int": null, "letra_int": null, "tipo_asent": "COLONIA", "nomb_asent": "CENTRO", "tipoCenCom": null, "nom_CenCom": null, "num_local": null, "cod_postal": "45800", "cve_ent": "14", "entidad": "JALISCO", "cve_mun": "050", "municipio": "Jocotepec", "cve_loc": "0001", "localidad": "Jocotepec", "ageb": "0184", "manzana": "012", "telefono": null, "correoelec": null, "www": null, "tipoUniEco": "Fijo", "latitud": 20.28761486, "longitud": -103.42854229000001, "fecha_alta": "2024-11" }, "geometry": { "type": "Point", "coordinates": [ -103.4285423, 20.2876149 ] } },
{ "type": "Feature", "properties": { "id": 10299497, "clee": "14050621511000111000000000U9", "nom_estab": "LABORATORIO DE ANALISIS CLINICOS LIZ", "raz_social": null, "codigo_act": "621511", "nombre_act": "Laboratorios médicos y de diagnóstico del sector privado", "per_ocu": "0 a 5 personas", "tipo_vial": "CALLE", "nom_vial": "DONATO GUERRA ORIENTE", "tipo_v_e_1": "CALLE", "nom_v_e_1": "GUADALUPE VICTORIA SUR", "tipo_v_e_2": "CALLE", "nom_v_e_2": "HIDALGO SUR", "tipo_v_e_3": "CALLE", "nom_v_e_3": "VICENTE GUERRERO ORIENTE", "numero_ext": "11", "letra_ext": "A", "edificio": null, "edificio_e": null, "numero_int": null, "letra_int": null, "tipo_asent": "COLONIA", "nomb_asent": "CENTRO", "tipoCenCom": null, "nom_CenCom": null, "num_local": null, "cod_postal": "45800", "cve_ent": "14", "entidad": "JALISCO", "cve_mun": "050", "municipio": "Jocotepec", "cve_loc": "0001", "localidad": "Jocotepec", "ageb": "0184", "manzana": "036", "telefono": null, "correoelec": null, "www": null, "tipoUniEco": "Fijo", "latitud": 20.28056679, "longitud": -103.4311192, "fecha_alta": "2024-11" }, "geometry": { "type": "Point", "coordinates": [ -103.4311192, 20.2805668 ] } },
{ "type": "Feature", "properties": { "id": 10446297, "clee": "14050621111000131000000000U6", "nom_estab": "NUCLEO MEDICO", "raz_social": null, "codigo_act": "621111", "nombre_act": "Consultorios de medicina general del sector privado", "per_ocu": "0 a 5 personas", "tipo_vial": "CALLE", "nom_vial": "DEGOLLADO ORIENTE", "tipo_v_e_1": "CALLE", "nom_v_e_1": "ZARAGOZA NORTE", "tipo_v_e_2": "CALLE", "nom_v_e_2": "NIÑOS HEROES NORTE", "tipo_v_e_3": "CALLE", "nom_v_e_3": "JAVIER MINA", "numero_ext": "233", "letra_ext": null, "edificio": null, "edificio_e": null, "numero_int": null, "letra_int": null, "tipo_asent": "BARRIO", "nomb_asent": "LA PURISIMA", "tipoCenCom": null, "nom_CenCom": null, "num_local": null, "cod_postal": "45800", "cve_ent": "14", "entidad": "JALISCO", "cve_mun": "050", "municipio": "Jocotepec", "cve_loc": "0001", "localidad": "Jocotepec", "ageb": "0095", "manzana": "026", "telefono": "3333041639", "correoelec": null, "www": null, "tipoUniEco": "Fijo", "latitud": 20.28861871, "longitud": -103.43549157, "fecha_alta": "2024-11" }, "geometry": { "type": "Point", "coordinates": [ -103.4354916, 20.2886187 ] } },
{ "type": "Feature", "properties": { "id": 7021879, "clee": "14050621391000051000000000U4", "nom_estab": "NUTRICION CLINICA", "raz_social": null, "codigo_act": "621391", "nombre_act": "Consultorios de nutriólogos y dietistas del sector privado", "per_ocu": "0 a 5 personas", "tipo_vial": "CALLE", "nom_vial": "GUADALUPE VICTORIA SUR", "tipo_v_e_1": "CALLE", "nom_v_e_1": "MORELOS PONIENTE", "tipo_v_e_2": "CALLE", "nom_v_e_2": "MIGUEL ARANA ORIENTE", "tipo_v_e_3": "CALLE", "nom_v_e_3": "MATAMOROS SUR", "numero_ext": "35", "letra_ext": "A", "edificio": null, "edificio_e": null, "numero_int": "0", "letra_int": null, "tipo_asent": "COLONIA", "nomb_asent": "CENTRO", "tipoCenCom": null, "nom_CenCom": null, "num_local": null, "cod_postal": "45800", "cve_ent": "14", "entidad": "JALISCO", "cve_mun": "050", "municipio": "Jocotepec", "cve_loc": "0001", "localidad": "Jocotepec", "ageb": "0184", "manzana": "016", "telefono": null, "correoelec": null, "www": null, "tipoUniEco": "Fijo", "latitud": 20.28593608, "longitud": -103.42900778000001, "fecha_alta": "2019-11" }, "geometry": { "type": "Point", "coordinates": [ -103.4290078, 20.2859361 ] } },
{ "type": "Feature", "properties": { "id": 1757430, "clee": "14050621211000141000000000U3", "nom_estab": "ORTODONCIA NAVARRO", "raz_social": null, "codigo_act": "621211", "nombre_act": "Consultorios dentales del sector privado", "per_ocu": "0 a 5 personas", "tipo_vial": "CALLE", "nom_vial": "MIGUEL ARANA ORIENTE", "tipo_v_e_1": "CALLE", "nom_v_e_1": "MATAMOROS SUR", "tipo_v_e_2": "CALLE", "nom_v_e_2": "PEDRO MORENO SUR", "tipo_v_e_3": "CALLE", "nom_v_e_3": "JOSE SANTANA ORIENTE", "numero_ext": "184", "letra_ext": null, "edificio": null, "edificio_e": null, "numero_int": "0", "letra_int": null, "tipo_asent": "COLONIA", "nomb_asent": "CENTRO", "tipoCenCom": null, "nom_CenCom": null, "num_local": null, "cod_postal": "45800", "cve_ent": "14", "entidad": "JALISCO", "cve_mun": "050", "municipio": "Jocotepec", "cve_loc": "0001", "localidad": "Jocotepec", "ageb": "0184", "manzana": "024", "telefono": null, "correoelec": null, "www": null, "tipoUniEco": "Fijo", "latitud": 20.28529479, "longitud": -103.42723936, "fecha_alta": "2014-12" }, "geometry": { "type": "Point", "coordinates": [ -103.4272394, 20.2852948 ] } },
{ "type": "Feature", "properties": { "id": 1634369, "clee": "14050621511000011000000000U1", "nom_estab": "LABORATORIO CLINICO DE LA RIBERA", "raz_social": null, "codigo_act": "621511", "nombre_act": "Laboratorios médicos y de diagnóstico del sector privado", "per_ocu": "6 a 10 personas", "tipo_vial": "CALLE", "nom_vial": "JUAREZ ORIENTE", "tipo_v_e_1": "CALLE", "nom_v_e_1": "MATAMOROS SUR", "tipo_v_e_2": "CALLE", "nom_v_e_2": "GUADALUPE VICTORIA SUR", "tipo_v_e_3": "CALLE", "nom_v_e_3": "VICENTE GUERRERO ORIENTE", "numero_ext": "126", "letra_ext": null, "edificio": null, "edificio_e": null, "numero_int": "0", "letra_int": null, "tipo_asent": "NINGUNO", "nomb_asent": "NINGUNO", "tipoCenCom": null, "nom_CenCom": null, "num_local": null, "cod_postal": "45800", "cve_ent": "14", "entidad": "JALISCO", "cve_mun": "050", "municipio": "Jocotepec", "cve_loc": "0001", "localidad": "Jocotepec", "ageb": "0184", "manzana": "033", "telefono": "3877632823", "correoelec": "LAB.CLINICO_DELA_RIBERA@HOTMAIL.COM", "www": null, "tipoUniEco": "Fijo", "latitud": 20.28368083, "longitud": -103.4291541, "fecha_alta": "2010-07" }, "geometry": { "type": "Point", "coordinates": [ -103.4291541, 20.2836808 ] } },
{ "type": "Feature", "properties": { "id": 10242786, "clee": "14050621511000091000000000U3", "nom_estab": "LABORATORIO CLINICO JOCOTEPEC", "raz_social": null, "codigo_act": "621511", "nombre_act": "Laboratorios médicos y de diagnóstico del sector privado", "per_ocu": "0 a 5 personas", "tipo_vial": "CALLE", "nom_vial": "HIDALGO", "tipo_v_e_1": "CALLE", "nom_v_e_1": "JUAREZ ORIENTE", "tipo_v_e_2": "CALLE", "nom_v_e_2": "JOSE SANTANA ORIENTE", "tipo_v_e_3": "CALLE", "nom_v_e_3": "GUADALUPE VICTORIA SUR", "numero_ext": "119", "letra_ext": "B", "edificio": null, "edificio_e": null, "numero_int": "0", "letra_int": null, "tipo_asent": "COLONIA", "nomb_asent": "CENTRO", "tipoCenCom": null, "nom_CenCom": null, "num_local": null, "cod_postal": "45800", "cve_ent": "14", "entidad": "JALISCO", "cve_mun": "050", "municipio": "Jocotepec", "cve_loc": "0001", "localidad": "Jocotepec", "ageb": "0184", "manzana": "027", "telefono": "3318568144", "correoelec": null, "www": null, "tipoUniEco": "Fijo", "latitud": 20.28438077, "longitud": -103.43054178, "fecha_alta": "2024-11" }, "geometry": { "type": "Point", "coordinates": [ -103.4305418, 20.2843808 ] } },
{ "type": "Feature", "properties": { "id": 1634844, "clee": "14050621211000041000000000U5", "nom_estab": "CONSULTORIO DENTAL", "raz_social": null, "codigo_act": "621211", "nombre_act": "Consultorios dentales del sector privado", "per_ocu": "0 a 5 personas", "tipo_vial": "CALLE", "nom_vial": "MORELOS PONIENTE", "tipo_v_e_1": "CALLE", "nom_v_e_1": "ALLENDE NORTE", "tipo_v_e_2": "CALLE", "nom_v_e_2": "GUADALUPE VICTORIA NORTE", "tipo_v_e_3": "CALLE", "nom_v_e_3": "DEGOLLADO", "numero_ext": "99", "letra_ext": null, "edificio": null, "edificio_e": null, "numero_int": "0", "letra_int": null, "tipo_asent": "COLONIA", "nomb_asent": "CENTRO", "tipoCenCom": null, "nom_CenCom": null, "num_local": null, "cod_postal": "45800", "cve_ent": "14", "entidad": "JALISCO", "cve_mun": "050", "municipio": "Jocotepec", "cve_loc": "0001", "localidad": "Jocotepec", "ageb": "0184", "manzana": "011", "telefono": "3877630773", "correoelec": null, "www": null, "tipoUniEco": "Fijo", "latitud": 20.28674005, "longitud": -103.42891767, "fecha_alta": "2010-07" }, "geometry": { "type": "Point", "coordinates": [ -103.4289177, 20.28674 ] } },
{ "type": "Feature", "properties": { "id": 1634830, "clee": "14050621211000021000000000U7", "nom_estab": "CONSULTORIO DENTAL", "raz_social": null, "codigo_act": "621211", "nombre_act": "Consultorios dentales del sector privado", "per_ocu": "0 a 5 personas", "tipo_vial": "CALLE", "nom_vial": "ALLENDE NORTE", "tipo_v_e_1": "CALLE", "nom_v_e_1": "MIGUEL ARANA ORIENTE", "tipo_v_e_2": "CALLE", "nom_v_e_2": "MORELOS PONIENTE", "tipo_v_e_3": "CALLE", "nom_v_e_3": "GUADALUPE VICTORIA SUR", "numero_ext": "11", "letra_ext": null, "edificio": null, "edificio_e": null, "numero_int": "2", "letra_int": null, "tipo_asent": "COLONIA", "nomb_asent": "CENTRO", "tipoCenCom": null, "nom_CenCom": null, "num_local": null, "cod_postal": "45800", "cve_ent": "14", "entidad": "JALISCO", "cve_mun": "050", "municipio": "Jocotepec", "cve_loc": "0001", "localidad": "Jocotepec", "ageb": "0184", "manzana": "015", "telefono": null, "correoelec": null, "www": null, "tipoUniEco": "Fijo", "latitud": 20.28635901, "longitud": -103.42946855, "fecha_alta": "2010-07" }, "geometry": { "type": "Point", "coordinates": [ -103.4294685, 20.286359 ] } },
{ "type": "Feature", "properties": { "id": 1634370, "clee": "14050621211000051000000000U4", "nom_estab": "CONSULTORIO DENTAL", "raz_social": null, "codigo_act": "621211", "nombre_act": "Consultorios dentales del sector privado", "per_ocu": "0 a 5 personas", "tipo_vial": "CALLE", "nom_vial": "MATAMOROS SUR", "tipo_v_e_1": "CALLE", "nom_v_e_1": "JUAREZ ORIENTE", "tipo_v_e_2": "CALLE", "nom_v_e_2": "VICENTE GUERRERO ORIENTE", "tipo_v_e_3": "CALLE", "nom_v_e_3": "GUADALUPE VICTORIA SUR", "numero_ext": "156", "letra_ext": null, "edificio": null, "edificio_e": null, "numero_int": "0", "letra_int": null, "tipo_asent": "NINGUNO", "nomb_asent": "NINGUNO", "tipoCenCom": null, "nom_CenCom": null, "num_local": null, "cod_postal": "45800", "cve_ent": "14", "entidad": "JALISCO", "cve_mun": "050", "municipio": "Jocotepec", "cve_loc": "0001", "localidad": "Jocotepec", "ageb": "0184", "manzana": "033", "telefono": null, "correoelec": null, "www": null, "tipoUniEco": "Fijo", "latitud": 20.28346384, "longitud": -103.42873557, "fecha_alta": "2010-07" }, "geometry": { "type": "Point", "coordinates": [ -103.4287356, 20.2834638 ] } },
{ "type": "Feature", "properties": { "id": 10780671, "clee": "14050621211000371000000000U6", "nom_estab": "CONSULTORIO DENTAL SIN NOMBRE", "raz_social": null, "codigo_act": "621211", "nombre_act": "Consultorios dentales del sector privado", "per_ocu": "0 a 5 personas", "tipo_vial": "CALLE", "nom_vial": "COLON", "tipo_v_e_1": "CALLE", "nom_v_e_1": "NINGUNO", "tipo_v_e_2": "CALLE", "nom_v_e_2": "PORFIRIO DIAZ", "tipo_v_e_3": "CALLE", "nom_v_e_3": "HIDALGO", "numero_ext": "8", "letra_ext": null, "edificio": null, "edificio_e": null, "numero_int": null, "letra_int": null, "tipo_asent": "BARRIO", "nomb_asent": "BARRIO ALTO", "tipoCenCom": null, "nom_CenCom": null, "num_local": null, "cod_postal": "45840", "cve_ent": "14", "entidad": "JALISCO", "cve_mun": "050", "municipio": "Jocotepec", "cve_loc": "0008", "localidad": "San Cristóbal Zapotitlán", "ageb": "0042", "manzana": "001", "telefono": null, "correoelec": null, "www": null, "tipoUniEco": "Fijo", "latitud": 20.22494016, "longitud": -103.37160267, "fecha_alta": "2024-11" }, "geometry": { "type": "Point", "coordinates": [ -103.3716027, 20.2249402 ] } },
{ "type": "Feature", "properties": { "id": 9977197, "clee": "14050621211000351000000000U8", "nom_estab": "CONSULTORIO DENTAL SIN NOMBRE", "raz_social": null, "codigo_act": "621211", "nombre_act": "Consultorios dentales del sector privado", "per_ocu": "0 a 5 personas", "tipo_vial": "PRIVADA", "nom_vial": "JUAREZ", "tipo_v_e_1": "OTRO(ESPECIFIQUE)", "nom_v_e_1": "NINGUNO", "tipo_v_e_2": "AVENIDA", "nom_v_e_2": "CORONA PONIENTE", "tipo_v_e_3": "CALLE", "nom_v_e_3": "VICENTE GUERRERO", "numero_ext": null, "letra_ext": "SN", "edificio": null, "edificio_e": null, "numero_int": "2", "letra_int": null, "tipo_asent": "BARRIO", "nomb_asent": "BARRIO ALTO", "tipoCenCom": null, "nom_CenCom": null, "num_local": null, "cod_postal": "45840", "cve_ent": "14", "entidad": "JALISCO", "cve_mun": "050", "municipio": "Jocotepec", "cve_loc": "0008", "localidad": "San Cristóbal Zapotitlán", "ageb": "049A", "manzana": "004", "telefono": null, "correoelec": null, "www": null, "tipoUniEco": "Fijo", "latitud": 20.22598121, "longitud": -103.36990661, "fecha_alta": "2024-11" }, "geometry": { "type": "Point", "coordinates": [ -103.3699066, 20.2259812 ] } },
{ "type": "Feature", "properties": { "id": 1634131, "clee": "14050621211000111000000000U6", "nom_estab": "CONSULTORIO DENTAL", "raz_social": null, "codigo_act": "621211", "nombre_act": "Consultorios dentales del sector privado", "per_ocu": "0 a 5 personas", "tipo_vial": "CALLE", "nom_vial": "JOSEFA ORTIZ DE DOMINGUEZ NORTE", "tipo_v_e_1": "CALLE", "nom_v_e_1": "DEGOLLADO ORIENTE", "tipo_v_e_2": "CALLE", "nom_v_e_2": "MORELOS PONIENTE", "tipo_v_e_3": "CALLE", "nom_v_e_3": "INDEPENDENCIA NORTE", "numero_ext": "29", "letra_ext": "A", "edificio": null, "edificio_e": null, "numero_int": "0", "letra_int": null, "tipo_asent": "MANZANA", "nomb_asent": "JOCOTEPEC", "tipoCenCom": null, "nom_CenCom": null, "num_local": null, "cod_postal": "45800", "cve_ent": "14", "entidad": "JALISCO", "cve_mun": "050", "municipio": "Jocotepec", "cve_loc": "0001", "localidad": "Jocotepec", "ageb": "017A", "manzana": "010", "telefono": "3877246318", "correoelec": "RAULCON88@HOTMAIL.COM", "www": "WWW.ODONTOLOGIANRGA.COM.MX", "tipoUniEco": "Fijo", "latitud": 20.28759672, "longitud": -103.43096363, "fecha_alta": "2010-07" }, "geometry": { "type": "Point", "coordinates": [ -103.4309636, 20.2875967 ] } },
{ "type": "Feature", "properties": { "id": 11292436, "clee": "14050621211000391000000000U4", "nom_estab": "CONSULTORIO DENTAL CORONA", "raz_social": null, "codigo_act": "621211", "nombre_act": "Consultorios dentales del sector privado", "per_ocu": "0 a 5 personas", "tipo_vial": "CALLE", "nom_vial": "MORELOS PONIENTE", "tipo_v_e_1": "CALLE", "nom_v_e_1": "NIÑOS HEROES SUR", "tipo_v_e_2": "OTRO(ESPECIFIQUE)", "nom_v_e_2": "NINGUNO", "tipo_v_e_3": "CALLE", "nom_v_e_3": "JUAREZ PONIENTE", "numero_ext": "255", "letra_ext": "A", "edificio": null, "edificio_e": null, "numero_int": null, "letra_int": null, "tipo_asent": "MANZANA", "nomb_asent": "JOCOTEPEC", "tipoCenCom": null, "nom_CenCom": null, "num_local": null, "cod_postal": "45800", "cve_ent": "14", "entidad": "JALISCO", "cve_mun": "050", "municipio": "Jocotepec", "cve_loc": "0001", "localidad": "Jocotepec", "ageb": "017A", "manzana": "015", "telefono": "3334659092", "correoelec": null, "www": null, "tipoUniEco": "Fijo", "latitud": 20.28677177, "longitud": -103.4351833, "fecha_alta": "2024-11" }, "geometry": { "type": "Point", "coordinates": [ -103.4351833, 20.2867718 ] } },
{ "type": "Feature", "properties": { "id": 10420239, "clee": "14050621111000141000000000U5", "nom_estab": "CONSULTORIO MEDICO", "raz_social": null, "codigo_act": "621111", "nombre_act": "Consultorios de medicina general del sector privado", "per_ocu": "0 a 5 personas", "tipo_vial": "CALLE", "nom_vial": "NICOLAS BRAVO SUR", "tipo_v_e_1": "CALLE", "nom_v_e_1": "MIGUEL ARANA ORIENTE", "tipo_v_e_2": "CALLE", "nom_v_e_2": "JOSE SANTANA ORIENTE", "tipo_v_e_3": "CALLE", "nom_v_e_3": "GONZALEZ ORTEGA SUR", "numero_ext": "65", "letra_ext": "C", "edificio": null, "edificio_e": null, "numero_int": null, "letra_int": null, "tipo_asent": "COLONIA", "nomb_asent": "CENTRO", "tipoCenCom": null, "nom_CenCom": null, "num_local": null, "cod_postal": "45800", "cve_ent": "14", "entidad": "JALISCO", "cve_mun": "050", "municipio": "Jocotepec", "cve_loc": "0001", "localidad": "Jocotepec", "ageb": "0184", "manzana": "026", "telefono": null, "correoelec": null, "www": null, "tipoUniEco": "Fijo", "latitud": 20.28455379, "longitud": -103.42561184, "fecha_alta": "2024-11" }, "geometry": { "type": "Point", "coordinates": [ -103.4256118, 20.2845538 ] } },
{ "type": "Feature", "properties": { "id": 10534374, "clee": "14050621111000151000000000U4", "nom_estab": "CONSULTORIO MEDICO", "raz_social": null, "codigo_act": "621111", "nombre_act": "Consultorios de medicina general del sector privado", "per_ocu": "0 a 5 personas", "tipo_vial": "CALLE", "nom_vial": "DEGOLLADO ORIENTE", "tipo_v_e_1": "CALLE", "nom_v_e_1": "JOSEFA ORTIZ DE DOMINGUEZ NORTE", "tipo_v_e_2": "CALLE", "nom_v_e_2": "HIDALGO NORTE", "tipo_v_e_3": "CALLE", "nom_v_e_3": "ALDAMA PONIENTE", "numero_ext": "30", "letra_ext": "A", "edificio": null, "edificio_e": null, "numero_int": null, "letra_int": null, "tipo_asent": "MANZANA", "nomb_asent": "JOCOTEPEC", "tipoCenCom": null, "nom_CenCom": null, "num_local": null, "cod_postal": "45800", "cve_ent": "14", "entidad": "JALISCO", "cve_mun": "050", "municipio": "Jocotepec", "cve_loc": "0001", "localidad": "Jocotepec", "ageb": "017A", "manzana": "005", "telefono": "3312204562", "correoelec": null, "www": null, "tipoUniEco": "Fijo", "latitud": 20.28781909, "longitud": -103.43074546, "fecha_alta": "2024-11" }, "geometry": { "type": "Point", "coordinates": [ -103.4307455, 20.2878191 ] } },
{ "type": "Feature", "properties": { "id": 1634413, "clee": "14050621398000031000000000U1", "nom_estab": "CONSULTORIO MEDICO", "raz_social": null, "codigo_act": "621398", "nombre_act": "Otros consultorios del sector privado para el cuidado de la salud", "per_ocu": "0 a 5 personas", "tipo_vial": "CALLE", "nom_vial": "MORELOS PONIENTE", "tipo_v_e_1": "CALLE", "nom_v_e_1": "NIÑOS HEROES NORTE", "tipo_v_e_2": "CALLE", "nom_v_e_2": "LOPEZ RAYON", "tipo_v_e_3": "CALLE", "nom_v_e_3": "JAVIER MINA", "numero_ext": "180", "letra_ext": null, "edificio": null, "edificio_e": null, "numero_int": "0", "letra_int": null, "tipo_asent": "MANZANA", "nomb_asent": "JOCOTEPEC", "tipoCenCom": null, "nom_CenCom": null, "num_local": null, "cod_postal": "45800", "cve_ent": "14", "entidad": "JALISCO", "cve_mun": "050", "municipio": "Jocotepec", "cve_loc": "0001", "localidad": "Jocotepec", "ageb": "017A", "manzana": "008", "telefono": "3877630090", "correoelec": null, "www": null, "tipoUniEco": "Fijo", "latitud": 20.28652544, "longitud": -103.43377689, "fecha_alta": "2014-12" }, "geometry": { "type": "Point", "coordinates": [ -103.4337769, 20.2865254 ] } },
{ "type": "Feature", "properties": { "id": 10511757, "clee": "14050621113000091000000000U8", "nom_estab": "CONSULTORIO MEDICO SIN NOMBRE", "raz_social": null, "codigo_act": "621111", "nombre_act": "Consultorios de medicina general del sector privado", "per_ocu": "0 a 5 personas", "tipo_vial": "CALLE", "nom_vial": "DEGOLLADO ORIENTE", "tipo_v_e_1": "CALLE", "nom_v_e_1": "HIDALGO NORTE", "tipo_v_e_2": "CALLE", "nom_v_e_2": "JOSEFA ORTIZ DE DOMINGUEZ NORTE", "tipo_v_e_3": "CALLE", "nom_v_e_3": "MORELOS PONIENTE", "numero_ext": "13", "letra_ext": null, "edificio": null, "edificio_e": null, "numero_int": null, "letra_int": null, "tipo_asent": "MANZANA", "nomb_asent": "JOCOTEPEC", "tipoCenCom": null, "nom_CenCom": null, "num_local": null, "cod_postal": "45800", "cve_ent": "14", "entidad": "JALISCO", "cve_mun": "050", "municipio": "Jocotepec", "cve_loc": "0001", "localidad": "Jocotepec", "ageb": "017A", "manzana": "011", "telefono": "3319021744", "correoelec": null, "www": null, "tipoUniEco": "Fijo", "latitud": 20.28775691, "longitud": -103.43078313, "fecha_alta": "2024-11" }, "geometry": { "type": "Point", "coordinates": [ -103.4307831, 20.2877569 ] } },
{ "type": "Feature", "properties": { "id": 7885479, "clee": "14050621111000111000000000U8", "nom_estab": "CONSULTORIO MEDICO SIN NONBRE", "raz_social": null, "codigo_act": "621111", "nombre_act": "Consultorios de medicina general del sector privado", "per_ocu": "0 a 5 personas", "tipo_vial": "CALLE", "nom_vial": "INDEPENDENCIA SUR", "tipo_v_e_1": "CALLE", "nom_v_e_1": "JOSE SANTANA PONIENTE", "tipo_v_e_2": "CALLE", "nom_v_e_2": "MORELOS PONIENTE", "tipo_v_e_3": "CALLE", "nom_v_e_3": "NIÑOS HEROES SUR", "numero_ext": "16", "letra_ext": null, "edificio": null, "edificio_e": null, "numero_int": "0", "letra_int": null, "tipo_asent": "MANZANA", "nomb_asent": "JOCOTEPEC", "tipoCenCom": null, "nom_CenCom": null, "num_local": null, "cod_postal": "45800", "cve_ent": "14", "entidad": "JALISCO", "cve_mun": "050", "municipio": "Jocotepec", "cve_loc": "0001", "localidad": "Jocotepec", "ageb": "017A", "manzana": "016", "telefono": null, "correoelec": null, "www": null, "tipoUniEco": "Fijo", "latitud": 20.28563092, "longitud": -103.43259156000001, "fecha_alta": "2019-11" }, "geometry": { "type": "Point", "coordinates": [ -103.4325916, 20.2856309 ] } },
{ "type": "Feature", "properties": { "id": 1634939, "clee": "14050621111000011000000000U0", "nom_estab": "CONSULTORIO MEDICO", "raz_social": null, "codigo_act": "621111", "nombre_act": "Consultorios de medicina general del sector privado", "per_ocu": "0 a 5 personas", "tipo_vial": "CALLE", "nom_vial": "MIGUEL ARANA ORIENTE", "tipo_v_e_1": "CALLE", "nom_v_e_1": "PEDRO MORENO SUR", "tipo_v_e_2": "CALLE", "nom_v_e_2": "NICOLAS BRAVO SUR", "tipo_v_e_3": "CALLE", "nom_v_e_3": "MORELOS PONIENTE", "numero_ext": "215", "letra_ext": null, "edificio": null, "edificio_e": null, "numero_int": "0", "letra_int": null, "tipo_asent": "COLONIA", "nomb_asent": "CENTRO", "tipoCenCom": null, "nom_CenCom": null, "num_local": null, "cod_postal": "45800", "cve_ent": "14", "entidad": "JALISCO", "cve_mun": "050", "municipio": "Jocotepec", "cve_loc": "0001", "localidad": "Jocotepec", "ageb": "0184", "manzana": "018", "telefono": null, "correoelec": null, "www": null, "tipoUniEco": "Fijo", "latitud": 20.285248, "longitud": -103.42643157000001, "fecha_alta": "2010-07" }, "geometry": { "type": "Point", "coordinates": [ -103.4264316, 20.285248 ] } },
{ "type": "Feature", "properties": { "id": 11747882, "clee": "14050621111000161000000000U3", "nom_estab": "CONSULTORIO MEDICO PLATA", "raz_social": null, "codigo_act": "621111", "nombre_act": "Consultorios de medicina general del sector privado", "per_ocu": "0 a 5 personas", "tipo_vial": "CALLE", "nom_vial": "Hidalgo", "tipo_v_e_1": "CALLE", "nom_v_e_1": "Allende", "tipo_v_e_2": "CALLE", "nom_v_e_2": "Pedro Moreno", "tipo_v_e_3": "CALLE", "nom_v_e_3": "Juárez", "numero_ext": "43", "letra_ext": "C", "edificio": null, "edificio_e": null, "numero_int": "0", "letra_int": null, "tipo_asent": "EJIDO", "nomb_asent": "ZAPOTITAN DE HIDALGO", "tipoCenCom": null, "nom_CenCom": null, "num_local": null, "cod_postal": "45810", "cve_ent": "14", "entidad": "JALISCO", "cve_mun": "050", "municipio": "Jocotepec", "cve_loc": "0017", "localidad": "Zapotitán de Hidalgo", "ageb": "0076", "manzana": "014", "telefono": "3313864933", "correoelec": null, "www": null, "tipoUniEco": "Fijo", "latitud": 20.32735997, "longitud": -103.47834749, "fecha_alta": "2025-04" }, "geometry": { "type": "Point", "coordinates": [ -103.4783475, 20.32736 ] } },
{ "type": "Feature", "properties": { "id": 11351842, "clee": "14050621211000411000000000U0", "nom_estab": "DENTAL DEL LAGO", "raz_social": null, "codigo_act": "621211", "nombre_act": "Consultorios dentales del sector privado", "per_ocu": "0 a 5 personas", "tipo_vial": "CALLE", "nom_vial": "MORELOS", "tipo_v_e_1": "CALLE", "nom_v_e_1": "NINGUNO", "tipo_v_e_2": "PRIVADA", "nom_v_e_2": "NINGUNO", "tipo_v_e_3": "CALLE", "nom_v_e_3": "RIVERA DEL LAGO", "numero_ext": null, "letra_ext": "SN", "edificio": null, "edificio_e": null, "numero_int": null, "letra_int": null, "tipo_asent": "MANZANA", "nomb_asent": "CHANTE", "tipoCenCom": null, "nom_CenCom": null, "num_local": null, "cod_postal": "45800", "cve_ent": "14", "entidad": "JALISCO", "cve_mun": "050", "municipio": "Jocotepec", "cve_loc": "0002", "localidad": "Chantepec (El Chante)", "ageb": "0428", "manzana": "007", "telefono": null, "correoelec": null, "www": null, "tipoUniEco": "Fijo", "latitud": 20.28939418, "longitud": -103.40145743, "fecha_alta": "2024-11" }, "geometry": { "type": "Point", "coordinates": [ -103.4014574, 20.2893942 ] } },
{ "type": "Feature", "properties": { "id": 11254789, "clee": "14050621511000121000000000U8", "nom_estab": "ANALISIS CLINICOS", "raz_social": null, "codigo_act": "621511", "nombre_act": "Laboratorios médicos y de diagnóstico del sector privado", "per_ocu": "0 a 5 personas", "tipo_vial": "CALLE", "nom_vial": "RAMON CORONA", "tipo_v_e_1": "CALLE", "nom_v_e_1": "INDEPENDENCIA SUR", "tipo_v_e_2": "CALLE", "nom_v_e_2": "HIDALGO", "tipo_v_e_3": "CALLE", "nom_v_e_3": "JOSE SANTANA PONIENTE", "numero_ext": "69", "letra_ext": null, "edificio": null, "edificio_e": null, "numero_int": null, "letra_int": null, "tipo_asent": "MANZANA", "nomb_asent": "JOCOTEPEC", "tipoCenCom": null, "nom_CenCom": null, "num_local": null, "cod_postal": "45800", "cve_ent": "14", "entidad": "JALISCO", "cve_mun": "050", "municipio": "Jocotepec", "cve_loc": "0001", "localidad": "Jocotepec", "ageb": "017A", "manzana": "017", "telefono": null, "correoelec": null, "www": null, "tipoUniEco": "Fijo", "latitud": 20.28582143, "longitud": -103.43171447, "fecha_alta": "2024-11" }, "geometry": { "type": "Point", "coordinates": [ -103.4317145, 20.2858214 ] } },
{ "type": "Feature", "properties": { "id": 10072864, "clee": "14050621211000401000000000U1", "nom_estab": "DENTAL DEL LAGO", "raz_social": null, "codigo_act": "621211", "nombre_act": "Consultorios dentales del sector privado", "per_ocu": "0 a 5 personas", "tipo_vial": "CALLE", "nom_vial": "MORELOS", "tipo_v_e_1": "CALLE", "nom_v_e_1": "NINGUNO", "tipo_v_e_2": "PRIVADA", "nom_v_e_2": "NINGUNO", "tipo_v_e_3": "CALLE", "nom_v_e_3": "RIVERA DEL LAGO", "numero_ext": null, "letra_ext": "SN", "edificio": null, "edificio_e": null, "numero_int": null, "letra_int": null, "tipo_asent": "MANZANA", "nomb_asent": "CHANTE", "tipoCenCom": null, "nom_CenCom": null, "num_local": null, "cod_postal": "45800", "cve_ent": "14", "entidad": "JALISCO", "cve_mun": "050", "municipio": "Jocotepec", "cve_loc": "0002", "localidad": "Chantepec (El Chante)", "ageb": "0428", "manzana": "007", "telefono": "3320439353", "correoelec": null, "www": null, "tipoUniEco": "Fijo", "latitud": 20.28937751, "longitud": -103.4011498, "fecha_alta": "2024-11" }, "geometry": { "type": "Point", "coordinates": [ -103.4011498, 20.2893775 ] } },
{ "type": "Feature", "properties": { "id": 10791249, "clee": "14050621391000081000000000U1", "nom_estab": "CASA LUNA", "raz_social": null, "codigo_act": "621391", "nombre_act": "Consultorios de nutriólogos y dietistas del sector privado", "per_ocu": "0 a 5 personas", "tipo_vial": "CALLE", "nom_vial": "RAMON CORONA", "tipo_v_e_1": "CALLE", "nom_v_e_1": "INDEPENDENCIA SUR", "tipo_v_e_2": "CALLE", "nom_v_e_2": "HIDALGO", "tipo_v_e_3": "CALLE", "nom_v_e_3": "JOSE SANTANA PONIENTE", "numero_ext": "79", "letra_ext": null, "edificio": null, "edificio_e": null, "numero_int": null, "letra_int": null, "tipo_asent": "MANZANA", "nomb_asent": "JOCOTEPEC", "tipoCenCom": null, "nom_CenCom": null, "num_local": null, "cod_postal": "45800", "cve_ent": "14", "entidad": "JALISCO", "cve_mun": "050", "municipio": "Jocotepec", "cve_loc": "0001", "localidad": "Jocotepec", "ageb": "017A", "manzana": "017", "telefono": "3315386138", "correoelec": null, "www": null, "tipoUniEco": "Fijo", "latitud": 20.28590452, "longitud": -103.43210819, "fecha_alta": "2024-11" }, "geometry": { "type": "Point", "coordinates": [ -103.4321082, 20.2859045 ] } },
{ "type": "Feature", "properties": { "id": 11580507, "clee": "14050621311000021000000000U5", "nom_estab": "CONSULTORIO QUIROPRACTICO IVAN", "raz_social": null, "codigo_act": "621311", "nombre_act": "Consultorios de quiropráctica del sector privado", "per_ocu": "0 a 5 personas", "tipo_vial": "CALLE", "nom_vial": "ITURBIDE", "tipo_v_e_1": "CALLE", "nom_v_e_1": "NIÑOS HEROES NORTE", "tipo_v_e_2": "CALLE", "nom_v_e_2": "LOPEZ RAYON", "tipo_v_e_3": "CALLE", "nom_v_e_3": "DEGOLLADO ORIENTE", "numero_ext": "87", "letra_ext": null, "edificio": null, "edificio_e": null, "numero_int": null, "letra_int": null, "tipo_asent": "INGENIO", "nomb_asent": "JOCOTEPEC", "tipoCenCom": null, "nom_CenCom": null, "num_local": null, "cod_postal": "45800", "cve_ent": "14", "entidad": "JALISCO", "cve_mun": "050", "municipio": "Jocotepec", "cve_loc": "0001", "localidad": "Jocotepec", "ageb": "017A", "manzana": "002", "telefono": "3313827694", "correoelec": null, "www": null, "tipoUniEco": "Fijo", "latitud": 20.28945274, "longitud": -103.43389532, "fecha_alta": "2024-11" }, "geometry": { "type": "Point", "coordinates": [ -103.4338953, 20.2894527 ] } },
{ "type": "Feature", "properties": { "id": 7866779, "clee": "14050621211000301000000000U3", "nom_estab": "CONSULTORIODENTAL DENTARIC", "raz_social": null, "codigo_act": "621211", "nombre_act": "Consultorios dentales del sector privado", "per_ocu": "0 a 5 personas", "tipo_vial": "CALLE", "nom_vial": "JUAREZ ORIENTE", "tipo_v_e_1": "CALLE", "nom_v_e_1": "MATAMOROS SUR", "tipo_v_e_2": "CALLE", "nom_v_e_2": "GUADALUPE VICTORIA SUR", "tipo_v_e_3": "CALLE", "nom_v_e_3": "VICENTE GUERRERO ORIENTE", "numero_ext": "110", "letra_ext": null, "edificio": null, "edificio_e": null, "numero_int": "0", "letra_int": null, "tipo_asent": "NINGUNO", "nomb_asent": "NINGUNO", "tipoCenCom": null, "nom_CenCom": null, "num_local": null, "cod_postal": "45800", "cve_ent": "14", "entidad": "JALISCO", "cve_mun": "050", "municipio": "Jocotepec", "cve_loc": "0001", "localidad": "Jocotepec", "ageb": "0184", "manzana": "033", "telefono": "3314186606", "correoelec": null, "www": null, "tipoUniEco": "Fijo", "latitud": 20.2836976, "longitud": -103.42926006, "fecha_alta": "2019-11" }, "geometry": { "type": "Point", "coordinates": [ -103.4292601, 20.2836976 ] } },
{ "type": "Feature", "properties": { "id": 1633891, "clee": "14050621112000011001000000U8", "nom_estab": "CENTRO DE SALUD ZAPOTITAN DE HIDALGO JALISCO", "raz_social": "SECRETARIA DE SALUD FEDERAL", "codigo_act": "621116", "nombre_act": "Clínicas de consultorios médicos del sector público", "per_ocu": "6 a 10 personas", "tipo_vial": "AVENIDA", "nom_vial": "AVENIDA DEL TRABAJO", "tipo_v_e_1": "CALLE", "nom_v_e_1": "EMILIANO ZAPATA", "tipo_v_e_2": "CALLE", "nom_v_e_2": "FRANCISCO VILLA", "tipo_v_e_3": "CALLE", "nom_v_e_3": "LA PAZ", "numero_ext": "2", "letra_ext": null, "edificio": null, "edificio_e": null, "numero_int": "0", "letra_int": null, "tipo_asent": "EJIDO", "nomb_asent": "ZAPOTITAN DE HIDALGO", "tipoCenCom": null, "nom_CenCom": null, "num_local": null, "cod_postal": "45810", "cve_ent": "14", "entidad": "JALISCO", "cve_mun": "050", "municipio": "Jocotepec", "cve_loc": "0017", "localidad": "Zapotitán de Hidalgo", "ageb": "0112", "manzana": "001", "telefono": null, "correoelec": null, "www": null, "tipoUniEco": "Fijo", "latitud": 20.32596786, "longitud": -103.48341762, "fecha_alta": "2010-07" }, "geometry": { "type": "Point", "coordinates": [ -103.4834176, 20.3259679 ] } },
{ "type": "Feature", "properties": { "id": 11446896, "clee": "14050621511000101000000000U0", "nom_estab": "CENTRO RADIOLOGICO DE LA RIVERA", "raz_social": null, "codigo_act": "621511", "nombre_act": "Laboratorios médicos y de diagnóstico del sector privado", "per_ocu": "0 a 5 personas", "tipo_vial": "CALLE", "nom_vial": "DONATO GUERRA ORIENTE", "tipo_v_e_1": "CALLE", "nom_v_e_1": "GUADALUPE VICTORIA SUR", "tipo_v_e_2": "CALLE", "nom_v_e_2": "HIDALGO SUR", "tipo_v_e_3": "CALLE", "nom_v_e_3": "VICENTE GUERRERO ORIENTE", "numero_ext": "37", "letra_ext": "A", "edificio": null, "edificio_e": null, "numero_int": null, "letra_int": null, "tipo_asent": "COLONIA", "nomb_asent": "CENTRO", "tipoCenCom": null, "nom_CenCom": null, "num_local": null, "cod_postal": "45800", "cve_ent": "14", "entidad": "JALISCO", "cve_mun": "050", "municipio": "Jocotepec", "cve_loc": "0001", "localidad": "Jocotepec", "ageb": "0184", "manzana": "036", "telefono": null, "correoelec": null, "www": null, "tipoUniEco": "Fijo", "latitud": 20.28052127, "longitud": -103.43081174, "fecha_alta": "2024-11" }, "geometry": { "type": "Point", "coordinates": [ -103.4308117, 20.2805213 ] } },
{ "type": "Feature", "properties": { "id": 7020463, "clee": "14050621211000252000000000U8", "nom_estab": "DENTAL JOCOTEPEC", "raz_social": null, "codigo_act": "621211", "nombre_act": "Consultorios dentales del sector privado", "per_ocu": "0 a 5 personas", "tipo_vial": "CALLE", "nom_vial": "INDEPENDENCIA SUR", "tipo_v_e_1": "CALLE", "nom_v_e_1": "INDEPENDENCIA SUR", "tipo_v_e_2": "CALLE", "nom_v_e_2": "VICENTE GUERRERO PONIENTE", "tipo_v_e_3": "PROLONGACION", "nom_v_e_3": "JOSEFA ORTIZ DE DOMINGUEZ", "numero_ext": "163", "letra_ext": null, "edificio": null, "edificio_e": null, "numero_int": "0", "letra_int": null, "tipo_asent": "COLONIA", "nomb_asent": "CENTRO", "tipoCenCom": null, "nom_CenCom": null, "num_local": null, "cod_postal": "45800", "cve_ent": "14", "entidad": "JALISCO", "cve_mun": "050", "municipio": "Jocotepec", "cve_loc": "0001", "localidad": "Jocotepec", "ageb": "017A", "manzana": "027", "telefono": null, "correoelec": null, "www": null, "tipoUniEco": "Fijo", "latitud": 20.28296134, "longitud": -103.43300637, "fecha_alta": "2019-11" }, "geometry": { "type": "Point", "coordinates": [ -103.4330064, 20.2829613 ] } },
{ "type": "Feature", "properties": { "id": 9713891, "clee": "14050622112000061000000000U2", "nom_estab": "CENTRO DE SALUD SAN CRISTOBAL", "raz_social": "GOBIERNO DE JOCOTEPEC", "codigo_act": "622112", "nombre_act": "Hospitales generales del sector público", "per_ocu": "0 a 5 personas", "tipo_vial": "CALLE", "nom_vial": "PORFIRIO DIAZ", "tipo_v_e_1": "CALLE", "nom_v_e_1": "LABASTIDA", "tipo_v_e_2": "AVENIDA", "nom_v_e_2": "ZARAGOZA", "tipo_v_e_3": "OTRO(ESPECIFIQUE)", "nom_v_e_3": "CULTIVO", "numero_ext": "4", "letra_ext": null, "edificio": null, "edificio_e": null, "numero_int": null, "letra_int": null, "tipo_asent": "MANZANA", "nomb_asent": "BARRIO ALTO", "tipoCenCom": null, "nom_CenCom": null, "num_local": null, "cod_postal": "45840", "cve_ent": "14", "entidad": "JALISCO", "cve_mun": "050", "municipio": "Jocotepec", "cve_loc": "0008", "localidad": "San Cristóbal Zapotitlán", "ageb": "0042", "manzana": "003", "telefono": null, "correoelec": null, "www": null, "tipoUniEco": "Fijo", "latitud": 20.22403665, "longitud": -103.37087501000001, "fecha_alta": "2024-11" }, "geometry": { "type": "Point", "coordinates": [ -103.370875, 20.2240366 ] } },
{ "type": "Feature", "properties": { "id": 10137814, "clee": "14050621211000361000000000U7", "nom_estab": "DENTAL ZAPOTITAN", "raz_social": null, "codigo_act": "621211", "nombre_act": "Consultorios dentales del sector privado", "per_ocu": "0 a 5 personas", "tipo_vial": "CALLE", "nom_vial": "HIDALGO", "tipo_v_e_1": "CALLE", "nom_v_e_1": "ALLENDE", "tipo_v_e_2": "CALLE", "nom_v_e_2": "PEDRO MORENO", "tipo_v_e_3": "CALLE", "nom_v_e_3": "JUAREZ", "numero_ext": "43", "letra_ext": "A", "edificio": null, "edificio_e": null, "numero_int": null, "letra_int": null, "tipo_asent": "EJIDO", "nomb_asent": "ZAPOTITAN DE HIDALGO", "tipoCenCom": null, "nom_CenCom": null, "num_local": null, "cod_postal": "45810", "cve_ent": "14", "entidad": "JALISCO", "cve_mun": "050", "municipio": "Jocotepec", "cve_loc": "0017", "localidad": "Zapotitán de Hidalgo", "ageb": "0076", "manzana": "014", "telefono": "3314854010", "correoelec": null, "www": null, "tipoUniEco": "Fijo", "latitud": 20.32731917, "longitud": -103.4784177, "fecha_alta": "2024-11" }, "geometry": { "type": "Point", "coordinates": [ -103.4784177, 20.3273192 ] } },
{ "type": "Feature", "properties": { "id": 1635350, "clee": "14050622112000013010000000U3", "nom_estab": "CENTRO DE SALUD SAN JUAN COSALA", "raz_social": "SECRETARIA DE SALUD JALISCO", "codigo_act": "621116", "nombre_act": "Clínicas de consultorios médicos del sector público", "per_ocu": "6 a 10 personas", "tipo_vial": "CALLE", "nom_vial": "LA PAZ", "tipo_v_e_1": "CALLE", "nom_v_e_1": "VICENTE GUERRERO", "tipo_v_e_2": "CALLE", "nom_v_e_2": "ITURBIDE", "tipo_v_e_3": "CALLE", "nom_v_e_3": "LA PAZ", "numero_ext": "90", "letra_ext": null, "edificio": null, "edificio_e": null, "numero_int": "0", "letra_int": null, "tipo_asent": "MANZANA", "nomb_asent": "SAN JUAN COSALA", "tipoCenCom": null, "nom_CenCom": null, "num_local": null, "cod_postal": "45800", "cve_ent": "14", "entidad": "JALISCO", "cve_mun": "050", "municipio": "Jocotepec", "cve_loc": "0011", "localidad": "San Juan Cosalá", "ageb": "0201", "manzana": "031", "telefono": null, "correoelec": null, "www": null, "tipoUniEco": "Fijo", "latitud": 20.28618692, "longitud": -103.34258259000001, "fecha_alta": "2010-07" }, "geometry": { "type": "Point", "coordinates": [ -103.3425826, 20.2861869 ] } },
{ "type": "Feature", "properties": { "id": 10019262, "clee": "14050621211000322000000000U9", "nom_estab": "CHACON DENTAL GROUP", "raz_social": null, "codigo_act": "621211", "nombre_act": "Consultorios dentales del sector privado", "per_ocu": "6 a 10 personas", "tipo_vial": "CALLE", "nom_vial": "PEDRO MORENO SUR", "tipo_v_e_1": "CALLE", "nom_v_e_1": "JOSE SANTANA ORIENTE", "tipo_v_e_2": "CALLE", "nom_v_e_2": "MIGUEL ARANA ORIENTE", "tipo_v_e_3": "CALLE", "nom_v_e_3": "NICOLAS BRAVO SUR", "numero_ext": "95", "letra_ext": null, "edificio": null, "edificio_e": null, "numero_int": null, "letra_int": null, "tipo_asent": "COLONIA", "nomb_asent": "CENTRO", "tipoCenCom": null, "nom_CenCom": null, "num_local": null, "cod_postal": "45800", "cve_ent": "14", "entidad": "JALISCO", "cve_mun": "050", "municipio": "Jocotepec", "cve_loc": "0001", "localidad": "Jocotepec", "ageb": "0184", "manzana": "025", "telefono": null, "correoelec": null, "www": null, "tipoUniEco": "Fijo", "latitud": 20.28416185, "longitud": -103.42687058, "fecha_alta": "2024-11" }, "geometry": { "type": "Point", "coordinates": [ -103.4268706, 20.2841619 ] } },
{ "type": "Feature", "properties": { "id": 9821032, "clee": "14050621211000331000000000U0", "nom_estab": "CLINICA DELTAL", "raz_social": null, "codigo_act": "621211", "nombre_act": "Consultorios dentales del sector privado", "per_ocu": "0 a 5 personas", "tipo_vial": "CALLE", "nom_vial": "PEDRO MORENO SUR", "tipo_v_e_1": "CALLE", "nom_v_e_1": "JOSE SANTANA ORIENTE", "tipo_v_e_2": "CALLE", "nom_v_e_2": "MIGUEL ARANA ORIENTE", "tipo_v_e_3": "CALLE", "nom_v_e_3": "NICOLAS BRAVO SUR", "numero_ext": "59", "letra_ext": "B", "edificio": null, "edificio_e": null, "numero_int": null, "letra_int": null, "tipo_asent": "COLONIA", "nomb_asent": "CENTRO", "tipoCenCom": null, "nom_CenCom": null, "num_local": null, "cod_postal": "45800", "cve_ent": "14", "entidad": "JALISCO", "cve_mun": "050", "municipio": "Jocotepec", "cve_loc": "0001", "localidad": "Jocotepec", "ageb": "0184", "manzana": "025", "telefono": null, "correoelec": null, "www": null, "tipoUniEco": "Fijo", "latitud": 20.28500563, "longitud": -103.42671014, "fecha_alta": "2024-11" }, "geometry": { "type": "Point", "coordinates": [ -103.4267101, 20.2850056 ] } },
{ "type": "Feature", "properties": { "id": 11358386, "clee": "14050621511000131000000000U7", "nom_estab": "DIGITAL DENT", "raz_social": null, "codigo_act": "621511", "nombre_act": "Laboratorios médicos y de diagnóstico del sector privado", "per_ocu": "0 a 5 personas", "tipo_vial": "CALLE", "nom_vial": "HIDALGO", "tipo_v_e_1": "CALLE", "nom_v_e_1": "RAMON CORONA", "tipo_v_e_2": "CALLE", "nom_v_e_2": "JOSE SANTANA PONIENTE", "tipo_v_e_3": "CALLE", "nom_v_e_3": "INDEPENDENCIA SUR", "numero_ext": "68", "letra_ext": null, "edificio": null, "edificio_e": null, "numero_int": null, "letra_int": null, "tipo_asent": "MANZANA", "nomb_asent": "JOCOTEPEC", "tipoCenCom": null, "nom_CenCom": null, "num_local": null, "cod_postal": "45800", "cve_ent": "14", "entidad": "JALISCO", "cve_mun": "050", "municipio": "Jocotepec", "cve_loc": "0001", "localidad": "Jocotepec", "ageb": "017A", "manzana": "017", "telefono": "3877630419", "correoelec": null, "www": null, "tipoUniEco": "Fijo", "latitud": 20.28516987, "longitud": -103.43048924, "fecha_alta": "2024-11" }, "geometry": { "type": "Point", "coordinates": [ -103.4304892, 20.2851699 ] } },
{ "type": "Feature", "properties": { "id": 1634864, "clee": "14050622311000011000000000U5", "nom_estab": "GINECOLOGIA", "raz_social": null, "codigo_act": "621113", "nombre_act": "Consultorios de medicina especializada del sector privado", "per_ocu": "0 a 5 personas", "tipo_vial": "CALLE", "nom_vial": "HIDALGO NORTE", "tipo_v_e_1": "CALLE", "nom_v_e_1": "DEGOLLADO", "tipo_v_e_2": "CALLE", "nom_v_e_2": "MORELOS PONIENTE", "tipo_v_e_3": "CALLE", "nom_v_e_3": "ALLENDE NORTE", "numero_ext": "8", "letra_ext": null, "edificio": null, "edificio_e": null, "numero_int": "0", "letra_int": null, "tipo_asent": "COLONIA", "nomb_asent": "CENTRO", "tipoCenCom": null, "nom_CenCom": null, "num_local": null, "cod_postal": "45800", "cve_ent": "14", "entidad": "JALISCO", "cve_mun": "050", "municipio": "Jocotepec", "cve_loc": "0001", "localidad": "Jocotepec", "ageb": "0184", "manzana": "010", "telefono": null, "correoelec": null, "www": null, "tipoUniEco": "Fijo", "latitud": 20.28727908, "longitud": -103.43002792000001, "fecha_alta": "2010-07" }, "geometry": { "type": "Point", "coordinates": [ -103.4300279, 20.2872791 ] } },
{ "type": "Feature", "properties": { "id": 1757394, "clee": "14050621113000061000000000U1", "nom_estab": "GINECOLOGIA NAVARRO", "raz_social": null, "codigo_act": "621113", "nombre_act": "Consultorios de medicina especializada del sector privado", "per_ocu": "0 a 5 personas", "tipo_vial": "CALLE", "nom_vial": "MIGUEL ARANA ORIENTE", "tipo_v_e_1": "CALLE", "nom_v_e_1": "MATAMOROS SUR", "tipo_v_e_2": "CALLE", "nom_v_e_2": "PEDRO MORENO SUR", "tipo_v_e_3": "CALLE", "nom_v_e_3": "JOSE SANTANA ORIENTE", "numero_ext": "184", "letra_ext": null, "edificio": null, "edificio_e": null, "numero_int": null, "letra_int": null, "tipo_asent": "COLONIA", "nomb_asent": "CENTRO", "tipoCenCom": null, "nom_CenCom": null, "num_local": null, "cod_postal": "45800", "cve_ent": "14", "entidad": "JALISCO", "cve_mun": "050", "municipio": "Jocotepec", "cve_loc": "0001", "localidad": "Jocotepec", "ageb": "0184", "manzana": "024", "telefono": null, "correoelec": null, "www": null, "tipoUniEco": "Fijo", "latitud": 20.28529479, "longitud": -103.42723936, "fecha_alta": "2014-12" }, "geometry": { "type": "Point", "coordinates": [ -103.4272394, 20.2852948 ] } },
{ "type": "Feature", "properties": { "id": 1757392, "clee": "14050621211000221000000000U3", "nom_estab": "CLINICA DENTAL DEL LAGO", "raz_social": null, "codigo_act": "621211", "nombre_act": "Consultorios dentales del sector privado", "per_ocu": "0 a 5 personas", "tipo_vial": "CALLE", "nom_vial": "NICOLAS BRAVO SUR", "tipo_v_e_1": "CALLE", "nom_v_e_1": "MORELOS PONIENTE", "tipo_v_e_2": "CALLE", "nom_v_e_2": "MIGUEL ARANA ORIENTE", "tipo_v_e_3": "CALLE", "nom_v_e_3": "PEDRO MORENO SUR", "numero_ext": "48", "letra_ext": "C", "edificio": null, "edificio_e": null, "numero_int": null, "letra_int": null, "tipo_asent": "COLONIA", "nomb_asent": "CENTRO", "tipoCenCom": null, "nom_CenCom": null, "num_local": null, "cod_postal": "45800", "cve_ent": "14", "entidad": "JALISCO", "cve_mun": "050", "municipio": "Jocotepec", "cve_loc": "0001", "localidad": "Jocotepec", "ageb": "0184", "manzana": "018", "telefono": null, "correoelec": null, "www": null, "tipoUniEco": "Fijo", "latitud": 20.28548054, "longitud": -103.42548009, "fecha_alta": "2014-12" }, "geometry": { "type": "Point", "coordinates": [ -103.4254801, 20.2854805 ] } },
{ "type": "Feature", "properties": { "id": 11283007, "clee": "14050621113000082000000000U7", "nom_estab": "ESTABLECIMIENTO SIN NOMBRE", "raz_social": null, "codigo_act": "621113", "nombre_act": "Consultorios de medicina especializada del sector privado", "per_ocu": "6 a 10 personas", "tipo_vial": "CALLE", "nom_vial": "JOSE SANTANA PONIENTE", "tipo_v_e_1": "CALLE", "nom_v_e_1": "INDEPENDENCIA SUR", "tipo_v_e_2": "CALLE", "nom_v_e_2": "NIÑOS HEROES SUR", "tipo_v_e_3": "CALLE", "nom_v_e_3": "JUAREZ PONIENTE", "numero_ext": "149", "letra_ext": null, "edificio": null, "edificio_e": null, "numero_int": null, "letra_int": null, "tipo_asent": "MANZANA", "nomb_asent": "JOCOTEPEC", "tipoCenCom": null, "nom_CenCom": null, "num_local": null, "cod_postal": "45800", "cve_ent": "14", "entidad": "JALISCO", "cve_mun": "050", "municipio": "Jocotepec", "cve_loc": "0001", "localidad": "Jocotepec", "ageb": "017A", "manzana": "019", "telefono": "3311979237", "correoelec": null, "www": null, "tipoUniEco": "Fijo", "latitud": 20.28522519, "longitud": -103.43377348, "fecha_alta": "2024-11" }, "geometry": { "type": "Point", "coordinates": [ -103.4337735, 20.2852252 ] } },
{ "type": "Feature", "properties": { "id": 9709340, "clee": "14050621113000071000000000U0", "nom_estab": "GINECOLOGA DOCTORA CLAUDIA", "raz_social": null, "codigo_act": "621113", "nombre_act": "Consultorios de medicina especializada del sector privado", "per_ocu": "0 a 5 personas", "tipo_vial": "CALLE", "nom_vial": "JUAREZ PONIENTE", "tipo_v_e_1": "CALLE", "nom_v_e_1": "INDEPENDENCIA SUR", "tipo_v_e_2": "CALLE", "nom_v_e_2": "HIDALGO", "tipo_v_e_3": "CALLE", "nom_v_e_3": "VICENTE GUERRERO PONIENTE", "numero_ext": "11", "letra_ext": null, "edificio": null, "edificio_e": null, "numero_int": null, "letra_int": null, "tipo_asent": "MANZANA", "nomb_asent": "JOCOTEPEC", "tipoCenCom": null, "nom_CenCom": null, "num_local": null, "cod_postal": "45800", "cve_ent": "14", "entidad": "JALISCO", "cve_mun": "050", "municipio": "Jocotepec", "cve_loc": "0001", "localidad": "Jocotepec", "ageb": "017A", "manzana": "024", "telefono": "3331063870", "correoelec": null, "www": null, "tipoUniEco": "Fijo", "latitud": 20.28409792, "longitud": -103.43111865, "fecha_alta": "2024-11" }, "geometry": { "type": "Point", "coordinates": [ -103.4311187, 20.2840979 ] } },
{ "type": "Feature", "properties": { "id": 7021946, "clee": "14050622112000056000000000U2", "nom_estab": "HOSPITAL COMUNITARIO DE JOCOTEPEC", "raz_social": "ORGANIZACION PUBLICA DESCENTRALIZADA SERVICIOS DE SALUD JALISCO", "codigo_act": "622112", "nombre_act": "Hospitales generales del sector público", "per_ocu": "101 a 250 personas", "tipo_vial": "CALLE", "nom_vial": "EL CHANTE", "tipo_v_e_1": "CALLE", "nom_v_e_1": "NINGUNO", "tipo_v_e_2": "PRIVADA", "nom_v_e_2": "CHULA VISTA", "tipo_v_e_3": "CALLE", "nom_v_e_3": "EL CHANTE", "numero_ext": "195", "letra_ext": null, "edificio": null, "edificio_e": null, "numero_int": "0", "letra_int": null, "tipo_asent": "MANZANA", "nomb_asent": "CHANTE", "tipoCenCom": null, "nom_CenCom": null, "num_local": null, "cod_postal": "45800", "cve_ent": "14", "entidad": "JALISCO", "cve_mun": "050", "municipio": "Jocotepec", "cve_loc": "0002", "localidad": "Chantepec (El Chante)", "ageb": "0428", "manzana": "017", "telefono": null, "correoelec": null, "www": null, "tipoUniEco": "Fijo", "latitud": 20.29218596, "longitud": -103.40183307, "fecha_alta": "2019-11" }, "geometry": { "type": "Point", "coordinates": [ -103.4018331, 20.292186 ] } },
{ "type": "Feature", "properties": { "id": 1634476, "clee": "14050621115000011000000000U1", "nom_estab": "CLINICA NUÑEZ", "raz_social": null, "codigo_act": "621115", "nombre_act": "Clínicas de consultorios médicos del sector privado", "per_ocu": "11 a 30 personas", "tipo_vial": "CALLE", "nom_vial": "VICENTE GUERRERO PONIENTE", "tipo_v_e_1": "CALLE", "nom_v_e_1": "HIDALGO SUR", "tipo_v_e_2": "PROLONGACION", "nom_v_e_2": "JOSEFA ORTIZ DE DOMINGUEZ", "tipo_v_e_3": "CALLE", "nom_v_e_3": "DONATO GUERRA PONIENTE", "numero_ext": "25", "letra_ext": null, "edificio": null, "edificio_e": null, "numero_int": "0", "letra_int": null, "tipo_asent": "COLONIA", "nomb_asent": "CENTRO", "tipoCenCom": null, "nom_CenCom": null, "num_local": null, "cod_postal": "45800", "cve_ent": "14", "entidad": "JALISCO", "cve_mun": "050", "municipio": "Jocotepec", "cve_loc": "0001", "localidad": "Jocotepec", "ageb": "017A", "manzana": "028", "telefono": null, "correoelec": null, "www": null, "tipoUniEco": "Fijo", "latitud": 20.28280173, "longitud": -103.43150863, "fecha_alta": "2014-12" }, "geometry": { "type": "Point", "coordinates": [ -103.4315086, 20.2828017 ] } },
{ "type": "Feature", "properties": { "id": 1634401, "clee": "14050622112000033000000000U1", "nom_estab": "HOSPITAL DE URGENCIAS DE JOCOTEPEC", "raz_social": "AYUNTAMIENTO DE JOCOTEPEC", "codigo_act": "622112", "nombre_act": "Hospitales generales del sector público", "per_ocu": "31 a 50 personas", "tipo_vial": "CALLE", "nom_vial": "MATAMOROS SUR", "tipo_v_e_1": "OTRO(ESPECIFIQUE)", "nom_v_e_1": "NINGUNO", "tipo_v_e_2": "CALLE", "nom_v_e_2": "DONATO GUERRA ORIENTE", "tipo_v_e_3": "CALLE", "nom_v_e_3": "HIDALGO SUR", "numero_ext": "332", "letra_ext": null, "edificio": null, "edificio_e": null, "numero_int": "0", "letra_int": null, "tipo_asent": "COLONIA", "nomb_asent": "CENTRO", "tipoCenCom": null, "nom_CenCom": null, "num_local": null, "cod_postal": "49440", "cve_ent": "14", "entidad": "JALISCO", "cve_mun": "050", "municipio": "Jocotepec", "cve_loc": "0001", "localidad": "Jocotepec", "ageb": "0184", "manzana": "038", "telefono": null, "correoelec": "CLINICAMUNICIPALJOCOTEPEC@HOTMAIL.COM", "www": null, "tipoUniEco": "Fijo", "latitud": 20.27838886, "longitud": -103.42936894, "fecha_alta": "2010-07" }, "geometry": { "type": "Point", "coordinates": [ -103.4293689, 20.2783889 ] } },
{ "type": "Feature", "properties": { "id": 1634860, "clee": "14050621211000081000000000U1", "nom_estab": "CONSULTO DENTAL", "raz_social": null, "codigo_act": "621211", "nombre_act": "Consultorios dentales del sector privado", "per_ocu": "0 a 5 personas", "tipo_vial": "CALLE", "nom_vial": "HIDALGO NORTE", "tipo_v_e_1": "CALLE", "nom_v_e_1": "DEGOLLADO", "tipo_v_e_2": "CALLE", "nom_v_e_2": "MORELOS PONIENTE", "tipo_v_e_3": "CALLE", "nom_v_e_3": "ALLENDE NORTE", "numero_ext": "8", "letra_ext": null, "edificio": null, "edificio_e": null, "numero_int": "0", "letra_int": null, "tipo_asent": "COLONIA", "nomb_asent": "CENTRO", "tipoCenCom": null, "nom_CenCom": null, "num_local": null, "cod_postal": "45800", "cve_ent": "14", "entidad": "JALISCO", "cve_mun": "050", "municipio": "Jocotepec", "cve_loc": "0001", "localidad": "Jocotepec", "ageb": "0184", "manzana": "010", "telefono": null, "correoelec": null, "www": null, "tipoUniEco": "Fijo", "latitud": 20.28727908, "longitud": -103.43002792000001, "fecha_alta": "2010-07" }, "geometry": { "type": "Point", "coordinates": [ -103.4300279, 20.2872791 ] } },
{ "type": "Feature", "properties": { "id": 1634130, "clee": "14050621113000021000000000U5", "nom_estab": "GINECOLOGIA Y OBSTETRICIA", "raz_social": null, "codigo_act": "621113", "nombre_act": "Consultorios de medicina especializada del sector privado", "per_ocu": "0 a 5 personas", "tipo_vial": "CALLE", "nom_vial": "JOSEFA ORTIZ DE DOMINGUEZ NORTE", "tipo_v_e_1": "CALLE", "nom_v_e_1": "DEGOLLADO ORIENTE", "tipo_v_e_2": "CALLE", "nom_v_e_2": "MORELOS PONIENTE", "tipo_v_e_3": "CALLE", "nom_v_e_3": "INDEPENDENCIA NORTE", "numero_ext": "29", "letra_ext": "A", "edificio": null, "edificio_e": null, "numero_int": "0", "letra_int": null, "tipo_asent": "MANZANA", "nomb_asent": "JOCOTEPEC", "tipoCenCom": null, "nom_CenCom": null, "num_local": null, "cod_postal": "45800", "cve_ent": "14", "entidad": "JALISCO", "cve_mun": "050", "municipio": "Jocotepec", "cve_loc": "0001", "localidad": "Jocotepec", "ageb": "017A", "manzana": "010", "telefono": "3877632610", "correoelec": "RAMOILIANA@HOTMAIL.COM", "www": null, "tipoUniEco": "Fijo", "latitud": 20.28759672, "longitud": -103.43096363, "fecha_alta": "2010-07" }, "geometry": { "type": "Point", "coordinates": [ -103.4309636, 20.2875967 ] } },
{ "type": "Feature", "properties": { "id": 7323706, "clee": "14050621211000311000000000U2", "nom_estab": "CLINICA DENTAL TOLENTINO", "raz_social": null, "codigo_act": "621211", "nombre_act": "Consultorios dentales del sector privado", "per_ocu": "0 a 5 personas", "tipo_vial": "CARRETERA", "nom_vial": "JOCOTEPEC CHAPALA", "tipo_v_e_1": "CALLE", "nom_v_e_1": "HIDALGO", "tipo_v_e_2": "CALLE", "nom_v_e_2": "VICENTE GUERRERO", "tipo_v_e_3": "CARRETERA", "nom_v_e_3": "JOCOTEPEC-CHAPALA", "numero_ext": "120", "letra_ext": "A", "edificio": null, "edificio_e": null, "numero_int": null, "letra_int": null, "tipo_asent": "MANZANA", "nomb_asent": "SAN JUAN COSALA", "tipoCenCom": null, "nom_CenCom": null, "num_local": null, "cod_postal": "45820", "cve_ent": "14", "entidad": "JALISCO", "cve_mun": "050", "municipio": "Jocotepec", "cve_loc": "0011", "localidad": "San Juan Cosalá", "ageb": "0201", "manzana": "001", "telefono": null, "correoelec": null, "www": null, "tipoUniEco": "Fijo", "latitud": 20.2885837, "longitud": -103.34317708, "fecha_alta": "2019-11" }, "geometry": { "type": "Point", "coordinates": [ -103.3431771, 20.2885837 ] } },
{ "type": "Feature", "properties": { "id": 9734505, "clee": "14050621311000031000000000U4", "nom_estab": "HARMONIA REHABILITACION", "raz_social": null, "codigo_act": "621311", "nombre_act": "Consultorios de quiropráctica del sector privado", "per_ocu": "0 a 5 personas", "tipo_vial": "CALLE", "nom_vial": "JOSE SANTANA ORIENTE", "tipo_v_e_1": "CALLE", "nom_v_e_1": "GONZALEZ ORTEGA SUR", "tipo_v_e_2": "CALLE", "nom_v_e_2": "LOS ARCOS", "tipo_v_e_3": "PRIVADA", "nom_v_e_3": "JUAREZ ORIENTE", "numero_ext": "434", "letra_ext": null, "edificio": null, "edificio_e": null, "numero_int": null, "letra_int": null, "tipo_asent": "COLONIA", "nomb_asent": "CENTRO", "tipoCenCom": null, "nom_CenCom": null, "num_local": null, "cod_postal": "45800", "cve_ent": "14", "entidad": "JALISCO", "cve_mun": "050", "municipio": "Jocotepec", "cve_loc": "0001", "localidad": "Jocotepec", "ageb": "0108", "manzana": "003", "telefono": "3317862094", "correoelec": null, "www": null, "tipoUniEco": "Semifijo", "latitud": 20.2832891, "longitud": -103.42231542, "fecha_alta": "2024-11" }, "geometry": { "type": "Point", "coordinates": [ -103.4223154, 20.2832891 ] } },
{ "type": "Feature", "properties": { "id": 1634958, "clee": "14050622311000021000000000U4", "nom_estab": "CLINICA MEDICA ESPECIALIZADA", "raz_social": null, "codigo_act": "621115", "nombre_act": "Clínicas de consultorios médicos del sector privado", "per_ocu": "0 a 5 personas", "tipo_vial": "CALLE", "nom_vial": "GUADALUPE VICTORIA SUR", "tipo_v_e_1": "CALLE", "nom_v_e_1": "MIGUEL ARANA ORIENTE", "tipo_v_e_2": "CALLE", "nom_v_e_2": "JOSE SANTANA ORIENTE", "tipo_v_e_3": "CALLE", "nom_v_e_3": "HIDALGO", "numero_ext": "94", "letra_ext": null, "edificio": null, "edificio_e": null, "numero_int": "0", "letra_int": null, "tipo_asent": "COLONIA", "nomb_asent": "CENTRO", "tipoCenCom": null, "nom_CenCom": null, "num_local": null, "cod_postal": "45800", "cve_ent": "14", "entidad": "JALISCO", "cve_mun": "050", "municipio": "Jocotepec", "cve_loc": "0001", "localidad": "Jocotepec", "ageb": "0184", "manzana": "022", "telefono": "3877630949", "correoelec": null, "www": null, "tipoUniEco": "Fijo", "latitud": 20.2846479, "longitud": -103.42921232999998, "fecha_alta": "2010-07" }, "geometry": { "type": "Point", "coordinates": [ -103.4292123, 20.2846479 ] } }
]
}
