{
"type": "FeatureCollection",
"name": "EDUCACION",
"crs": { "type": "name", "properties": { "name": "urn:ogc:def:crs:OGC:1.3:CRS84" } },
"features": [
{ "type": "Feature", "properties": { "id": 1635390, "clee": "14050931610000033000000000U0", "nom_estab": "CASA COMUNAL COMUNIDAD INDIGENA DE SAN JUAN COSALA", "raz_social": "COMUNIDAD INDIGENA DE SAN JUAN COSALA", "codigo_act": "611172", "nombre_act": "Escuelas del sector público que combinan diversos niveles de educación", "per_ocu": "0 a 5 personas", "tipo_vial": "CALLE", "nom_vial": "LA PAZ", "tipo_v_e_1": "CALLE", "nom_v_e_1": "NARCISO MENDOZA", "tipo_v_e_2": "CALLE", "nom_v_e_2": "INDEPENDENCIA", "tipo_v_e_3": "OTRO(ESPECIFIQUE)", "nom_v_e_3": "NINGUNO", "numero_ext": "73", "letra_ext": "A", "edificio": null, "edificio_e": null, "numero_int": null, "letra_int": null, "tipo_asent": "PUEBLO", "nomb_asent": "SAN JUAN COSALA", "tipoCenCom": null, "nom_CenCom": null, "num_local": null, "cod_postal": "45820", "cve_ent": "14", "entidad": "JALISCO", "cve_mun": "050", "municipio": "Jocotepec", "cve_loc": "0011", "localidad": "San Juan Cosalá", "ageb": "0199", "manzana": "034", "telefono": null, "correoelec": null, "www": null, "tipoUniEco": "Fijo", "latitud": 20.28491196, "longitud": -103.3385165, "fecha_alta": "2010-07" }, "geometry": { "type": "Point", "coordinates": [ -103.3385165, 20.284912 ] } },
{ "type": "Feature", "properties": { "id": 1633841, "clee": "14050611112000031000000000U8", "nom_estab": "JARDIN DE NIÑOS MARCELINO GARCIA BARRAGAN CLAVE 14DJW07355", "raz_social": "SECRETARIA DE EDUCACION PUBLICA", "codigo_act": "611112", "nombre_act": "Escuelas de educación preescolar del sector público", "per_ocu": "0 a 5 personas", "tipo_vial": "CALLE", "nom_vial": "CHURUBUSCO", "tipo_v_e_1": "CALLE", "nom_v_e_1": "CHAPULTEPEC PONIENTE", "tipo_v_e_2": "CALLE", "nom_v_e_2": "NINGUNO", "tipo_v_e_3": "CALLE", "nom_v_e_3": "NINGUNO", "numero_ext": "170", "letra_ext": null, "edificio": null, "edificio_e": null, "numero_int": "0", "letra_int": null, "tipo_asent": "BARRIO", "nomb_asent": "LA LOMA", "tipoCenCom": null, "nom_CenCom": null, "num_local": null, "cod_postal": "45800", "cve_ent": "14", "entidad": "JALISCO", "cve_mun": "050", "municipio": "Jocotepec", "cve_loc": "0001", "localidad": "Jocotepec", "ageb": "0216", "manzana": "001", "telefono": null, "correoelec": null, "www": null, "tipoUniEco": "Fijo", "latitud": 20.27755524, "longitud": -103.43597585000001, "fecha_alta": "2010-07" }, "geometry": { "type": "Point", "coordinates": [ -103.4359759, 20.2775552 ] } },
{ "type": "Feature", "properties": { "id": 1635471, "clee": "14050611152000015000000000U7", "nom_estab": "CETAC CENTO DE ESTUDIOS TECTOLOGICOS EN AGUAS CONTINENTALES", "raz_social": "SECRETARIA DE EDUCACION PUBLICA SEP", "codigo_act": "611162", "nombre_act": "Escuelas de educación media superior del sector público", "per_ocu": "51 a 100 personas", "tipo_vial": "CALLE", "nom_vial": "RIVERA DEL LAGO", "tipo_v_e_1": "CALLE", "nom_v_e_1": "MIGUEL ARANA", "tipo_v_e_2": "CALLE", "nom_v_e_2": "VICENTE GUERRERO ORIENTE", "tipo_v_e_3": "OTRO(ESPECIFIQUE)", "nom_v_e_3": "CAMINO", "numero_ext": "800", "letra_ext": null, "edificio": null, "edificio_e": null, "numero_int": "0", "letra_int": null, "tipo_asent": "BARRIO", "nomb_asent": "EL MALECON", "tipoCenCom": null, "nom_CenCom": null, "num_local": null, "cod_postal": "45800", "cve_ent": "14", "entidad": "JALISCO", "cve_mun": "050", "municipio": "Jocotepec", "cve_loc": "0001", "localidad": "Jocotepec", "ageb": "0108", "manzana": "017", "telefono": "3877632912", "correoelec": null, "www": null, "tipoUniEco": "Fijo", "latitud": 20.28210584, "longitud": -103.41790284000001, "fecha_alta": "2010-07" }, "geometry": { "type": "Point", "coordinates": [ -103.4179028, 20.2821058 ] } },
{ "type": "Feature", "properties": { "id": 1634893, "clee": "14050611121000013000000000U7", "nom_estab": "COLEGIO ANTONIA PALOMARES", "raz_social": null, "codigo_act": "611171", "nombre_act": "Escuelas del sector privado que combinan diversos niveles de educación", "per_ocu": "11 a 30 personas", "tipo_vial": "CALLE", "nom_vial": "MIGUEL ARANA ORIENTE", "tipo_v_e_1": "CALLE", "nom_v_e_1": "MATAMOROS SUR", "tipo_v_e_2": "CALLE", "nom_v_e_2": "PEDRO MORENO SUR", "tipo_v_e_3": "CALLE", "nom_v_e_3": "JOSE SANTANA ORIENTE", "numero_ext": "170", "letra_ext": null, "edificio": null, "edificio_e": null, "numero_int": "0", "letra_int": null, "tipo_asent": "COLONIA", "nomb_asent": "CENTRO", "tipoCenCom": null, "nom_CenCom": null, "num_local": null, "cod_postal": "45800", "cve_ent": "14", "entidad": "JALISCO", "cve_mun": "050", "municipio": "Jocotepec", "cve_loc": "0001", "localidad": "Jocotepec", "ageb": "0184", "manzana": "024", "telefono": "3322640364", "correoelec": null, "www": "WWW.COLEGIOANTONIA.EDU.MX", "tipoUniEco": "Fijo", "latitud": 20.28541886, "longitud": -103.4279991, "fecha_alta": "2010-07" }, "geometry": { "type": "Point", "coordinates": [ -103.4279991, 20.2854189 ] } },
{ "type": "Feature", "properties": { "id": 11174237, "clee": "14050611111000072000000000U4", "nom_estab": "COLEGIO INTERNATIONAL", "raz_social": null, "codigo_act": "611111", "nombre_act": "Escuelas de educación preescolar del sector privado", "per_ocu": "6 a 10 personas", "tipo_vial": "CALLE", "nom_vial": "JUAREZ ORIENTE", "tipo_v_e_1": "CALLE", "nom_v_e_1": "NICOLAS BRAVO SUR", "tipo_v_e_2": "CALLE", "nom_v_e_2": "GONZALEZ ORTEGA SUR", "tipo_v_e_3": "CALLE", "nom_v_e_3": "VICENTE GUERRERO ORIENTE", "numero_ext": "240", "letra_ext": null, "edificio": null, "edificio_e": null, "numero_int": null, "letra_int": null, "tipo_asent": "COLONIA", "nomb_asent": "CENTRO", "tipoCenCom": null, "nom_CenCom": null, "num_local": null, "cod_postal": "45800", "cve_ent": "14", "entidad": "JALISCO", "cve_mun": "050", "municipio": "Jocotepec", "cve_loc": "0001", "localidad": "Jocotepec", "ageb": "0108", "manzana": "007", "telefono": null, "correoelec": "MARCELA.FLORES@MUNDOPORAPRENDER.COM", "www": "WWW.MUNDOPORAPRENDER.COM", "tipoUniEco": "Fijo", "latitud": 20.28294803, "longitud": -103.42509067, "fecha_alta": "2024-11" }, "geometry": { "type": "Point", "coordinates": [ -103.4250907, 20.282948 ] } },
{ "type": "Feature", "properties": { "id": 11487213, "clee": "14050611171000021000000000U5", "nom_estab": "COLEGIO VALLES OFICINA", "raz_social": null, "codigo_act": "611171", "nombre_act": "Escuelas del sector privado que combinan diversos niveles de educación", "per_ocu": "0 a 5 personas", "tipo_vial": "CALLE", "nom_vial": "GONZALEZ ORTEGA", "tipo_v_e_1": "CALLE", "nom_v_e_1": "MORELOS PONIENTE", "tipo_v_e_2": "PRIVADA", "nom_v_e_2": "GONZALEZ ORTEGA", "tipo_v_e_3": "CALLE", "nom_v_e_3": "CRISTOBAL COLON", "numero_ext": "44", "letra_ext": "A", "edificio": null, "edificio_e": null, "numero_int": null, "letra_int": null, "tipo_asent": "COLONIA", "nomb_asent": "CENTRO", "tipoCenCom": null, "nom_CenCom": null, "num_local": null, "cod_postal": "45800", "cve_ent": "14", "entidad": "JALISCO", "cve_mun": "050", "municipio": "Jocotepec", "cve_loc": "0001", "localidad": "Jocotepec", "ageb": "0184", "manzana": "020", "telefono": null, "correoelec": null, "www": null, "tipoUniEco": "Fijo", "latitud": 20.28634298, "longitud": -103.42252153, "fecha_alta": "2024-11" }, "geometry": { "type": "Point", "coordinates": [ -103.4225215, 20.286343 ] } },
{ "type": "Feature", "properties": { "id": 11834955, "clee": "14050611161000022000000000U4", "nom_estab": "EDUCANDO VIRTUAL", "raz_social": "EDUCANDO VIRTUAL SA DE CV", "codigo_act": "611161", "nombre_act": "Escuelas de educación media superior del sector privado", "per_ocu": "6 a 10 personas", "tipo_vial": "CALLE", "nom_vial": "Xóchitl", "tipo_v_e_1": "CALLE", "nom_v_e_1": "El Chante", "tipo_v_e_2": "CALLE", "nom_v_e_2": "Cuauhtémoc", "tipo_v_e_3": "CALLE", "nom_v_e_3": "Calle del Sol", "numero_ext": "562", "letra_ext": null, "edificio": null, "edificio_e": null, "numero_int": null, "letra_int": null, "tipo_asent": "LOCALIDAD", "nomb_asent": "CHANTEPEC", "tipoCenCom": null, "nom_CenCom": null, "num_local": null, "cod_postal": "45825", "cve_ent": "14", "entidad": "JALISCO", "cve_mun": "050", "municipio": "Jocotepec", "cve_loc": "0002", "localidad": "Chantepec (El Chante)", "ageb": "0428", "manzana": "026", "telefono": null, "correoelec": null, "www": null, "tipoUniEco": "Fijo", "latitud": 20.29198881, "longitud": -103.39378833000001, "fecha_alta": "2025-04" }, "geometry": { "type": "Point", "coordinates": [ -103.3937883, 20.2919888 ] } },
{ "type": "Feature", "properties": { "id": 10626087, "clee": "14050611121000042000000000U6", "nom_estab": "COLEGIO INTERNATIONAL PRIMARIA", "raz_social": null, "codigo_act": "611121", "nombre_act": "Escuelas de educación primaria del sector privado", "per_ocu": "6 a 10 personas", "tipo_vial": "CALLE", "nom_vial": "JOSE SANTANA ORIENTE", "tipo_v_e_1": "CALLE", "nom_v_e_1": "NICOLAS BRAVO SUR", "tipo_v_e_2": "CALLE", "nom_v_e_2": "GONZALEZ ORTEGA SUR", "tipo_v_e_3": "CALLE", "nom_v_e_3": "JUAREZ ORIENTE", "numero_ext": "288", "letra_ext": null, "edificio": null, "edificio_e": null, "numero_int": null, "letra_int": null, "tipo_asent": "COLONIA", "nomb_asent": "CENTRO", "tipoCenCom": null, "nom_CenCom": null, "num_local": null, "cod_postal": "45800", "cve_ent": "14", "entidad": "JALISCO", "cve_mun": "050", "municipio": "Jocotepec", "cve_loc": "0001", "localidad": "Jocotepec", "ageb": "0184", "manzana": "031", "telefono": null, "correoelec": null, "www": null, "tipoUniEco": "Fijo", "latitud": 20.28370317, "longitud": -103.42479111, "fecha_alta": "2024-11" }, "geometry": { "type": "Point", "coordinates": [ -103.4247911, 20.2837032 ] } },
{ "type": "Feature", "properties": { "id": 1634894, "clee": "14050611121000024001000000U4", "nom_estab": "COLEGIO JOCOTEPEC", "raz_social": "COLEGIO JOCOTEPEC AC", "codigo_act": "611171", "nombre_act": "Escuelas del sector privado que combinan diversos niveles de educación", "per_ocu": "11 a 30 personas", "tipo_vial": "CALLE", "nom_vial": "MIGUEL ARANA ORIENTE", "tipo_v_e_1": "CALLE", "nom_v_e_1": "MATAMOROS SUR", "tipo_v_e_2": "CALLE", "nom_v_e_2": "PEDRO MORENO SUR", "tipo_v_e_3": "CALLE", "nom_v_e_3": "JOSE SANTANA ORIENTE", "numero_ext": "176", "letra_ext": "A", "edificio": null, "edificio_e": null, "numero_int": null, "letra_int": null, "tipo_asent": "COLONIA", "nomb_asent": "CENTRO", "tipoCenCom": null, "nom_CenCom": null, "num_local": null, "cod_postal": "45800", "cve_ent": "14", "entidad": "JALISCO", "cve_mun": "050", "municipio": "Jocotepec", "cve_loc": "0001", "localidad": "Jocotepec", "ageb": "0184", "manzana": "024", "telefono": null, "correoelec": null, "www": null, "tipoUniEco": "Fijo", "latitud": 20.28541212, "longitud": -103.42799074, "fecha_alta": "2010-07" }, "geometry": { "type": "Point", "coordinates": [ -103.4279907, 20.2854121 ] } },
{ "type": "Feature", "properties": { "id": 7866898, "clee": "14050611111000061000000000U7", "nom_estab": "PREESCOLAR YOLTZIN", "raz_social": null, "codigo_act": "611111", "nombre_act": "Escuelas de educación preescolar del sector privado", "per_ocu": "6 a 10 personas", "tipo_vial": "PRIVADA", "nom_vial": "MATAMOROS", "tipo_v_e_1": "CALLE", "nom_v_e_1": "MATAMOROS SUR", "tipo_v_e_2": "PRIVADA", "nom_v_e_2": "HERMENEGILDO GALEANA", "tipo_v_e_3": "CALLE", "nom_v_e_3": "VICENTE GUERRERO ORIENTE", "numero_ext": "31", "letra_ext": null, "edificio": null, "edificio_e": null, "numero_int": null, "letra_int": null, "tipo_asent": "COLONIA", "nomb_asent": "CENTRO", "tipoCenCom": null, "nom_CenCom": null, "num_local": null, "cod_postal": "45800", "cve_ent": "14", "entidad": "JALISCO", "cve_mun": "050", "municipio": "Jocotepec", "cve_loc": "0001", "localidad": "Jocotepec", "ageb": "0165", "manzana": "001", "telefono": null, "correoelec": null, "www": null, "tipoUniEco": "Fijo", "latitud": 20.28158354, "longitud": -103.42853589000001, "fecha_alta": "2019-11" }, "geometry": { "type": "Point", "coordinates": [ -103.4285359, 20.2815835 ] } },
{ "type": "Feature", "properties": { "id": 11628049, "clee": "14050611122000203000000000U2", "nom_estab": "ESCUELA JOSE SANTANA URBANA 527 TURNO VESPERTINO", "raz_social": "SECRETARIA DE EDUCACION JALISCO", "codigo_act": "611122", "nombre_act": "Escuelas de educación primaria del sector público", "per_ocu": "11 a 30 personas", "tipo_vial": "CALLE", "nom_vial": "JOSE SANTANA ORIENTE", "tipo_v_e_1": "CALLE", "nom_v_e_1": "MATAMOROS SUR", "tipo_v_e_2": "CALLE", "nom_v_e_2": "GUADALUPE VICTORIA SUR", "tipo_v_e_3": "CALLE", "nom_v_e_3": "MIGUEL ARANA ORIENTE", "numero_ext": "115", "letra_ext": null, "edificio": null, "edificio_e": null, "numero_int": null, "letra_int": null, "tipo_asent": "COLONIA", "nomb_asent": "CENTRO", "tipoCenCom": null, "nom_CenCom": null, "num_local": null, "cod_postal": "45800", "cve_ent": "14", "entidad": "JALISCO", "cve_mun": "050", "municipio": "Jocotepec", "cve_loc": "0001", "localidad": "Jocotepec", "ageb": "0184", "manzana": "023", "telefono": null, "correoelec": null, "www": null, "tipoUniEco": "Fijo", "latitud": 20.28442716, "longitud": -103.42893111000001, "fecha_alta": "2024-11" }, "geometry": { "type": "Point", "coordinates": [ -103.4289311, 20.2844272 ] } },
{ "type": "Feature", "properties": { "id": 1634488, "clee": "14050611162000033001000000U9", "nom_estab": "PREPARATORIA REGIONAL DE JOCOTEPEC", "raz_social": "UNIVERSIDAD DE GUADALAJARA", "codigo_act": "611162", "nombre_act": "Escuelas de educación media superior del sector público", "per_ocu": "51 a 100 personas", "tipo_vial": "CALLE", "nom_vial": "DONATO GUERRA PONIENTE", "tipo_v_e_1": "CALLE", "nom_v_e_1": "HIDALGO SUR", "tipo_v_e_2": "CALLE", "nom_v_e_2": "PRIMERO DE MAYO", "tipo_v_e_3": "OTRO(ESPECIFIQUE)", "nom_v_e_3": "NINGUNO", "numero_ext": "105", "letra_ext": null, "edificio": null, "edificio_e": null, "numero_int": null, "letra_int": null, "tipo_asent": "BARRIO", "nomb_asent": "LA LOMA", "tipoCenCom": null, "nom_CenCom": null, "num_local": null, "cod_postal": "45800", "cve_ent": "14", "entidad": "JALISCO", "cve_mun": "050", "municipio": "Jocotepec", "cve_loc": "0001", "localidad": "Jocotepec", "ageb": "017A", "manzana": "033", "telefono": "3877630381", "correoelec": null, "www": null, "tipoUniEco": "Fijo", "latitud": 20.28100225, "longitud": -103.4337379, "fecha_alta": "2010-07" }, "geometry": { "type": "Point", "coordinates": [ -103.4337379, 20.2810022 ] } },
{ "type": "Feature", "properties": { "id": 8513713, "clee": "14050611122000183000000000U6", "nom_estab": "ESCUELA PRIMARIA 15 DE MAYO", "raz_social": "RAMON RAMIREZ MARTINEZ", "codigo_act": "611122", "nombre_act": "Escuelas de educación primaria del sector público", "per_ocu": "11 a 30 personas", "tipo_vial": "CALLE", "nom_vial": "MORELOS PONIENTE", "tipo_v_e_1": "CALLE", "nom_v_e_1": "EL CHANTE", "tipo_v_e_2": "CALLE", "nom_v_e_2": "CRISTOBAL COLON", "tipo_v_e_3": "CALLE", "nom_v_e_3": "EL CHANTE", "numero_ext": null, "letra_ext": "DOMICILIO CONOCIDO", "edificio": null, "edificio_e": null, "numero_int": "0", "letra_int": null, "tipo_asent": "MANZANA", "nomb_asent": "NEXTIPAC", "tipoCenCom": null, "nom_CenCom": null, "num_local": null, "cod_postal": "45800", "cve_ent": "14", "entidad": "JALISCO", "cve_mun": "050", "municipio": "Jocotepec", "cve_loc": "0001", "localidad": "Jocotepec", "ageb": "0108", "manzana": "009", "telefono": "3312927131", "correoelec": null, "www": null, "tipoUniEco": "Fijo", "latitud": 20.28771599, "longitud": -103.41602042, "fecha_alta": "2019-11" }, "geometry": { "type": "Point", "coordinates": [ -103.4160204, 20.287716 ] } },
{ "type": "Feature", "properties": { "id": 10810975, "clee": "14050611151000022000000000U5", "nom_estab": "SALAS DE PRACTICA DEL CENTRO EDUCATIVO JALTEPEC ESCUELA DE HOTELERIA", "raz_social": "CENTROS DE FORMACION AC CENTRO EDUCATIVO JALTEPEC ESCUELA DE HOTELERIA AC", "codigo_act": "611151", "nombre_act": "Escuelas de educación media técnica terminal del sector privado", "per_ocu": "6 a 10 personas", "tipo_vial": "CALLE", "nom_vial": "JALTEPEC", "tipo_v_e_1": "OTRO(ESPECIFIQUE)", "nom_v_e_1": "NINGUNO", "tipo_v_e_2": "OTRO(ESPECIFIQUE)", "nom_v_e_2": "NINGUNO", "tipo_v_e_3": "OTRO(ESPECIFIQUE)", "nom_v_e_3": "NINGUNO", "numero_ext": "0", "letra_ext": "SN", "edificio": null, "edificio_e": null, "numero_int": null, "letra_int": null, "tipo_asent": "MANZANA", "nomb_asent": "EL CHANTE", "tipoCenCom": null, "nom_CenCom": null, "num_local": null, "cod_postal": "45800", "cve_ent": "14", "entidad": "JALISCO", "cve_mun": "050", "municipio": "Jocotepec", "cve_loc": "0002", "localidad": "Chantepec (El Chante)", "ageb": "0432", "manzana": "800", "telefono": null, "correoelec": null, "www": null, "tipoUniEco": "Fijo", "latitud": 20.2955447, "longitud": -103.38051087, "fecha_alta": "2024-11" }, "geometry": { "type": "Point", "coordinates": [ -103.3805109, 20.2955447 ] } },
{ "type": "Feature", "properties": { "id": 1757296, "clee": "14050611182000022001000000U0", "nom_estab": "ESCUELA DE EDUCACION ESPECIAL CENTRO DE ATENCION MULTIPLE GALLAUDET", "raz_social": "SECRETARIA DE EDUCACION PUBLICA SEP", "codigo_act": "611182", "nombre_act": "Escuelas del sector público de educación para necesidades especiales", "per_ocu": "11 a 30 personas", "tipo_vial": "PRIVADA", "nom_vial": "GONZALEZ ORTEGA", "tipo_v_e_1": "PRIVADA", "nom_v_e_1": "GONZALEZ ORTEGA", "tipo_v_e_2": "CALLE", "nom_v_e_2": "GONZALEZ ORTEGA", "tipo_v_e_3": "CALLE", "nom_v_e_3": "CRISTOBAL COLON", "numero_ext": "40", "letra_ext": null, "edificio": null, "edificio_e": null, "numero_int": "0", "letra_int": null, "tipo_asent": "COLONIA", "nomb_asent": "CENTRO", "tipoCenCom": null, "nom_CenCom": null, "num_local": null, "cod_postal": "45800", "cve_ent": "14", "entidad": "JALISCO", "cve_mun": "050", "municipio": "Jocotepec", "cve_loc": "0001", "localidad": "Jocotepec", "ageb": "0184", "manzana": "020", "telefono": null, "correoelec": null, "www": null, "tipoUniEco": "Fijo", "latitud": 20.28585256, "longitud": -103.42244019, "fecha_alta": "2010-07" }, "geometry": { "type": "Point", "coordinates": [ -103.4224402, 20.2858526 ] } },
{ "type": "Feature", "properties": { "id": 1634398, "clee": "14050611132000043001000000U1", "nom_estab": "SECUNDARIA FEDERAL RICARDO FLORES MAGON 42 CLAVE 14DE50062F TURNO MATUTINO Y VESPERTINO", "raz_social": "SECRETARIA DE EDUCACION PUBLICA", "codigo_act": "611132", "nombre_act": "Escuelas de educación secundaria general del sector público", "per_ocu": "51 a 100 personas", "tipo_vial": "CALLE", "nom_vial": "DONATO GUERRA ORIENTE", "tipo_v_e_1": "CALLE", "nom_v_e_1": "HIDALGO SUR", "tipo_v_e_2": "CALLE", "nom_v_e_2": "MATAMOROS SUR", "tipo_v_e_3": "OTRO(ESPECIFIQUE)", "nom_v_e_3": "NINGUNO", "numero_ext": "20", "letra_ext": null, "edificio": null, "edificio_e": null, "numero_int": "0", "letra_int": null, "tipo_asent": "COLONIA", "nomb_asent": "CENTRO", "tipoCenCom": null, "nom_CenCom": null, "num_local": null, "cod_postal": "49440", "cve_ent": "14", "entidad": "JALISCO", "cve_mun": "050", "municipio": "Jocotepec", "cve_loc": "0001", "localidad": "Jocotepec", "ageb": "0184", "manzana": "038", "telefono": null, "correoelec": "SEC.FED62F@LIVE.COM.MX", "www": null, "tipoUniEco": "Fijo", "latitud": 20.2804901, "longitud": -103.43103278, "fecha_alta": "2010-07" }, "geometry": { "type": "Point", "coordinates": [ -103.4310328, 20.2804901 ] } },
{ "type": "Feature", "properties": { "id": 1634884, "clee": "14050611122000073000000000U9", "nom_estab": "ESCUELA JOSE SANTANA URBANA 328 TURNO MATUTINO", "raz_social": "SECRETARIA DE EDUCACION PUBLICA JALISCO", "codigo_act": "611122", "nombre_act": "Escuelas de educación primaria del sector público", "per_ocu": "11 a 30 personas", "tipo_vial": "CALLE", "nom_vial": "JOSE SANTANA ORIENTE", "tipo_v_e_1": "CALLE", "nom_v_e_1": "MATAMOROS SUR", "tipo_v_e_2": "CALLE", "nom_v_e_2": "GUADALUPE VICTORIA SUR", "tipo_v_e_3": "CALLE", "nom_v_e_3": "MIGUEL ARANA ORIENTE", "numero_ext": "115", "letra_ext": null, "edificio": null, "edificio_e": null, "numero_int": "0", "letra_int": null, "tipo_asent": "COLONIA", "nomb_asent": "CENTRO", "tipoCenCom": null, "nom_CenCom": null, "num_local": null, "cod_postal": "45800", "cve_ent": "14", "entidad": "JALISCO", "cve_mun": "050", "municipio": "Jocotepec", "cve_loc": "0001", "localidad": "Jocotepec", "ageb": "0184", "manzana": "023", "telefono": "3877632428", "correoelec": null, "www": null, "tipoUniEco": "Fijo", "latitud": 20.28442716, "longitud": -103.42893111000001, "fecha_alta": "2010-07" }, "geometry": { "type": "Point", "coordinates": [ -103.4289311, 20.2844272 ] } },
{ "type": "Feature", "properties": { "id": 11764178, "clee": "14050611111000091000000000U4", "nom_estab": "JARDIN DE NIÑOS UN MUNDO POR APRENDER", "raz_social": "UN MUNDO POR APRENDER AC", "codigo_act": "611111", "nombre_act": "Escuelas de educación preescolar del sector privado", "per_ocu": "0 a 5 personas", "tipo_vial": "CALLE", "nom_vial": "José Santana Oriente", "tipo_v_e_1": "CALLE", "nom_v_e_1": "Nicolás Bravo Sur", "tipo_v_e_2": "CALLE", "nom_v_e_2": "Pedro Moreno Sur", "tipo_v_e_3": "CALLE", "nom_v_e_3": "Juárez Oriente", "numero_ext": "236", "letra_ext": null, "edificio": null, "edificio_e": null, "numero_int": null, "letra_int": null, "tipo_asent": "COLONIA", "nomb_asent": "JOCOTEPEC", "tipoCenCom": null, "nom_CenCom": null, "num_local": null, "cod_postal": "45800", "cve_ent": "14", "entidad": "JALISCO", "cve_mun": "050", "municipio": "Jocotepec", "cve_loc": "0001", "localidad": "Jocotepec", "ageb": "0184", "manzana": "030", "telefono": null, "correoelec": null, "www": null, "tipoUniEco": "Fijo", "latitud": 20.28390422, "longitud": -103.42596598, "fecha_alta": "2025-04" }, "geometry": { "type": "Point", "coordinates": [ -103.425966, 20.2839042 ] } },
{ "type": "Feature", "properties": { "id": 1634491, "clee": "14050611112000041000000000U7", "nom_estab": "JARDIN DE NIÑOS XILOTEPEC", "raz_social": "SECRETARIA DE EDUCACION PUBLICA", "codigo_act": "611112", "nombre_act": "Escuelas de educación preescolar del sector público", "per_ocu": "6 a 10 personas", "tipo_vial": "CALLE", "nom_vial": "HIDALGO SUR", "tipo_v_e_1": "OTRO(ESPECIFIQUE)", "nom_v_e_1": "HIDALGO SUR", "tipo_v_e_2": "CALLE", "nom_v_e_2": "DONATO GUERRA PONIENTE", "tipo_v_e_3": "CALLE", "nom_v_e_3": "PRIMERO DE MAYO", "numero_ext": "380", "letra_ext": null, "edificio": null, "edificio_e": null, "numero_int": null, "letra_int": null, "tipo_asent": "BARRIO", "nomb_asent": "LA LOMA", "tipoCenCom": null, "nom_CenCom": null, "num_local": null, "cod_postal": "45800", "cve_ent": "14", "entidad": "JALISCO", "cve_mun": "050", "municipio": "Jocotepec", "cve_loc": "0001", "localidad": "Jocotepec", "ageb": "017A", "manzana": "033", "telefono": "3877630310", "correoelec": null, "www": null, "tipoUniEco": "Fijo", "latitud": 20.27982042, "longitud": -103.43145663, "fecha_alta": "2010-07" }, "geometry": { "type": "Point", "coordinates": [ -103.4314566, 20.2798204 ] } },
{ "type": "Feature", "properties": { "id": 1756913, "clee": "14050624411000022011000000U8", "nom_estab": "MATEOS PLAY ROOM", "raz_social": null, "codigo_act": "611111", "nombre_act": "Escuelas de educación preescolar del sector privado", "per_ocu": "0 a 5 personas", "tipo_vial": "CALLE", "nom_vial": "ITURBIDE", "tipo_v_e_1": "CALLE", "nom_v_e_1": "LAZARO CARDENAS", "tipo_v_e_2": "CALLE", "nom_v_e_2": "ZARAGOZA NORTE", "tipo_v_e_3": "CALLE", "nom_v_e_3": "PRIMAVERA PONIENTE", "numero_ext": "160", "letra_ext": null, "edificio": null, "edificio_e": null, "numero_int": "0", "letra_int": null, "tipo_asent": "MANZANA", "nomb_asent": "JOCOTEPEC", "tipoCenCom": null, "nom_CenCom": null, "num_local": null, "cod_postal": "45800", "cve_ent": "14", "entidad": "JALISCO", "cve_mun": "050", "municipio": "Jocotepec", "cve_loc": "0001", "localidad": "Jocotepec", "ageb": "0150", "manzana": "021", "telefono": "3877630217", "correoelec": null, "www": null, "tipoUniEco": "Fijo", "latitud": 20.28993536, "longitud": -103.4365719, "fecha_alta": "2014-12" }, "geometry": { "type": "Point", "coordinates": [ -103.4365719, 20.2899354 ] } },
{ "type": "Feature", "properties": { "id": 11063425, "clee": "14050611111000081000000000U5", "nom_estab": "PREESCOLAR NACIONES UNIDAS", "raz_social": null, "codigo_act": "611111", "nombre_act": "Escuelas de educación preescolar del sector privado", "per_ocu": "0 a 5 personas", "tipo_vial": "CALLE", "nom_vial": "ITURBIDE", "tipo_v_e_1": "CALLE", "nom_v_e_1": "LOPEZ RAYON", "tipo_v_e_2": "CALLE", "nom_v_e_2": "INDEPENDENCIA NORTE", "tipo_v_e_3": "CALLE", "nom_v_e_3": "PRIVADA INDEPENDENCIA", "numero_ext": "70", "letra_ext": "A", "edificio": null, "edificio_e": null, "numero_int": null, "letra_int": null, "tipo_asent": "BARRIO", "nomb_asent": "CAMPO JALISCO", "tipoCenCom": null, "nom_CenCom": null, "num_local": null, "cod_postal": "45800", "cve_ent": "14", "entidad": "JALISCO", "cve_mun": "050", "municipio": "Jocotepec", "cve_loc": "0001", "localidad": "Jocotepec", "ageb": "0095", "manzana": "023", "telefono": "3324775762", "correoelec": null, "www": null, "tipoUniEco": "Fijo", "latitud": 20.28940332, "longitud": -103.43268346000001, "fecha_alta": "2024-11" }, "geometry": { "type": "Point", "coordinates": [ -103.4326835, 20.2894033 ] } },
{ "type": "Feature", "properties": { "id": 1757567, "clee": "14050611112000152000000000U2", "nom_estab": "JARDIN DE NIÑOS NIÑO ARTILLERO TURNO MATUTINO CCT 14DJN0787Y", "raz_social": "SECRETARIA DE EDUCACION PUBLICA", "codigo_act": "611112", "nombre_act": "Escuelas de educación preescolar del sector público", "per_ocu": "6 a 10 personas", "tipo_vial": "CALLE", "nom_vial": "XOCHITL", "tipo_v_e_1": "CALLE", "nom_v_e_1": "CUAUHTEMOC", "tipo_v_e_2": "PRIVADA", "nom_v_e_2": "NINGUNO", "tipo_v_e_3": "CALLE", "nom_v_e_3": "XOCHITL", "numero_ext": "16", "letra_ext": null, "edificio": null, "edificio_e": null, "numero_int": null, "letra_int": null, "tipo_asent": "MANZANA", "nomb_asent": "EL CHANTE", "tipoCenCom": null, "nom_CenCom": null, "num_local": null, "cod_postal": "45800", "cve_ent": "14", "entidad": "JALISCO", "cve_mun": "050", "municipio": "Jocotepec", "cve_loc": "0002", "localidad": "Chantepec (El Chante)", "ageb": "0428", "manzana": "026", "telefono": null, "correoelec": null, "www": null, "tipoUniEco": "Fijo", "latitud": 20.28996563, "longitud": -103.39365966, "fecha_alta": "2014-12" }, "geometry": { "type": "Point", "coordinates": [ -103.3936597, 20.2899656 ] } },
{ "type": "Feature", "properties": { "id": 1633831, "clee": "14050611112000072000000000U2", "nom_estab": "JARDIN DE NIÑOS NIÑOS HEROES", "raz_social": "SECRETARIA DE EDUCACION PUBLICA", "codigo_act": "611112", "nombre_act": "Escuelas de educación preescolar del sector público", "per_ocu": "6 a 10 personas", "tipo_vial": "CALLE", "nom_vial": "ZARAGOZA SUR", "tipo_v_e_1": "CALLE", "nom_v_e_1": "24 DE FEBRERO", "tipo_v_e_2": "CALLE", "nom_v_e_2": "VICENTE GUERRERO PONIENTE", "tipo_v_e_3": "OTRO(ESPECIFIQUE)", "nom_v_e_3": "NINGUNO", "numero_ext": "266", "letra_ext": null, "edificio": null, "edificio_e": null, "numero_int": null, "letra_int": null, "tipo_asent": "MANZANA", "nomb_asent": "JOCOTEPEC", "tipoCenCom": null, "nom_CenCom": null, "num_local": null, "cod_postal": "45800", "cve_ent": "14", "entidad": "JALISCO", "cve_mun": "050", "municipio": "Jocotepec", "cve_loc": "0001", "localidad": "Jocotepec", "ageb": "0150", "manzana": "009", "telefono": "3338151499", "correoelec": null, "www": null, "tipoUniEco": "Fijo", "latitud": 20.28388562, "longitud": -103.43680731000002, "fecha_alta": "2010-07" }, "geometry": { "type": "Point", "coordinates": [ -103.4368073, 20.2838856 ] } },
{ "type": "Feature", "properties": { "id": 1633852, "clee": "14050611122000032000000000U5", "nom_estab": "ESCUELA PRIMARIA FRANCISCO I MADERO TURNO MATUTINO CLAVE 14DPR2536X", "raz_social": "SECRETARIA DE EDUCACION JALISC0", "codigo_act": "611122", "nombre_act": "Escuelas de educación primaria del sector público", "per_ocu": "6 a 10 personas", "tipo_vial": "CALLE", "nom_vial": "INDEPENDENCIA NORTE", "tipo_v_e_1": "CALLE", "nom_v_e_1": "INDEPENDENCIA", "tipo_v_e_2": "CALLE", "nom_v_e_2": "OTOÑO", "tipo_v_e_3": "CALLE", "nom_v_e_3": "LOPEZ RAYON", "numero_ext": "235", "letra_ext": null, "edificio": null, "edificio_e": null, "numero_int": "0", "letra_int": null, "tipo_asent": "BARRIO", "nomb_asent": "CAMPO JALISCO", "tipoCenCom": null, "nom_CenCom": null, "num_local": null, "cod_postal": "45800", "cve_ent": "14", "entidad": "JALISCO", "cve_mun": "050", "municipio": "Jocotepec", "cve_loc": "0001", "localidad": "Jocotepec", "ageb": "0095", "manzana": "059", "telefono": null, "correoelec": null, "www": null, "tipoUniEco": "Fijo", "latitud": 20.29087144, "longitud": -103.43181562, "fecha_alta": "2010-07" }, "geometry": { "type": "Point", "coordinates": [ -103.4318156, 20.2908714 ] } },
{ "type": "Feature", "properties": { "id": 1635339, "clee": "14050611122000093000000000U7", "nom_estab": "ESCUELA PRIMARIA GABRIELA MISTRAL 1107 TURNO VESPERTINO", "raz_social": "SECRETARIA DE EDUCACION JALISCO CLAVE 14EPR1526I", "codigo_act": "611122", "nombre_act": "Escuelas de educación primaria del sector público", "per_ocu": "11 a 30 personas", "tipo_vial": "CALLE", "nom_vial": "CALLE DEL CARDENAL", "tipo_v_e_1": "CALLE", "nom_v_e_1": "PORFIRIO DIAZ", "tipo_v_e_2": "CARRETERA", "nom_v_e_2": "JOCOTEPEC-CHAPALA", "tipo_v_e_3": "CALLE", "nom_v_e_3": "JUAREZ", "numero_ext": "25", "letra_ext": null, "edificio": null, "edificio_e": null, "numero_int": "0", "letra_int": null, "tipo_asent": "MANZANA", "nomb_asent": "SAN JUAN COSALA", "tipoCenCom": null, "nom_CenCom": null, "num_local": null, "cod_postal": "45820", "cve_ent": "14", "entidad": "JALISCO", "cve_mun": "050", "municipio": "Jocotepec", "cve_loc": "0011", "localidad": "San Juan Cosalá", "ageb": "0201", "manzana": "014", "telefono": null, "correoelec": "14EPR1526I@ESCUELAS.SEJ.GOB.MX", "www": null, "tipoUniEco": "Fijo", "latitud": 20.28735181, "longitud": -103.34043418, "fecha_alta": "2010-07" }, "geometry": { "type": "Point", "coordinates": [ -103.3404342, 20.2873518 ] } },
{ "type": "Feature", "properties": { "id": 1633836, "clee": "14050611122000052000000000U3", "nom_estab": "ESCUELA PRIMARIA FEDERALIZADA FRANCISCO VILLA 14DPR2168T", "raz_social": "SECRETARIA DE EDUCACION PUBLICA", "codigo_act": "611122", "nombre_act": "Escuelas de educación primaria del sector público", "per_ocu": "6 a 10 personas", "tipo_vial": "CALLE", "nom_vial": "CHURUBUSCO", "tipo_v_e_1": "CALLE", "nom_v_e_1": "CHURUBUSCO", "tipo_v_e_2": "CALLE", "nom_v_e_2": "CHAPULTEPEC PONIENTE", "tipo_v_e_3": "CALLE", "nom_v_e_3": "PRIMERO DE MAYO", "numero_ext": "146", "letra_ext": null, "edificio": null, "edificio_e": null, "numero_int": null, "letra_int": null, "tipo_asent": "BARRIO", "nomb_asent": "LA LOMA", "tipoCenCom": null, "nom_CenCom": null, "num_local": null, "cod_postal": "45800", "cve_ent": "14", "entidad": "JALISCO", "cve_mun": "050", "municipio": "Jocotepec", "cve_loc": "0001", "localidad": "Jocotepec", "ageb": "017A", "manzana": "035", "telefono": null, "correoelec": null, "www": null, "tipoUniEco": "Fijo", "latitud": 20.27806607, "longitud": -103.43573406, "fecha_alta": "2010-07" }, "geometry": { "type": "Point", "coordinates": [ -103.4357341, 20.2780661 ] } },
{ "type": "Feature", "properties": { "id": 1635363, "clee": "14050611122000133000000000U1", "nom_estab": "ESCUELA PRIMARIA J ENCARNACION ROSAS TURNO MATUTINO", "raz_social": "SECRETARIA DE EDUCACION PUBLICA CLAVE 14EPR0571O", "codigo_act": "611122", "nombre_act": "Escuelas de educación primaria del sector público", "per_ocu": "11 a 30 personas", "tipo_vial": "CALLE", "nom_vial": "LA PAZ", "tipo_v_e_1": "CALLE", "nom_v_e_1": "JUAREZ", "tipo_v_e_2": "CALLE", "nom_v_e_2": "CALLE DEL CARDENAL", "tipo_v_e_3": "CALLE", "nom_v_e_3": "MORELOS", "numero_ext": "9", "letra_ext": null, "edificio": null, "edificio_e": null, "numero_int": "0", "letra_int": null, "tipo_asent": "MANZANA", "nomb_asent": "MARCELA VAZQUEZ", "tipoCenCom": null, "nom_CenCom": null, "num_local": null, "cod_postal": "45800", "cve_ent": "14", "entidad": "JALISCO", "cve_mun": "050", "municipio": "Jocotepec", "cve_loc": "0011", "localidad": "San Juan Cosalá", "ageb": "0201", "manzana": "033", "telefono": null, "correoelec": "14EPR0571O@SEJ.GOB.MX", "www": null, "tipoUniEco": "Fijo", "latitud": 20.28515471, "longitud": -103.34035586999998, "fecha_alta": "2014-12" }, "geometry": { "type": "Point", "coordinates": [ -103.3403559, 20.2851547 ] } },
{ "type": "Feature", "properties": { "id": 1757587, "clee": "14050611122000172000000000U9", "nom_estab": "ESCUELA PRIMARIA J ENCARNACION ROSAS TURNO MATUTINO", "raz_social": "SECRETARIA DE EDUCACION PUBLUICA 14EPR0563F", "codigo_act": "611122", "nombre_act": "Escuelas de educación primaria del sector público", "per_ocu": "6 a 10 personas", "tipo_vial": "CALLE", "nom_vial": "XOCHITL", "tipo_v_e_1": "CALLE", "nom_v_e_1": "EL CHANTE", "tipo_v_e_2": "CALLE", "nom_v_e_2": "MORELOS", "tipo_v_e_3": "CALLE", "nom_v_e_3": "XOCHITL", "numero_ext": "55", "letra_ext": null, "edificio": null, "edificio_e": null, "numero_int": "0", "letra_int": null, "tipo_asent": "MANZANA", "nomb_asent": "CHANTE", "tipoCenCom": null, "nom_CenCom": null, "num_local": null, "cod_postal": "45800", "cve_ent": "14", "entidad": "JALISCO", "cve_mun": "050", "municipio": "Jocotepec", "cve_loc": "0002", "localidad": "Chantepec (El Chante)", "ageb": "0428", "manzana": "019", "telefono": "3311863809", "correoelec": null, "www": null, "tipoUniEco": "Fijo", "latitud": 20.29122481, "longitud": -103.39383112, "fecha_alta": "2014-12" }, "geometry": { "type": "Point", "coordinates": [ -103.3938311, 20.2912248 ] } },
{ "type": "Feature", "properties": { "id": 1635335, "clee": "14050611171000013000000000U2", "nom_estab": "ESCUELA PRIMARIA GUSTAVO DIAZ ORDAZ TURNO MATUTINO", "raz_social": "GUSTAVO DIAZ ORDAZ CLAVE 14PPROJ67H", "codigo_act": "611122", "nombre_act": "Escuelas de educación primaria del sector público", "per_ocu": "11 a 30 personas", "tipo_vial": "CARRETERA", "nom_vial": "JOCOTEPEC CHAPALA", "tipo_v_e_1": "CALLE", "nom_v_e_1": "JUAREZ", "tipo_v_e_2": "CALLE", "nom_v_e_2": "CALLE DEL CARDENAL", "tipo_v_e_3": "CARRETERA", "nom_v_e_3": "JOCOTEPEC-CHAPALA", "numero_ext": "28", "letra_ext": null, "edificio": null, "edificio_e": null, "numero_int": null, "letra_int": null, "tipo_asent": "MANZANA", "nomb_asent": "SAN JUAN COSALA", "tipoCenCom": null, "nom_CenCom": null, "num_local": null, "cod_postal": "45820", "cve_ent": "14", "entidad": "JALISCO", "cve_mun": "050", "municipio": "Jocotepec", "cve_loc": "0011", "localidad": "San Juan Cosalá", "ageb": "0201", "manzana": "014", "telefono": null, "correoelec": "EUGENIAGARCIA44@HOTMAIL.COM", "www": null, "tipoUniEco": "Fijo", "latitud": 20.28790106, "longitud": -103.33980515, "fecha_alta": "2010-07" }, "geometry": { "type": "Point", "coordinates": [ -103.3398052, 20.2879011 ] } },
{ "type": "Feature", "properties": { "id": 1635338, "clee": "14050611122000143000000000U0", "nom_estab": "ESCUELA PRIMARIA IGNACIO ZARAGOZA TURNO MATUTINO", "raz_social": "SECRETARIA DE EDUCACION JALISCO CLAVE 14EPR0565D", "codigo_act": "611122", "nombre_act": "Escuelas de educación primaria del sector público", "per_ocu": "11 a 30 personas", "tipo_vial": "CALLE", "nom_vial": "CALLE DEL CARDENAL", "tipo_v_e_1": "CALLE", "nom_v_e_1": "PORFIRIO DIAZ", "tipo_v_e_2": "CARRETERA", "nom_v_e_2": "JOCOTEPEC-CHAPALA", "tipo_v_e_3": "CALLE", "nom_v_e_3": "JUAREZ", "numero_ext": "25", "letra_ext": null, "edificio": null, "edificio_e": null, "numero_int": "0", "letra_int": null, "tipo_asent": "MANZANA", "nomb_asent": "SAN JUAN COSALA", "tipoCenCom": null, "nom_CenCom": null, "num_local": null, "cod_postal": "45820", "cve_ent": "14", "entidad": "JALISCO", "cve_mun": "050", "municipio": "Jocotepec", "cve_loc": "0011", "localidad": "San Juan Cosalá", "ageb": "0201", "manzana": "014", "telefono": null, "correoelec": "U699SANJUAN@GMAIL.COM", "www": null, "tipoUniEco": "Fijo", "latitud": 20.28735181, "longitud": -103.34043418, "fecha_alta": "2010-07" }, "geometry": { "type": "Point", "coordinates": [ -103.3404342, 20.2873518 ] } },
{ "type": "Feature", "properties": { "id": 1633940, "clee": "14050611122000042001000000U4", "nom_estab": "ESCUELA PRIMARIA MIGUEL HIDALGO Y COSTILLA CLAVE14DPR0531O", "raz_social": "SECRETARIA DE EDUCACION PUBLICA FEDERAL 14DPR0531O", "codigo_act": "611122", "nombre_act": "Escuelas de educación primaria del sector público", "per_ocu": "11 a 30 personas", "tipo_vial": "AVENIDA", "nom_vial": "AVENIDA DEL TRABAJO", "tipo_v_e_1": "CALLE", "nom_v_e_1": "ZARAGOZA", "tipo_v_e_2": "CALLE", "nom_v_e_2": "16 DE SEPTIEMBRE", "tipo_v_e_3": "CALLE", "nom_v_e_3": "VICENTE GUERRERO", "numero_ext": "37", "letra_ext": null, "edificio": null, "edificio_e": null, "numero_int": "0", "letra_int": null, "tipo_asent": "EJIDO", "nomb_asent": "ZAPOTITAN DE HIDALGO", "tipoCenCom": null, "nom_CenCom": null, "num_local": null, "cod_postal": "45810", "cve_ent": "14", "entidad": "JALISCO", "cve_mun": "050", "municipio": "Jocotepec", "cve_loc": "0017", "localidad": "Zapotitán de Hidalgo", "ageb": "0076", "manzana": "024", "telefono": null, "correoelec": null, "www": null, "tipoUniEco": "Fijo", "latitud": 20.32758093, "longitud": -103.48086923, "fecha_alta": "2010-07" }, "geometry": { "type": "Point", "coordinates": [ -103.4808692, 20.3275809 ] } },
{ "type": "Feature", "properties": { "id": 1633853, "clee": "14050611122000022000000000U6", "nom_estab": "ESCUELA PRIMARIA JOSEFA ORTIZ DE DOMINGUEZ TURNO VESPERTINO CLAVE 14DPR3516Q", "raz_social": "SECRETARIA DE EDUCACION PUBLICA", "codigo_act": "611122", "nombre_act": "Escuelas de educación primaria del sector público", "per_ocu": "6 a 10 personas", "tipo_vial": "CALLE", "nom_vial": "INDEPENDENCIA NORTE", "tipo_v_e_1": "CALLE", "nom_v_e_1": "INDEPENDENCIA", "tipo_v_e_2": "CALLE", "nom_v_e_2": "OTOÑO", "tipo_v_e_3": "CALLE", "nom_v_e_3": "LOPEZ RAYON", "numero_ext": "235", "letra_ext": null, "edificio": null, "edificio_e": null, "numero_int": "0", "letra_int": null, "tipo_asent": "BARRIO", "nomb_asent": "CAMPO JALISCO", "tipoCenCom": null, "nom_CenCom": null, "num_local": null, "cod_postal": "45800", "cve_ent": "14", "entidad": "JALISCO", "cve_mun": "050", "municipio": "Jocotepec", "cve_loc": "0001", "localidad": "Jocotepec", "ageb": "0095", "manzana": "059", "telefono": null, "correoelec": null, "www": null, "tipoUniEco": "Fijo", "latitud": 20.29087144, "longitud": -103.43181562, "fecha_alta": "2010-07" }, "geometry": { "type": "Point", "coordinates": [ -103.4318156, 20.2908714 ] } },
{ "type": "Feature", "properties": { "id": 1757588, "clee": "14050611122000152000000000U1", "nom_estab": "ESCUELA PRIMARIA MARIANO OTERO TURNO VESPERTINO", "raz_social": "SECRETARIA DE EDUCACION PUBLICA ESTATAL JALISCO 14EPR1479O", "codigo_act": "611122", "nombre_act": "Escuelas de educación primaria del sector público", "per_ocu": "6 a 10 personas", "tipo_vial": "CALLE", "nom_vial": "XOCHITL", "tipo_v_e_1": "CALLE", "nom_v_e_1": "EL CHANTE", "tipo_v_e_2": "CALLE", "nom_v_e_2": "MORELOS", "tipo_v_e_3": "CALLE", "nom_v_e_3": "XOCHITL", "numero_ext": "55", "letra_ext": null, "edificio": null, "edificio_e": null, "numero_int": "0", "letra_int": null, "tipo_asent": "MANZANA", "nomb_asent": "CHANTE", "tipoCenCom": null, "nom_CenCom": null, "num_local": null, "cod_postal": "45800", "cve_ent": "14", "entidad": "JALISCO", "cve_mun": "050", "municipio": "Jocotepec", "cve_loc": "0002", "localidad": "Chantepec (El Chante)", "ageb": "0428", "manzana": "019", "telefono": "3334081032", "correoelec": null, "www": null, "tipoUniEco": "Fijo", "latitud": 20.29122481, "longitud": -103.39383112, "fecha_alta": "2014-12" }, "geometry": { "type": "Point", "coordinates": [ -103.3938311, 20.2912248 ] } },
{ "type": "Feature", "properties": { "id": 1635460, "clee": "14050611132000023001000000U3", "nom_estab": "ESCUELA SECUNDARIA FORANEA 58 MIGUEL HIDALGO I COSTILLA TURNO VESPERTINO", "raz_social": "SECRETARIA DE EDUCACION JALISCO CLAVE 14EES0043Q", "codigo_act": "611132", "nombre_act": "Escuelas de educación secundaria general del sector público", "per_ocu": "31 a 50 personas", "tipo_vial": "CALLE", "nom_vial": "VICENTE GUERRERO", "tipo_v_e_1": "CALLE", "nom_v_e_1": "EL DOMINGUILLO", "tipo_v_e_2": "CALLE", "nom_v_e_2": "HIDALGO", "tipo_v_e_3": "CALLE", "nom_v_e_3": "VICENTE GUERRERO", "numero_ext": "53", "letra_ext": null, "edificio": null, "edificio_e": null, "numero_int": "0", "letra_int": null, "tipo_asent": "MANZANA", "nomb_asent": "SAN JUAN", "tipoCenCom": null, "nom_CenCom": null, "num_local": null, "cod_postal": "45800", "cve_ent": "14", "entidad": "JALISCO", "cve_mun": "050", "municipio": "Jocotepec", "cve_loc": "0011", "localidad": "San Juan Cosalá", "ageb": "0131", "manzana": "013", "telefono": null, "correoelec": "FORANEA58@HOTMAIL.COM", "www": null, "tipoUniEco": "Fijo", "latitud": 20.28994711, "longitud": -103.34231688, "fecha_alta": "2010-07" }, "geometry": { "type": "Point", "coordinates": [ -103.3423169, 20.2899471 ] } },
{ "type": "Feature", "properties": { "id": 10981326, "clee": "14050611132000053000000000U0", "nom_estab": "ESCUELA SECUNDARIA FORANEA 66 ENRIQUE DIAZ DE LEON", "raz_social": "SECRETARIA DE EDUCACION", "codigo_act": "611132", "nombre_act": "Escuelas de educación secundaria general del sector público", "per_ocu": "11 a 30 personas", "tipo_vial": "CALLE", "nom_vial": "ALLENDE", "tipo_v_e_1": "CALLE", "nom_v_e_1": "SANTA HILDA", "tipo_v_e_2": "CALLE", "nom_v_e_2": "SANTA BEATRIZ", "tipo_v_e_3": "CALLE", "nom_v_e_3": "SAN PAULO", "numero_ext": "130", "letra_ext": null, "edificio": null, "edificio_e": null, "numero_int": null, "letra_int": null, "tipo_asent": "BARRIO", "nomb_asent": "BARRIO ALTO", "tipoCenCom": null, "nom_CenCom": null, "num_local": null, "cod_postal": "45840", "cve_ent": "14", "entidad": "JALISCO", "cve_mun": "050", "municipio": "Jocotepec", "cve_loc": "0008", "localidad": "San Cristóbal Zapotitlán", "ageb": "049A", "manzana": "019", "telefono": "3335030098", "correoelec": null, "www": null, "tipoUniEco": "Fijo", "latitud": 20.22076777, "longitud": -103.3688501, "fecha_alta": "2024-11" }, "geometry": { "type": "Point", "coordinates": [ -103.3688501, 20.2207678 ] } },
{ "type": "Feature", "properties": { "id": 1633941, "clee": "14050611122000062001000000U2", "nom_estab": "ESCUELA PRIMARIA SOR JUANA INEZ DE LA CRUZ 14DPR0028F", "raz_social": "SECRETARIA DE EDUCACION PUBLICA FEDERAL 14DPR0028F", "codigo_act": "611122", "nombre_act": "Escuelas de educación primaria del sector público", "per_ocu": "6 a 10 personas", "tipo_vial": "AVENIDA", "nom_vial": "AVENIDA DEL TRABAJO", "tipo_v_e_1": "CALLE", "nom_v_e_1": "ZARAGOZA", "tipo_v_e_2": "CALLE", "nom_v_e_2": "16 DE SEPTIEMBRE", "tipo_v_e_3": "CALLE", "nom_v_e_3": "VICENTE GUERRERO", "numero_ext": "37", "letra_ext": null, "edificio": null, "edificio_e": null, "numero_int": "0", "letra_int": null, "tipo_asent": "EJIDO", "nomb_asent": "ZAPOTITAN DE HIDALGO", "tipoCenCom": null, "nom_CenCom": null, "num_local": null, "cod_postal": "45810", "cve_ent": "14", "entidad": "JALISCO", "cve_mun": "050", "municipio": "Jocotepec", "cve_loc": "0017", "localidad": "Zapotitán de Hidalgo", "ageb": "0076", "manzana": "024", "telefono": "3331745043", "correoelec": null, "www": null, "tipoUniEco": "Fijo", "latitud": 20.32758093, "longitud": -103.48086923, "fecha_alta": "2010-07" }, "geometry": { "type": "Point", "coordinates": [ -103.4808692, 20.3275809 ] } },
{ "type": "Feature", "properties": { "id": 10382452, "clee": "14050611122000193000000000U5", "nom_estab": "ESCUELA PRIMARIA URBANA 558 NIÑOS HEROES", "raz_social": "SECRETARIA DE EDUCACION", "codigo_act": "611122", "nombre_act": "Escuelas de educación primaria del sector público", "per_ocu": "11 a 30 personas", "tipo_vial": "AVENIDA", "nom_vial": "CORONA PONIENTE", "tipo_v_e_1": "CALLE", "nom_v_e_1": "HIDALGO", "tipo_v_e_2": "CALLE", "nom_v_e_2": "LABASTIDA", "tipo_v_e_3": "CALLE", "nom_v_e_3": "JUAREZ", "numero_ext": "2", "letra_ext": null, "edificio": null, "edificio_e": null, "numero_int": null, "letra_int": null, "tipo_asent": "BARRIO", "nomb_asent": "BARRIO BAJO", "tipoCenCom": null, "nom_CenCom": null, "num_local": null, "cod_postal": "45840", "cve_ent": "14", "entidad": "JALISCO", "cve_mun": "050", "municipio": "Jocotepec", "cve_loc": "0008", "localidad": "San Cristóbal Zapotitlán", "ageb": "0042", "manzana": "005", "telefono": null, "correoelec": null, "www": null, "tipoUniEco": "Fijo", "latitud": 20.22589651, "longitud": -103.37219219000001, "fecha_alta": "2024-11" }, "geometry": { "type": "Point", "coordinates": [ -103.3721922, 20.2258965 ] } },
{ "type": "Feature", "properties": { "id": 1757211, "clee": "14050611172000011001000000U4", "nom_estab": "INSTITUTO ESTATAL PARA LA EDUCACION DE JOVENES Y ADULTOS", "raz_social": "INEEJAD JALISCO", "codigo_act": "611172", "nombre_act": "Escuelas del sector público que combinan diversos niveles de educación", "per_ocu": "6 a 10 personas", "tipo_vial": "CALLE", "nom_vial": "HIDALGO", "tipo_v_e_1": "CALLE", "nom_v_e_1": "RAMON CORONA", "tipo_v_e_2": "CALLE", "nom_v_e_2": "ABASOLO", "tipo_v_e_3": "PRIVADA", "nom_v_e_3": "JOSEFA ORTIZ DE DOMINGUEZ", "numero_ext": "32", "letra_ext": null, "edificio": "PASAJE SAN JORGE", "edificio_e": "PISO 1", "numero_int": "24", "letra_int": null, "tipo_asent": "MANZANA", "nomb_asent": "JOCOTEPEC", "tipoCenCom": "PASAJE Y ANDADOR COMERCIAL", "nom_CenCom": "PASAJE SAN JORGE", "num_local": "24", "cod_postal": "45800", "cve_ent": "14", "entidad": "JALISCO", "cve_mun": "050", "municipio": "Jocotepec", "cve_loc": "0001", "localidad": "Jocotepec", "ageb": "017A", "manzana": "013", "telefono": "3311421768", "correoelec": null, "www": null, "tipoUniEco": "Fijo", "latitud": 20.28600662, "longitud": -103.43035206, "fecha_alta": "2014-12" }, "geometry": { "type": "Point", "coordinates": [ -103.4303521, 20.2860066 ] } },
{ "type": "Feature", "properties": { "id": 10742981, "clee": "14050611131000032000000000U6", "nom_estab": "INTERNATIONAL MIDDLE SCHOOL", "raz_social": null, "codigo_act": "611131", "nombre_act": "Escuelas de educación secundaria general del sector privado", "per_ocu": "6 a 10 personas", "tipo_vial": "CALLE", "nom_vial": "CRISTOBAL COLON", "tipo_v_e_1": "PRIVADA", "nom_v_e_1": "NINGUNO", "tipo_v_e_2": "PRIVADA", "nom_v_e_2": "GONZALEZ ORTEGA SUR", "tipo_v_e_3": "CALLE", "nom_v_e_3": "MATAMOROS SUR", "numero_ext": "148", "letra_ext": null, "edificio": null, "edificio_e": null, "numero_int": null, "letra_int": null, "tipo_asent": "COLONIA", "nomb_asent": "CENTRO", "tipoCenCom": null, "nom_CenCom": null, "num_local": null, "cod_postal": "45800", "cve_ent": "14", "entidad": "JALISCO", "cve_mun": "050", "municipio": "Jocotepec", "cve_loc": "0001", "localidad": "Jocotepec", "ageb": "0165", "manzana": "001", "telefono": null, "correoelec": "MARCELA.FLORES@MUNDOPORAPRENDER.COM", "www": "WWW.MUNDOPORAPRENDER.COM", "tipoUniEco": "Fijo", "latitud": 20.28057604, "longitud": -103.42043986, "fecha_alta": "2024-11" }, "geometry": { "type": "Point", "coordinates": [ -103.4204399, 20.280576 ] } },
{ "type": "Feature", "properties": { "id": 1633944, "clee": "14050611132000033000000000U2", "nom_estab": "ESCUELA SECUNDARIA GENERAL NO 69 BENITO JUAREZ GARCIA 14DES0041T", "raz_social": "SECRETARIA DE EDUCACION PUBLICA DE JALISCO", "codigo_act": "611132", "nombre_act": "Escuelas de educación secundaria general del sector público", "per_ocu": "11 a 30 personas", "tipo_vial": "CALLE", "nom_vial": "ZARAGOZA", "tipo_v_e_1": "CALLE", "nom_v_e_1": "18 DE MARZO", "tipo_v_e_2": "CALLE", "nom_v_e_2": "VICENTE GUERRERO", "tipo_v_e_3": "CALLE", "nom_v_e_3": "CAMINO REAL", "numero_ext": "20", "letra_ext": null, "edificio": null, "edificio_e": null, "numero_int": null, "letra_int": null, "tipo_asent": "EJIDO", "nomb_asent": "ZAPOTITAN DE HIDALGO", "tipoCenCom": null, "nom_CenCom": null, "num_local": null, "cod_postal": "45810", "cve_ent": "14", "entidad": "JALISCO", "cve_mun": "050", "municipio": "Jocotepec", "cve_loc": "0017", "localidad": "Zapotitán de Hidalgo", "ageb": "0076", "manzana": "045", "telefono": null, "correoelec": null, "www": null, "tipoUniEco": "Fijo", "latitud": 20.32892549, "longitud": -103.48208822, "fecha_alta": "2010-07" }, "geometry": { "type": "Point", "coordinates": [ -103.4820882, 20.3289255 ] } },
{ "type": "Feature", "properties": { "id": 11450141, "clee": "14050611171000032000000000U2", "nom_estab": "FEDERICO FROEBEL", "raz_social": null, "codigo_act": "611171", "nombre_act": "Escuelas del sector privado que combinan diversos niveles de educación", "per_ocu": "6 a 10 personas", "tipo_vial": "CALLE", "nom_vial": "CRISTOBAL COLON", "tipo_v_e_1": "PRIVADA", "nom_v_e_1": "NINGUNO", "tipo_v_e_2": "PRIVADA", "nom_v_e_2": "GONZALEZ ORTEGA SUR", "tipo_v_e_3": "CALLE", "nom_v_e_3": "PEDRO MORENO SUR", "numero_ext": "215", "letra_ext": null, "edificio": null, "edificio_e": null, "numero_int": null, "letra_int": null, "tipo_asent": "COLONIA", "nomb_asent": "CENTRO", "tipoCenCom": null, "nom_CenCom": null, "num_local": null, "cod_postal": "45800", "cve_ent": "14", "entidad": "JALISCO", "cve_mun": "050", "municipio": "Jocotepec", "cve_loc": "0001", "localidad": "Jocotepec", "ageb": "0165", "manzana": "001", "telefono": null, "correoelec": null, "www": null, "tipoUniEco": "Fijo", "latitud": 20.27949651, "longitud": -103.42063589, "fecha_alta": "2024-11" }, "geometry": { "type": "Point", "coordinates": [ -103.4206359, 20.2794965 ] } },
{ "type": "Feature", "properties": { "id": 1635397, "clee": "14050611112000123000000000U3", "nom_estab": "JARDIN DE NIÑOS 141 CLAVE 14EJN0266P", "raz_social": "SECRETARIA DE EDUCACION PUBLICA", "codigo_act": "611112", "nombre_act": "Escuelas de educación preescolar del sector público", "per_ocu": "11 a 30 personas", "tipo_vial": "CALLE", "nom_vial": "INDEPENDENCIA", "tipo_v_e_1": "CALLE", "nom_v_e_1": "MORELOS", "tipo_v_e_2": "CALLE", "nom_v_e_2": "PORFIRIO DIAZ", "tipo_v_e_3": "CALLE", "nom_v_e_3": "NARCISO MENDOZA", "numero_ext": "79", "letra_ext": null, "edificio": null, "edificio_e": null, "numero_int": "0", "letra_int": null, "tipo_asent": "PUEBLO", "nomb_asent": "SAN JUAN COSALA", "tipoCenCom": null, "nom_CenCom": null, "num_local": null, "cod_postal": "45820", "cve_ent": "14", "entidad": "JALISCO", "cve_mun": "050", "municipio": "Jocotepec", "cve_loc": "0011", "localidad": "San Juan Cosalá", "ageb": "0199", "manzana": "024", "telefono": null, "correoelec": "JARDIN141TM@OUTLOOK.ES", "www": null, "tipoUniEco": "Fijo", "latitud": 20.28619771, "longitud": -103.33868524, "fecha_alta": "2010-07" }, "geometry": { "type": "Point", "coordinates": [ -103.3386852, 20.2861977 ] } },
{ "type": "Feature", "properties": { "id": 10429625, "clee": "14050611112000213000000000U2", "nom_estab": "JARDIN DE NIÑOS 67 MIGUEL HIDALGO", "raz_social": "SECRETARIA DE EDUCACION JALISCO", "codigo_act": "611112", "nombre_act": "Escuelas de educación preescolar del sector público", "per_ocu": "11 a 30 personas", "tipo_vial": "CALLE", "nom_vial": "GONZALEZ ORTEGA SUR", "tipo_v_e_1": "CALLE", "nom_v_e_1": "VICENTE GUERRERO ORIENTE", "tipo_v_e_2": "CALLE", "nom_v_e_2": "JUAREZ ORIENTE", "tipo_v_e_3": "CALLE", "nom_v_e_3": "NICOLAS BRAVO SUR", "numero_ext": "200", "letra_ext": null, "edificio": null, "edificio_e": null, "numero_int": null, "letra_int": null, "tipo_asent": "COLONIA", "nomb_asent": "CENTRO", "tipoCenCom": null, "nom_CenCom": null, "num_local": null, "cod_postal": "45800", "cve_ent": "14", "entidad": "JALISCO", "cve_mun": "050", "municipio": "Jocotepec", "cve_loc": "0001", "localidad": "Jocotepec", "ageb": "0108", "manzana": "007", "telefono": null, "correoelec": null, "www": null, "tipoUniEco": "Fijo", "latitud": 20.28244405, "longitud": -103.42442291, "fecha_alta": "2024-11" }, "geometry": { "type": "Point", "coordinates": [ -103.4244229, 20.2824441 ] } },
{ "type": "Feature", "properties": { "id": 1633921, "clee": "14050611112000102001000000U7", "nom_estab": "JARDIN DE NIÑOS AGUSTIN YAÑEZ 14DJN00352", "raz_social": "SECRETARIA DE EDUCACION PUBLICA FEDERAL", "codigo_act": "611112", "nombre_act": "Escuelas de educación preescolar del sector público", "per_ocu": "6 a 10 personas", "tipo_vial": "CALLE", "nom_vial": "LOPEZ COTILLA", "tipo_v_e_1": "CALLE", "nom_v_e_1": "PEDRO MORENO", "tipo_v_e_2": "CALLE", "nom_v_e_2": "MORELOS", "tipo_v_e_3": "OTRO(ESPECIFIQUE)", "nom_v_e_3": "NINGUNO", "numero_ext": "13", "letra_ext": null, "edificio": null, "edificio_e": null, "numero_int": null, "letra_int": null, "tipo_asent": "EJIDO", "nomb_asent": "ZAPOTITAN DE HIDALGO", "tipoCenCom": null, "nom_CenCom": null, "num_local": null, "cod_postal": "45810", "cve_ent": "14", "entidad": "JALISCO", "cve_mun": "050", "municipio": "Jocotepec", "cve_loc": "0017", "localidad": "Zapotitán de Hidalgo", "ageb": "0076", "manzana": "008", "telefono": null, "correoelec": null, "www": null, "tipoUniEco": "Fijo", "latitud": 20.32622997, "longitud": -103.47816324999998, "fecha_alta": "2010-07" }, "geometry": { "type": "Point", "coordinates": [ -103.4781632, 20.32623 ] } },
{ "type": "Feature", "properties": { "id": 1633856, "clee": "14050611112000021001000000U9", "nom_estab": "JARDIN DE NIÑOS CARMEN TORRES VELIZ TURNO VESPERTINO 14DJN19235", "raz_social": "SECRETARIA DE EDUCACION PUBLICA", "codigo_act": "611112", "nombre_act": "Escuelas de educación preescolar del sector público", "per_ocu": "0 a 5 personas", "tipo_vial": "CALLE", "nom_vial": "INDEPENDENCIA NORTE", "tipo_v_e_1": "CALLE", "nom_v_e_1": "INDEPENDENCIA", "tipo_v_e_2": "CALLE", "nom_v_e_2": "OTOÑO", "tipo_v_e_3": "CALLE", "nom_v_e_3": "LOPEZ RAYON", "numero_ext": "205", "letra_ext": "A", "edificio": null, "edificio_e": null, "numero_int": "0", "letra_int": null, "tipo_asent": "BARRIO", "nomb_asent": "CAMPO JALISCO", "tipoCenCom": null, "nom_CenCom": null, "num_local": null, "cod_postal": "45800", "cve_ent": "14", "entidad": "JALISCO", "cve_mun": "050", "municipio": "Jocotepec", "cve_loc": "0001", "localidad": "Jocotepec", "ageb": "0095", "manzana": "059", "telefono": null, "correoelec": null, "www": null, "tipoUniEco": "Fijo", "latitud": 20.29044412, "longitud": -103.43187415, "fecha_alta": "2010-07" }, "geometry": { "type": "Point", "coordinates": [ -103.4318742, 20.2904441 ] } },
{ "type": "Feature", "properties": { "id": 1635480, "clee": "14050611111000021001000000U1", "nom_estab": "JARDIN DE NIÑOS FEDERICO FROEBEL", "raz_social": "JARDIN DE NIÑOS FEDERICO FROEBEL CLAVE 14DJN0934R", "codigo_act": "611112", "nombre_act": "Escuelas de educación preescolar del sector público", "per_ocu": "6 a 10 personas", "tipo_vial": "CALLE", "nom_vial": "MATAMOROS", "tipo_v_e_1": "CALLE", "nom_v_e_1": "GUADALUPE VICTORIA", "tipo_v_e_2": "CALLE", "nom_v_e_2": "5 DE MAYO", "tipo_v_e_3": "CALLE", "nom_v_e_3": "MATAMOROS", "numero_ext": "0", "letra_ext": "SN", "edificio": null, "edificio_e": null, "numero_int": null, "letra_int": null, "tipo_asent": "MANZANA", "nomb_asent": "SAN JUAN COSALA", "tipoCenCom": null, "nom_CenCom": null, "num_local": null, "cod_postal": "45820", "cve_ent": "14", "entidad": "JALISCO", "cve_mun": "050", "municipio": "Jocotepec", "cve_loc": "0011", "localidad": "San Juan Cosalá", "ageb": "0131", "manzana": "001", "telefono": null, "correoelec": null, "www": null, "tipoUniEco": "Fijo", "latitud": 20.2901689, "longitud": -103.34781299, "fecha_alta": "2010-07" }, "geometry": { "type": "Point", "coordinates": [ -103.347813, 20.2901689 ] } },
{ "type": "Feature", "properties": { "id": 1757424, "clee": "14050611112000171000000000U2", "nom_estab": "JARDIN DE NIÑOS CARITINA ANAYA CARRION", "raz_social": "SECRETARIA DE EDUCACION PUBLICA", "codigo_act": "611112", "nombre_act": "Escuelas de educación preescolar del sector público", "per_ocu": "0 a 5 personas", "tipo_vial": "PRIVADA", "nom_vial": "PRIVADA ALDAMA", "tipo_v_e_1": "CALLE", "nom_v_e_1": "ALDAMA ORIENTE", "tipo_v_e_2": "CALLE", "nom_v_e_2": "NINGUNO", "tipo_v_e_3": "PROLONGACION", "nom_v_e_3": "NICOLAS BRAVO NORTE", "numero_ext": "52", "letra_ext": null, "edificio": null, "edificio_e": null, "numero_int": "0", "letra_int": null, "tipo_asent": "BARRIO", "nomb_asent": "SAN JOSE", "tipoCenCom": null, "nom_CenCom": null, "num_local": null, "cod_postal": "45800", "cve_ent": "14", "entidad": "JALISCO", "cve_mun": "050", "municipio": "Jocotepec", "cve_loc": "0001", "localidad": "Jocotepec", "ageb": "0095", "manzana": "055", "telefono": null, "correoelec": null, "www": null, "tipoUniEco": "Fijo", "latitud": 20.28925172, "longitud": -103.4256323, "fecha_alta": "2014-12" }, "geometry": { "type": "Point", "coordinates": [ -103.4256323, 20.2892517 ] } },
{ "type": "Feature", "properties": { "id": 1633855, "clee": "14050611112000011000000000U0", "nom_estab": "JARDIN DE NIÑOS CARMEN TORRES VELIZ TURNO MATUTINO 14DJNO788X", "raz_social": "SECRETARIA DE EDUCACION PUBLICA", "codigo_act": "611112", "nombre_act": "Escuelas de educación preescolar del sector público", "per_ocu": "6 a 10 personas", "tipo_vial": "CALLE", "nom_vial": "INDEPENDENCIA NORTE", "tipo_v_e_1": "CALLE", "nom_v_e_1": "INDEPENDENCIA", "tipo_v_e_2": "CALLE", "nom_v_e_2": "OTOÑO", "tipo_v_e_3": "CALLE", "nom_v_e_3": "LOPEZ RAYON", "numero_ext": "205", "letra_ext": "A", "edificio": null, "edificio_e": null, "numero_int": "0", "letra_int": null, "tipo_asent": "BARRIO", "nomb_asent": "CAMPO JALISCO", "tipoCenCom": null, "nom_CenCom": null, "num_local": null, "cod_postal": "45800", "cve_ent": "14", "entidad": "JALISCO", "cve_mun": "050", "municipio": "Jocotepec", "cve_loc": "0001", "localidad": "Jocotepec", "ageb": "0095", "manzana": "059", "telefono": null, "correoelec": null, "www": null, "tipoUniEco": "Fijo", "latitud": 20.29044412, "longitud": -103.43187415, "fecha_alta": "2010-07" }, "geometry": { "type": "Point", "coordinates": [ -103.4318742, 20.2904441 ] } },
{ "type": "Feature", "properties": { "id": 9748640, "clee": "14050611112000181000000000U1", "nom_estab": "JARDIN DE NIÑOS JULIO DE LA ROSA AGUAYO", "raz_social": "SECRETARIA DE EDUCACION PUBLICA", "codigo_act": "611112", "nombre_act": "Escuelas de educación preescolar del sector público", "per_ocu": "0 a 5 personas", "tipo_vial": "AVENIDA", "nom_vial": "ZARAGOZA", "tipo_v_e_1": "CALLE", "nom_v_e_1": "PORFIRIO DIAZ", "tipo_v_e_2": "PRIVADA", "nom_v_e_2": "ZARAGOZA", "tipo_v_e_3": "CALLE", "nom_v_e_3": "LABASTIDA", "numero_ext": "28", "letra_ext": null, "edificio": null, "edificio_e": null, "numero_int": null, "letra_int": null, "tipo_asent": "MANZANA", "nomb_asent": "BARRIO ALTO", "tipoCenCom": null, "nom_CenCom": null, "num_local": null, "cod_postal": "45840", "cve_ent": "14", "entidad": "JALISCO", "cve_mun": "050", "municipio": "Jocotepec", "cve_loc": "0008", "localidad": "San Cristóbal Zapotitlán", "ageb": "0042", "manzana": "003", "telefono": null, "correoelec": null, "www": null, "tipoUniEco": "Fijo", "latitud": 20.22388765, "longitud": -103.37069126, "fecha_alta": "2024-11" }, "geometry": { "type": "Point", "coordinates": [ -103.3706913, 20.2238876 ] } },
{ "type": "Feature", "properties": { "id": 1635398, "clee": "14050611112000133000000000U2", "nom_estab": "JARDIN DE NIÑOS LUIS DONALDO COLOSIO MURRIETA", "raz_social": "SECRETARIA DE EDUCACION PUBLICA CLAVE 14EJN0981A", "codigo_act": "611112", "nombre_act": "Escuelas de educación preescolar del sector público", "per_ocu": "6 a 10 personas", "tipo_vial": "CALLE", "nom_vial": "INDEPENDENCIA", "tipo_v_e_1": "CALLE", "nom_v_e_1": "MORELOS", "tipo_v_e_2": "CALLE", "nom_v_e_2": "PORFIRIO DIAZ", "tipo_v_e_3": "CALLE", "nom_v_e_3": "NARCISO MENDOZA", "numero_ext": "79", "letra_ext": null, "edificio": null, "edificio_e": null, "numero_int": "0", "letra_int": null, "tipo_asent": "PUEBLO", "nomb_asent": "SAN JUAN COSALA", "tipoCenCom": null, "nom_CenCom": null, "num_local": null, "cod_postal": "45820", "cve_ent": "14", "entidad": "JALISCO", "cve_mun": "050", "municipio": "Jocotepec", "cve_loc": "0011", "localidad": "San Juan Cosalá", "ageb": "0199", "manzana": "024", "telefono": null, "correoelec": null, "www": null, "tipoUniEco": "Fijo", "latitud": 20.28619771, "longitud": -103.33868524, "fecha_alta": "2010-07" }, "geometry": { "type": "Point", "coordinates": [ -103.3386852, 20.2861977 ] } },
{ "type": "Feature", "properties": { "id": 10373021, "clee": "14050611112000201000000000U7", "nom_estab": "JARDIN DE NIÑOS FRANCISCO GABILONDO SOLER", "raz_social": "JARDIN DE NIÑOS FRANCISCO GABILONDO SOLER 14PJN1423B", "codigo_act": "611112", "nombre_act": "Escuelas de educación preescolar del sector público", "per_ocu": "0 a 5 personas", "tipo_vial": "CARRETERA", "nom_vial": "JOCOTEPEC CHAPALA", "tipo_v_e_1": "CALLE", "nom_v_e_1": "JUAREZ", "tipo_v_e_2": "CALLE", "nom_v_e_2": "CALLE DEL CARDENAL", "tipo_v_e_3": "CARRETERA", "nom_v_e_3": "JOCOTEPEC-CHAPALA", "numero_ext": "28", "letra_ext": null, "edificio": null, "edificio_e": null, "numero_int": null, "letra_int": null, "tipo_asent": "MANZANA", "nomb_asent": "SAN JUAN COSALA", "tipoCenCom": null, "nom_CenCom": null, "num_local": null, "cod_postal": "45820", "cve_ent": "14", "entidad": "JALISCO", "cve_mun": "050", "municipio": "Jocotepec", "cve_loc": "0011", "localidad": "San Juan Cosalá", "ageb": "0201", "manzana": "014", "telefono": null, "correoelec": null, "www": null, "tipoUniEco": "Fijo", "latitud": 20.28790106, "longitud": -103.33980515, "fecha_alta": "2024-11" }, "geometry": { "type": "Point", "coordinates": [ -103.3398052, 20.2879011 ] } },
{ "type": "Feature", "properties": { "id": 1757583, "clee": "14050611112000161000000000U3", "nom_estab": "JARDIN DE NIÑOS FRANCISCO RUIZ SANCHEZ TURNO VESPERTINO", "raz_social": "SECRETARIA DE EDUCACION PUBLICA 14DJN2158W", "codigo_act": "611112", "nombre_act": "Escuelas de educación preescolar del sector público", "per_ocu": "6 a 10 personas", "tipo_vial": "CALLE", "nom_vial": "XOCHITL", "tipo_v_e_1": "CALLE", "nom_v_e_1": "CUAUHTEMOC", "tipo_v_e_2": "PRIVADA", "nom_v_e_2": "NINGUNO", "tipo_v_e_3": "CALLE", "nom_v_e_3": "EL CHANTE", "numero_ext": "16", "letra_ext": null, "edificio": null, "edificio_e": null, "numero_int": "0", "letra_int": null, "tipo_asent": "MANZANA", "nomb_asent": "EL CHANTE", "tipoCenCom": null, "nom_CenCom": null, "num_local": null, "cod_postal": "45800", "cve_ent": "14", "entidad": "JALISCO", "cve_mun": "050", "municipio": "Jocotepec", "cve_loc": "0002", "localidad": "Chantepec (El Chante)", "ageb": "0428", "manzana": "026", "telefono": "3313257631", "correoelec": null, "www": null, "tipoUniEco": "Fijo", "latitud": 20.28996597, "longitud": -103.39365413, "fecha_alta": "2014-12" }, "geometry": { "type": "Point", "coordinates": [ -103.3936541, 20.289966 ] } }
]
}
