{
"type": "FeatureCollection",
"name": "MARGIN_COL_JOCO",
"crs": { "type": "name", "properties": { "name": "urn:ogc:def:crs:OGC:1.3:CRS84" } },
"features": [
{ "type": "Feature", "properties": { "OBJECTID": 35927, "CVE_COL": "14050_0001", "ID_COL": 35927, "COLONIA": "Anima Sola", "CP": "45800", "CVE_ENT": "14", "NOM_ENT": "Jalisco", "MUN": "050", "CVE_MUN": "14050", "NOM_MUN": "Jocotepec", "LOC": "0001", "CVE_LOC": "140500001", "NOM_LOC": "Jocotepec", "SUN_2018": null, "NOM_SUN": null, "POBTOT": 206.097474, "P6A14NAE": 11.961324, "SBASC": 43.528984, "PSDSS": 37.640171, "OVSDE": 0.049819, "OVSEE": 0.325761, "OVSAE": 0.314839, "OVPT": 3.127597, "OVHAC": 34.595497, "OVSREF": 4.782359, "OVSINT": 51.07466, "OVSCEL": 6.218336, "IM_2020": 145.384684471127, "GM_2020": "Alto", "IMN_2020": 0.92691466940790002, "CLASIF": "Barrio" }, "geometry": { "type": "Polygon", "coordinates": [ [ [ -103.4362159, 20.2870178 ], [ -103.4383876, 20.2874869 ], [ -103.4382634, 20.2881343 ], [ -103.4389414, 20.2882453 ], [ -103.4388857, 20.2888223 ], [ -103.4376755, 20.28867 ], [ -103.4368402, 20.2885094 ], [ -103.4359299, 20.2883598 ], [ -103.4362045, 20.2871887 ], [ -103.4362159, 20.2870178 ] ] ] } },
{ "type": "Feature", "properties": { "OBJECTID": 35928, "CVE_COL": "14050_0002", "ID_COL": 35928, "COLONIA": "Centro", "CP": "45800", "CVE_ENT": "14", "NOM_ENT": "Jalisco", "MUN": "050", "CVE_MUN": "14050", "NOM_MUN": "Jocotepec", "LOC": "0001", "CVE_LOC": "140500001", "NOM_LOC": "Jocotepec", "SUN_2018": null, "NOM_SUN": null, "POBTOT": 212.375519, "P6A14NAE": 6.05613, "SBASC": 39.263419, "PSDSS": 41.341547, "OVSDE": 0.0, "OVSEE": 0.022831, "OVSAE": 0.0, "OVPT": 0.365297, "OVHAC": 28.538812, "OVSREF": 2.739726, "OVSINT": 40.273973, "OVSCEL": 5.593607, "IM_2020": 147.75444508800101, "GM_2020": "Medio", "IMN_2020": 0.94202331642089998, "CLASIF": "Barrio" }, "geometry": { "type": "Polygon", "coordinates": [ [ [ -103.4306732, 20.2840029 ], [ -103.4309162, 20.2827855 ], [ -103.4320408, 20.2828996 ], [ -103.4330282, 20.2829911 ], [ -103.4329409, 20.2836352 ], [ -103.4327912, 20.2844566 ], [ -103.4321794, 20.2843733 ], [ -103.4306732, 20.2840029 ] ] ] } },
{ "type": "Feature", "properties": { "OBJECTID": 35929, "CVE_COL": "14050_0003", "ID_COL": 35929, "COLONIA": "Cruz Verde", "CP": "45800", "CVE_ENT": "14", "NOM_ENT": "Jalisco", "MUN": "050", "CVE_MUN": "14050", "NOM_MUN": "Jocotepec", "LOC": "0001", "CVE_LOC": "140500001", "NOM_LOC": "Jocotepec", "SUN_2018": null, "NOM_SUN": null, "POBTOT": 534.824631, "P6A14NAE": 8.20832, "SBASC": 39.901767, "PSDSS": 40.241519, "OVSDE": 0.0, "OVSEE": 0.013849, "OVSAE": 0.04376, "OVPT": 1.079283, "OVHAC": 28.295336, "OVSREF": 3.053479, "OVSINT": 41.872828, "OVSCEL": 6.500027, "IM_2020": 147.136607689963, "GM_2020": "Alto", "IMN_2020": 0.93808423198680002, "CLASIF": "Barrio" }, "geometry": { "type": "Polygon", "coordinates": [ [ [ -103.4309162, 20.2827855 ], [ -103.4294934, 20.2825901 ], [ -103.4298546, 20.2803324 ], [ -103.4313072, 20.2805559 ], [ -103.4323053, 20.2807581 ], [ -103.4333096, 20.2809535 ], [ -103.4332212, 20.2815419 ], [ -103.4330282, 20.2829911 ], [ -103.4320408, 20.2828996 ], [ -103.4309162, 20.2827855 ] ] ] } },
{ "type": "Feature", "properties": { "OBJECTID": 35930, "CVE_COL": "14050_0004", "ID_COL": 35930, "COLONIA": "El Carrizal", "CP": "45800", "CVE_ENT": "14", "NOM_ENT": "Jalisco", "MUN": "050", "CVE_MUN": "14050", "NOM_MUN": "Jocotepec", "LOC": "0001", "CVE_LOC": "140500001", "NOM_LOC": "Jocotepec", "SUN_2018": null, "NOM_SUN": null, "POBTOT": 388.621109, "P6A14NAE": 6.83077, "SBASC": 37.884578, "PSDSS": 34.334121, "OVSDE": 0.024403, "OVSEE": 0.170824, "OVSAE": 0.024403, "OVPT": 3.200295, "OVHAC": 31.905627, "OVSREF": 3.822895, "OVSINT": 49.559926, "OVSCEL": 3.776905, "IM_2020": 147.63013448835201, "GM_2020": "Medio", "IMN_2020": 0.94123076169749997, "CLASIF": "Colonia" }, "geometry": { "type": "Polygon", "coordinates": [ [ [ -103.4393521, 20.2934703 ], [ -103.4389938, 20.2933426 ], [ -103.4391008, 20.2928922 ], [ -103.439229, 20.2920389 ], [ -103.4393024, 20.291349 ], [ -103.4393672, 20.2906545 ], [ -103.4394247, 20.2903676 ], [ -103.4387002, 20.2902448 ], [ -103.4388857, 20.2888223 ], [ -103.4389414, 20.2882453 ], [ -103.4398896, 20.2883598 ], [ -103.4415311, 20.2886704 ], [ -103.4415124, 20.2888928 ], [ -103.4413709, 20.2905726 ], [ -103.4411714, 20.2915886 ], [ -103.4411583, 20.2916557 ], [ -103.4412044, 20.2923971 ], [ -103.4412343, 20.2928761 ], [ -103.4411208, 20.2935895 ], [ -103.440137, 20.2935719 ], [ -103.4393521, 20.2934703 ] ] ] } },
{ "type": "Feature", "properties": { "OBJECTID": 35931, "CVE_COL": "14050_0005", "ID_COL": 35931, "COLONIA": "El Chante", "CP": "45800", "CVE_ENT": "14", "NOM_ENT": "Jalisco", "MUN": "050", "CVE_MUN": "14050", "NOM_MUN": "Jocotepec", "LOC": "0002", "CVE_LOC": "140500002", "NOM_LOC": "Chantepec (El Chante)", "SUN_2018": null, "NOM_SUN": null, "POBTOT": 3081.154238, "P6A14NAE": 12.756953, "SBASC": 50.604754, "PSDSS": 48.818658, "OVSDE": 0.193043, "OVSEE": 0.362724, "OVSAE": 0.858942, "OVPT": 2.783192, "OVHAC": 47.58405, "OVSREF": 7.757724, "OVSINT": 65.50275, "OVSCEL": 7.831754, "IM_2020": 142.95915817943501, "GM_2020": "Muy alto", "IMN_2020": 0.9114504827298, "CLASIF": "-" }, "geometry": { "type": "Polygon", "coordinates": [ [ [ -103.386375, 20.2919437 ], [ -103.3863783, 20.2919439 ], [ -103.386337, 20.2918672 ], [ -103.3862353, 20.2916786 ], [ -103.386197, 20.291474 ], [ -103.3861142, 20.2910327 ], [ -103.3861213, 20.2909886 ], [ -103.3864776, 20.2906541 ], [ -103.3866322, 20.2902201 ], [ -103.3866322, 20.2902199 ], [ -103.3866506, 20.2901962 ], [ -103.3868179, 20.2900876 ], [ -103.3875737, 20.289704 ], [ -103.3876646, 20.2896591 ], [ -103.3879064, 20.2896942 ], [ -103.3882548, 20.2896391 ], [ -103.3886071, 20.2894425 ], [ -103.3887559, 20.2894578 ], [ -103.3888447, 20.2895155 ], [ -103.3889058, 20.2897304 ], [ -103.3891418, 20.2898638 ], [ -103.3898245, 20.2899308 ], [ -103.390327, 20.2896422 ], [ -103.3908485, 20.2897569 ], [ -103.390967, 20.2896743 ], [ -103.3909808, 20.2896647 ], [ -103.3912733, 20.2891317 ], [ -103.3915007, 20.2887368 ], [ -103.3920388, 20.2883362 ], [ -103.3923666, 20.2881857 ], [ -103.3926968, 20.2879697 ], [ -103.3929272, 20.287869 ], [ -103.3929298, 20.2878678 ], [ -103.392908, 20.2877139 ], [ -103.3930168, 20.2876141 ], [ -103.3931474, 20.2874619 ], [ -103.393298, 20.287366 ], [ -103.3935114, 20.2872534 ], [ -103.3936156, 20.2872421 ], [ -103.3941285, 20.2871157 ], [ -103.3944925, 20.287169 ], [ -103.3948276, 20.2871078 ], [ -103.3948276, 20.2871078 ], [ -103.3948276, 20.2871077 ], [ -103.3948409, 20.2870998 ], [ -103.3950876, 20.2869524 ], [ -103.3957934, 20.2868678 ], [ -103.3960253, 20.2867652 ], [ -103.3963101, 20.2868184 ], [ -103.3962891, 20.2869951 ], [ -103.3964444, 20.2870585 ], [ -103.3968645, 20.2870662 ], [ -103.3975492, 20.2871984 ], [ -103.397548, 20.2872952 ], [ -103.3977255, 20.2873031 ], [ -103.3978333, 20.2873535 ], [ -103.3982533, 20.287337 ], [ -103.3985265, 20.2873549 ], [ -103.3986739, 20.2873818 ], [ -103.3990278, 20.2873452 ], [ -103.3991779, 20.2873087 ], [ -103.3991785, 20.2873086 ], [ -103.3992431, 20.2871236 ], [ -103.3992433, 20.2871232 ], [ -103.3992434, 20.2871229 ], [ -103.3994128, 20.2870692 ], [ -103.3995978, 20.2870708 ], [ -103.3998448, 20.2871359 ], [ -103.3998533, 20.2871382 ], [ -103.3998794, 20.2871451 ], [ -103.3999739, 20.2871679 ], [ -103.4000655, 20.28719 ], [ -103.4001769, 20.2871582 ], [ -103.4001769, 20.2871582 ], [ -103.400213, 20.2871334 ], [ -103.4002564, 20.2871035 ], [ -103.40028, 20.2870872 ], [ -103.4003317, 20.2870515 ], [ -103.4003507, 20.2870643 ], [ -103.4003591, 20.2870699 ], [ -103.4003827, 20.2870858 ], [ -103.4004846, 20.2871541 ], [ -103.4005629, 20.2870489 ], [ -103.4005633, 20.2870484 ], [ -103.4006246, 20.2869942 ], [ -103.4009322, 20.2869571 ], [ -103.401055, 20.2869779 ], [ -103.4012328, 20.2870792 ], [ -103.4013759, 20.2872991 ], [ -103.4015963, 20.2873221 ], [ -103.4019435, 20.2871535 ], [ -103.401946, 20.2871523 ], [ -103.4024289, 20.2869039 ], [ -103.4026767, 20.286926 ], [ -103.4028101, 20.2870546 ], [ -103.4036494, 20.2871828 ], [ -103.4043702, 20.2870693 ], [ -103.4053469, 20.2877433 ], [ -103.4056795, 20.2879567 ], [ -103.4059766, 20.2880279 ], [ -103.4064419, 20.2879801 ], [ -103.4068302, 20.2881488 ], [ -103.4074121, 20.2882198 ], [ -103.4078932, 20.2878146 ], [ -103.4081527, 20.2876547 ], [ -103.4085455, 20.2877545 ], [ -103.4088238, 20.2879328 ], [ -103.4090896, 20.2880462 ], [ -103.4094305, 20.2882443 ], [ -103.4104392, 20.2887063 ], [ -103.4104129, 20.2880895 ], [ -103.4111245, 20.2879569 ], [ -103.4122007, 20.2875373 ], [ -103.413112, 20.286773 ], [ -103.4128438, 20.2864554 ], [ -103.413404, 20.285664 ], [ -103.4135376, 20.2854885 ], [ -103.4136857, 20.2852815 ], [ -103.4138415, 20.2850488 ], [ -103.4140018, 20.284746 ], [ -103.4140503, 20.2846127 ], [ -103.4142693, 20.2844306 ], [ -103.4146156, 20.2841426 ], [ -103.4150773, 20.2835881 ], [ -103.415498, 20.2830827 ], [ -103.4156619, 20.2833643 ], [ -103.4173513, 20.2836203 ], [ -103.4179504, 20.2837899 ], [ -103.4178094, 20.2845434 ], [ -103.4175856, 20.2847402 ], [ -103.4164616, 20.2866371 ], [ -103.4157972, 20.2877604 ], [ -103.4153521, 20.2885128 ], [ -103.4150729, 20.2889849 ], [ -103.414442, 20.2895906 ], [ -103.4127742, 20.290332 ], [ -103.4130592, 20.2916496 ], [ -103.4122309, 20.2920021 ], [ -103.4122639, 20.2926628 ], [ -103.4120756, 20.2940261 ], [ -103.4064642, 20.2941297 ], [ -103.4064435, 20.2928252 ], [ -103.4069612, 20.2913964 ], [ -103.403064, 20.2918956 ], [ -103.4033159, 20.2928891 ], [ -103.3926532, 20.2949372 ], [ -103.3908517, 20.2950925 ], [ -103.390976, 20.295341 ], [ -103.3893298, 20.2956723 ], [ -103.3879425, 20.2956516 ], [ -103.388191, 20.2946991 ], [ -103.3881975, 20.2940791 ], [ -103.3881169, 20.2938889 ], [ -103.3877838, 20.2931075 ], [ -103.3866246, 20.2930757 ], [ -103.3865607, 20.2927806 ], [ -103.3862878, 20.2919402 ], [ -103.386375, 20.2919437 ] ] ] } },
{ "type": "Feature", "properties": { "OBJECTID": 35932, "CVE_COL": "14050_0006", "ID_COL": 35932, "COLONIA": "El Crucero", "CP": "45800", "CVE_ENT": "14", "NOM_ENT": "Jalisco", "MUN": "050", "CVE_MUN": "14050", "NOM_MUN": "Jocotepec", "LOC": null, "CVE_LOC": null, "NOM_LOC": null, "SUN_2018": null, "NOM_SUN": null, "POBTOT": 333.933385, "P6A14NAE": 9.731651, "SBASC": 39.243169, "PSDSS": 37.674319, "OVSDE": 0.000619, "OVSEE": 0.004336, "OVSAE": 1.212021, "OVPT": 0.366655, "OVHAC": 28.959776, "OVSREF": 5.214689, "OVSINT": 55.528549, "OVSCEL": 4.316099, "IM_2020": 146.88260036905999, "GM_2020": "Alto", "IMN_2020": 0.93646478278050005, "CLASIF": "Barrio" }, "geometry": { "type": "Polygon", "coordinates": [ [ [ -103.4436206, 20.2854497 ], [ -103.4435261, 20.2853661 ], [ -103.4431519, 20.2851439 ], [ -103.4428008, 20.2849014 ], [ -103.4426376, 20.2847819 ], [ -103.4424557, 20.2847297 ], [ -103.4422731, 20.2847651 ], [ -103.4419332, 20.2847925 ], [ -103.441797, 20.2848182 ], [ -103.4411789, 20.284616 ], [ -103.4408246, 20.2842539 ], [ -103.4407566, 20.2841845 ], [ -103.4405215, 20.2838537 ], [ -103.4401422, 20.2833463 ], [ -103.4400415, 20.2832385 ], [ -103.4404615, 20.2816457 ], [ -103.441077, 20.2817558 ], [ -103.4417749, 20.2818807 ], [ -103.4422107, 20.279814 ], [ -103.4442713, 20.2790522 ], [ -103.4419392, 20.278719 ], [ -103.4410485, 20.2786356 ], [ -103.4404081, 20.2786431 ], [ -103.4397789, 20.278578 ], [ -103.4396368, 20.2784718 ], [ -103.4393114, 20.278016 ], [ -103.4377268, 20.2775066 ], [ -103.4375771, 20.2774734 ], [ -103.4371899, 20.2772046 ], [ -103.4375261, 20.2758278 ], [ -103.4364124, 20.2755975 ], [ -103.437019, 20.2732498 ], [ -103.4444521, 20.2685716 ], [ -103.4446772, 20.2684193 ], [ -103.4454277, 20.2679949 ], [ -103.4467501, 20.2707894 ], [ -103.4509598, 20.2796846 ], [ -103.4535314, 20.2851179 ], [ -103.4526756, 20.285661 ], [ -103.450926, 20.2867713 ], [ -103.4481253, 20.2883961 ], [ -103.4477361, 20.2881069 ], [ -103.4477434, 20.2880702 ], [ -103.4477021, 20.2880213 ], [ -103.4475079, 20.2879513 ], [ -103.447452, 20.2879757 ], [ -103.447382, 20.2880155 ], [ -103.4472287, 20.2880418 ], [ -103.4470479, 20.2880249 ], [ -103.4469436, 20.288016 ], [ -103.4468535, 20.2879707 ], [ -103.4468259, 20.2879539 ], [ -103.4467777, 20.2878995 ], [ -103.4466256, 20.2877888 ], [ -103.4464396, 20.2875977 ], [ -103.4463015, 20.2874874 ], [ -103.4461914, 20.2873517 ], [ -103.446081, 20.2872582 ], [ -103.4460262, 20.2871614 ], [ -103.4459788, 20.2870279 ], [ -103.4459029, 20.2869673 ], [ -103.4457706, 20.2869679 ], [ -103.4457433, 20.2869142 ], [ -103.4456181, 20.2869099 ], [ -103.4455835, 20.2868823 ], [ -103.4453614, 20.2868271 ], [ -103.4453268, 20.2868101 ], [ -103.4452509, 20.2867389 ], [ -103.4451891, 20.2866524 ], [ -103.4451407, 20.286619 ], [ -103.4450161, 20.2865514 ], [ -103.4449606, 20.2865337 ], [ -103.4448355, 20.2865188 ], [ -103.4447729, 20.2865166 ], [ -103.444676, 20.2864552 ], [ -103.4446407, 20.2865067 ], [ -103.4444944, 20.286528 ], [ -103.4443344, 20.2865224 ], [ -103.4442999, 20.2864896 ], [ -103.4442739, 20.2862936 ], [ -103.4442819, 20.286191 ], [ -103.4437453, 20.2857356 ], [ -103.4437151, 20.2855332 ], [ -103.4436206, 20.2854497 ] ] ] } },
{ "type": "Feature", "properties": { "OBJECTID": 35934, "CVE_COL": "14050_0007", "ID_COL": 35934, "COLONIA": "El Panteon", "CP": "45800", "CVE_ENT": "14", "NOM_ENT": "Jalisco", "MUN": "050", "CVE_MUN": "14050", "NOM_MUN": "Jocotepec", "LOC": "0001", "CVE_LOC": "140500001", "NOM_LOC": "Jocotepec", "SUN_2018": null, "NOM_SUN": null, "POBTOT": 659.858396, "P6A14NAE": 10.561784, "SBASC": 40.462269, "PSDSS": 36.615385, "OVSDE": 0.039905, "OVSEE": 0.279341, "OVSAE": 0.039905, "OVPT": 4.110317, "OVHAC": 31.296331, "OVSREF": 4.230956, "OVSINT": 45.336156, "OVSCEL": 4.830637, "IM_2020": 146.229979828381, "GM_2020": "Alto", "IMN_2020": 0.93230393492420005, "CLASIF": "Colonia" }, "geometry": { "type": "Polygon", "coordinates": [ [ [ -103.4415311, 20.2886704 ], [ -103.4398896, 20.2883598 ], [ -103.4389414, 20.2882453 ], [ -103.4382634, 20.2881343 ], [ -103.4383876, 20.2874869 ], [ -103.4362159, 20.2870178 ], [ -103.4363152, 20.286614 ], [ -103.436399, 20.28618 ], [ -103.4364626, 20.2858634 ], [ -103.437254, 20.2859418 ], [ -103.4378541, 20.2860105 ], [ -103.4379286, 20.2860191 ], [ -103.4379747, 20.2860244 ], [ -103.4379978, 20.286027 ], [ -103.4380209, 20.2860296 ], [ -103.4383763, 20.2861459 ], [ -103.4386833, 20.2862464 ], [ -103.4387591, 20.2862712 ], [ -103.4389217, 20.2863244 ], [ -103.4389464, 20.2863325 ], [ -103.4389711, 20.2863406 ], [ -103.4394593, 20.2864775 ], [ -103.4397336, 20.286334 ], [ -103.4398258, 20.2863279 ], [ -103.440215, 20.2864093 ], [ -103.4407098, 20.2865226 ], [ -103.4408518, 20.2858275 ], [ -103.4411789, 20.284616 ], [ -103.441797, 20.2848182 ], [ -103.4419332, 20.2847925 ], [ -103.4422731, 20.2847651 ], [ -103.4424557, 20.2847297 ], [ -103.4426376, 20.2847819 ], [ -103.4428008, 20.2849014 ], [ -103.4431519, 20.2851439 ], [ -103.4435261, 20.2853661 ], [ -103.4436206, 20.2854497 ], [ -103.4435017, 20.2855862 ], [ -103.4434282, 20.2860717 ], [ -103.4433459, 20.286287 ], [ -103.4431442, 20.2872831 ], [ -103.4428886, 20.2888643 ], [ -103.4423204, 20.2887462 ], [ -103.4420863, 20.2886816 ], [ -103.4419994, 20.2886681 ], [ -103.4415311, 20.2886704 ] ] ] } },
{ "type": "Feature", "properties": { "OBJECTID": 35935, "CVE_COL": "14050_0008", "ID_COL": 35935, "COLONIA": "El Sanjon", "CP": "45800", "CVE_ENT": "14", "NOM_ENT": "Jalisco", "MUN": "050", "CVE_MUN": "14050", "NOM_MUN": "Jocotepec", "LOC": "0001", "CVE_LOC": "140500001", "NOM_LOC": "Jocotepec", "SUN_2018": null, "NOM_SUN": null, "POBTOT": 127.199715, "P6A14NAE": 6.05613, "SBASC": 39.263419, "PSDSS": 41.341547, "OVSDE": 0.0, "OVSEE": 0.022831, "OVSAE": 0.0, "OVPT": 0.365297, "OVHAC": 28.538812, "OVSREF": 2.739726, "OVSINT": 40.273973, "OVSCEL": 5.593608, "IM_2020": 147.754444904168, "GM_2020": "Medio", "IMN_2020": 0.94202331524880001, "CLASIF": "Barrio" }, "geometry": { "type": "Polygon", "coordinates": [ [ [ -103.4330282, 20.2829911 ], [ -103.4332212, 20.2815419 ], [ -103.4333096, 20.2809535 ], [ -103.4342278, 20.2811472 ], [ -103.4341389, 20.281678 ], [ -103.4340975, 20.2819755 ], [ -103.43398, 20.2828283 ], [ -103.4334422, 20.2829948 ], [ -103.4332276, 20.2830177 ], [ -103.4330282, 20.2829911 ] ] ] } },
{ "type": "Feature", "properties": { "OBJECTID": 35936, "CVE_COL": "14050_0009", "ID_COL": 35936, "COLONIA": "Hielera", "CP": "45800", "CVE_ENT": "14", "NOM_ENT": "Jalisco", "MUN": "050", "CVE_MUN": "14050", "NOM_MUN": "Jocotepec", "LOC": "0001", "CVE_LOC": "140500001", "NOM_LOC": "Jocotepec", "SUN_2018": null, "NOM_SUN": null, "POBTOT": 533.422449, "P6A14NAE": 12.17438, "SBASC": 42.404851, "PSDSS": 38.460538, "OVSDE": 0.020098, "OVSEE": 0.127411, "OVSAE": 0.245057, "OVPT": 2.295495, "OVHAC": 31.053143, "OVSREF": 4.104114, "OVSINT": 48.015165, "OVSCEL": 7.594409, "IM_2020": 145.67641070761499, "GM_2020": "Alto", "IMN_2020": 0.92877459935189999, "CLASIF": "Ejido" }, "geometry": { "type": "Polygon", "coordinates": [ [ [ -103.4271963, 20.2914727 ], [ -103.4272463, 20.2910554 ], [ -103.4273647, 20.2903564 ], [ -103.4274344, 20.29005 ], [ -103.4274935, 20.2897785 ], [ -103.4275509, 20.2892952 ], [ -103.4276768, 20.2886223 ], [ -103.428582, 20.2888348 ], [ -103.4287523, 20.2876566 ], [ -103.4293026, 20.2877076 ], [ -103.4300275, 20.2877796 ], [ -103.429857, 20.2892999 ], [ -103.4297578, 20.2906014 ], [ -103.4296931, 20.2912874 ], [ -103.4296063, 20.2918369 ], [ -103.429586, 20.2920063 ], [ -103.4295709, 20.2924242 ], [ -103.4289678, 20.2923737 ], [ -103.4283774, 20.2923054 ], [ -103.427844, 20.2922788 ], [ -103.4271065, 20.2921606 ], [ -103.4271463, 20.2918298 ], [ -103.4271963, 20.2914727 ] ] ] } },
{ "type": "Feature", "properties": { "OBJECTID": 35938, "CVE_COL": "14050_0010", "ID_COL": 35938, "COLONIA": "Jalisco", "CP": "45800", "CVE_ENT": "14", "NOM_ENT": "Jalisco", "MUN": "050", "CVE_MUN": "14050", "NOM_MUN": "Jocotepec", "LOC": "0001", "CVE_LOC": "140500001", "NOM_LOC": "Jocotepec", "SUN_2018": null, "NOM_SUN": null, "POBTOT": 1370.401997, "P6A14NAE": 10.679543, "SBASC": 43.141823, "PSDSS": 39.211219, "OVSDE": 0.03685, "OVSEE": 0.242087, "OVSAE": 0.306509, "OVPT": 1.876894, "OVHAC": 33.745008, "OVSREF": 4.300845, "OVSINT": 49.502861, "OVSCEL": 6.49393, "IM_2020": 145.83508973182501, "GM_2020": "Alto", "IMN_2020": 0.92978627342069997, "CLASIF": "Ejido" }, "geometry": { "type": "Polygon", "coordinates": [ [ [ -103.4296063, 20.2918369 ], [ -103.4296931, 20.2912874 ], [ -103.4297578, 20.2906014 ], [ -103.429857, 20.2892999 ], [ -103.4300275, 20.2877796 ], [ -103.4309309, 20.2878241 ], [ -103.4319651, 20.2879241 ], [ -103.4321583, 20.287936 ], [ -103.4330366, 20.2881079 ], [ -103.4330903, 20.2881487 ], [ -103.4339842, 20.2883554 ], [ -103.434617, 20.2884895 ], [ -103.4344013, 20.2895777 ], [ -103.4342389, 20.2904307 ], [ -103.4341093, 20.2911715 ], [ -103.433999, 20.2918706 ], [ -103.4338949, 20.2923621 ], [ -103.4338048, 20.2928288 ], [ -103.433783, 20.2929296 ], [ -103.4336803, 20.2934359 ], [ -103.4332302, 20.2933526 ], [ -103.432866, 20.293097 ], [ -103.4327566, 20.2928683 ], [ -103.4326876, 20.2925978 ], [ -103.4327048, 20.2924033 ], [ -103.4327382, 20.2921905 ], [ -103.432409, 20.2921417 ], [ -103.4319836, 20.2920918 ], [ -103.4309179, 20.2919668 ], [ -103.4298425, 20.2918406 ], [ -103.4296063, 20.2918369 ] ] ] } },
{ "type": "Feature", "properties": { "OBJECTID": 35939, "CVE_COL": "14050_0011", "ID_COL": 35939, "COLONIA": "Jocotepec Centro", "CP": "45800", "CVE_ENT": "14", "NOM_ENT": "Jalisco", "MUN": "050", "CVE_MUN": "14050", "NOM_MUN": "Jocotepec", "LOC": "0001", "CVE_LOC": "140500001", "NOM_LOC": "Jocotepec", "SUN_2018": null, "NOM_SUN": null, "POBTOT": 895.368439, "P6A14NAE": 8.072677, "SBASC": 39.863191, "PSDSS": 40.308945, "OVSDE": 0.0, "OVSEE": 0.0144, "OVSAE": 0.041075, "OVPT": 1.035473, "OVHAC": 28.310276, "OVSREF": 3.034227, "OVSINT": 41.774725, "OVSCEL": 6.44441, "IM_2020": 147.17529753966801, "GM_2020": "Alto", "IMN_2020": 0.93833090301260003, "CLASIF": "Colonia" }, "geometry": { "type": "Polygon", "coordinates": [ [ [ -103.4300275, 20.2877796 ], [ -103.4293026, 20.2877076 ], [ -103.4287523, 20.2876566 ], [ -103.4287616, 20.2875365 ], [ -103.4288513, 20.2867125 ], [ -103.429053, 20.2857481 ], [ -103.4290457, 20.2856287 ], [ -103.4291539, 20.2844461 ], [ -103.4292969, 20.2837521 ], [ -103.4306732, 20.2840029 ], [ -103.4321794, 20.2843733 ], [ -103.4327912, 20.2844566 ], [ -103.4326912, 20.2850338 ], [ -103.4324809, 20.2860214 ], [ -103.432396, 20.2862653 ], [ -103.4321583, 20.287936 ], [ -103.4319651, 20.2879241 ], [ -103.4309309, 20.2878241 ], [ -103.4300275, 20.2877796 ] ] ] } },
{ "type": "Feature", "properties": { "OBJECTID": 35940, "CVE_COL": "14050_0012", "ID_COL": 35940, "COLONIA": "La Campana", "CP": "45800", "CVE_ENT": "14", "NOM_ENT": "Jalisco", "MUN": "050", "CVE_MUN": "14050", "NOM_MUN": "Jocotepec", "LOC": "0001", "CVE_LOC": "140500001", "NOM_LOC": "Jocotepec", "SUN_2018": null, "NOM_SUN": null, "POBTOT": 538.496707, "P6A14NAE": 6.067288, "SBASC": 39.27193, "PSDSS": 41.337117, "OVSDE": 8.0000000000000007e-05, "OVSEE": 0.023308, "OVSAE": 0.000697, "OVPT": 0.368393, "OVHAC": 28.550453, "OVSREF": 2.743153, "OVSINT": 40.29459, "OVSCEL": 5.59574, "IM_2020": 147.74998858845399, "GM_2020": "Medio", "IMN_2020": 0.94199490356009996, "CLASIF": "Barrio" }, "geometry": { "type": "Polygon", "coordinates": [ [ [ -103.4321583, 20.287936 ], [ -103.432396, 20.2862653 ], [ -103.4324809, 20.2860214 ], [ -103.4326912, 20.2850338 ], [ -103.4351973, 20.2856147 ], [ -103.4349476, 20.2867517 ], [ -103.434696, 20.2880895 ], [ -103.434617, 20.2884895 ], [ -103.4339842, 20.2883554 ], [ -103.4330903, 20.2881487 ], [ -103.4330366, 20.2881079 ], [ -103.4321583, 20.287936 ] ] ] } },
{ "type": "Feature", "properties": { "OBJECTID": 35941, "CVE_COL": "14050_0013", "ID_COL": 35941, "COLONIA": "La Laguna", "CP": "45800", "CVE_ENT": "14", "NOM_ENT": "Jalisco", "MUN": "050", "CVE_MUN": "14050", "NOM_MUN": "Jocotepec", "LOC": "0001", "CVE_LOC": "140500001", "NOM_LOC": "Jocotepec", "SUN_2018": null, "NOM_SUN": null, "POBTOT": 355.072593, "P6A14NAE": 12.503565, "SBASC": 36.953017, "PSDSS": 44.680551, "OVSDE": 0.0, "OVSEE": 0.395587, "OVSAE": 0.417862, "OVPT": 1.128229, "OVHAC": 33.350212, "OVSREF": 6.474102, "OVSINT": 45.402454, "OVSCEL": 5.670897, "IM_2020": 145.45944110432001, "GM_2020": "Alto", "IMN_2020": 0.92739128783710001, "CLASIF": "Barrio" }, "geometry": { "type": "Polygon", "coordinates": [ [ [ -103.415498, 20.2830827 ], [ -103.4162413, 20.2829053 ], [ -103.4167755, 20.2831728 ], [ -103.4168142, 20.2831923 ], [ -103.4169941, 20.2826989 ], [ -103.4170133, 20.2826464 ], [ -103.4174073, 20.282132 ], [ -103.4174299, 20.2821025 ], [ -103.4174565, 20.2820483 ], [ -103.4175728, 20.2818115 ], [ -103.4177756, 20.2813983 ], [ -103.4177089, 20.2808272 ], [ -103.4179721, 20.2799082 ], [ -103.4180319, 20.2796991 ], [ -103.4180402, 20.2796682 ], [ -103.4181953, 20.279067 ], [ -103.4182118, 20.2790012 ], [ -103.4182626, 20.2786872 ], [ -103.4186325, 20.2779832 ], [ -103.418632, 20.2779366 ], [ -103.4186213, 20.2769727 ], [ -103.4186199, 20.2768421 ], [ -103.4188647, 20.2765477 ], [ -103.4188451, 20.2760911 ], [ -103.4188219, 20.2759996 ], [ -103.4191874, 20.2757291 ], [ -103.4192632, 20.2754103 ], [ -103.4194619, 20.2748873 ], [ -103.4194555, 20.2743282 ], [ -103.4194491, 20.273769 ], [ -103.4198394, 20.2734303 ], [ -103.419918, 20.2728377 ], [ -103.4197773, 20.2724029 ], [ -103.4199249, 20.2721532 ], [ -103.4200018, 20.2717203 ], [ -103.4199827, 20.2712181 ], [ -103.4209911, 20.2699368 ], [ -103.421687, 20.2703603 ], [ -103.4218046, 20.271381 ], [ -103.4216926, 20.2717399 ], [ -103.4216221, 20.2721383 ], [ -103.4215751, 20.2723494 ], [ -103.4213648, 20.2729121 ], [ -103.4213771, 20.2734263 ], [ -103.4211537, 20.2741573 ], [ -103.4211259, 20.2742782 ], [ -103.4220308, 20.274565 ], [ -103.4202199, 20.2810585 ], [ -103.4199876, 20.2817417 ], [ -103.4196811, 20.28276 ], [ -103.4196125, 20.2829031 ], [ -103.4192972, 20.2840446 ], [ -103.4187188, 20.2841389 ], [ -103.4178094, 20.2845434 ], [ -103.4179504, 20.2837899 ], [ -103.4173513, 20.2836203 ], [ -103.4156619, 20.2833643 ], [ -103.415498, 20.2830827 ] ] ] } },
{ "type": "Feature", "properties": { "OBJECTID": 35942, "CVE_COL": "14050_0014", "ID_COL": 35942, "COLONIA": "La Limonesta", "CP": "45800", "CVE_ENT": "14", "NOM_ENT": "Jalisco", "MUN": "050", "CVE_MUN": "14050", "NOM_MUN": "Jocotepec", "LOC": null, "CVE_LOC": null, "NOM_LOC": null, "SUN_2018": null, "NOM_SUN": null, "POBTOT": 41.225826, "P6A14NAE": 11.604786, "SBASC": 30.819366, "PSDSS": 56.500845, "OVSDE": 0.0, "OVSEE": 1.157039, "OVSAE": 0.006127, "OVPT": 0.120096, "OVHAC": 17.929352, "OVSREF": 2.508928, "OVSINT": 35.996492, "OVSCEL": 4.677518, "IM_2020": 145.74484404019901, "GM_2020": "Alto", "IMN_2020": 0.92921090294249997, "CLASIF": "Barrio" }, "geometry": { "type": "Polygon", "coordinates": [ [ [ -103.4220308, 20.274565 ], [ -103.4211259, 20.2742782 ], [ -103.4211537, 20.2741573 ], [ -103.4213771, 20.2734263 ], [ -103.4213648, 20.2729121 ], [ -103.4215751, 20.2723494 ], [ -103.4216221, 20.2721383 ], [ -103.4216926, 20.2717399 ], [ -103.4218046, 20.271381 ], [ -103.421687, 20.2703603 ], [ -103.4222339, 20.2706931 ], [ -103.4224619, 20.2707443 ], [ -103.4259352, 20.2715235 ], [ -103.4297531, 20.2725269 ], [ -103.4297684, 20.2727885 ], [ -103.4296014, 20.2734453 ], [ -103.4294878, 20.2743735 ], [ -103.4294975, 20.2746154 ], [ -103.4295202, 20.2751799 ], [ -103.429418, 20.2763748 ], [ -103.4269251, 20.2757848 ], [ -103.4257053, 20.2755039 ], [ -103.4220308, 20.274565 ] ] ] } },
{ "type": "Feature", "properties": { "OBJECTID": 35943, "CVE_COL": "14050_0015", "ID_COL": 35943, "COLONIA": "La Loma", "CP": "45800", "CVE_ENT": "14", "NOM_ENT": "Jalisco", "MUN": "050", "CVE_MUN": "14050", "NOM_MUN": "Jocotepec", "LOC": "0001", "CVE_LOC": "140500001", "NOM_LOC": "Jocotepec", "SUN_2018": null, "NOM_SUN": null, "POBTOT": 1728.317718, "P6A14NAE": 7.412666, "SBASC": 42.608684, "PSDSS": 33.380541, "OVSDE": 0.868273, "OVSEE": 0.013744, "OVSAE": 0.983736, "OVPT": 2.713519, "OVHAC": 35.352406, "OVSREF": 4.836274, "OVSINT": 45.509717, "OVSCEL": 4.30287, "IM_2020": 146.7490739616, "GM_2020": "Alto", "IMN_2020": 0.93561347174809995, "CLASIF": "Barrio" }, "geometry": { "type": "Polygon", "coordinates": [ [ [ -103.4342278, 20.2811472 ], [ -103.4344001, 20.2801834 ], [ -103.4341652, 20.2801101 ], [ -103.4339944, 20.2800714 ], [ -103.4338332, 20.2800826 ], [ -103.4335055, 20.2800102 ], [ -103.4332714, 20.279876 ], [ -103.4330405, 20.2797582 ], [ -103.4327267, 20.2796216 ], [ -103.4325554, 20.2794218 ], [ -103.4324199, 20.2793214 ], [ -103.4323529, 20.279192 ], [ -103.4322281, 20.279067 ], [ -103.4320915, 20.2789421 ], [ -103.4320529, 20.2787479 ], [ -103.4319944, 20.278635 ], [ -103.4319572, 20.2785074 ], [ -103.4318617, 20.2783868 ], [ -103.4318096, 20.2782447 ], [ -103.4316624, 20.2780331 ], [ -103.4316275, 20.2777229 ], [ -103.4315552, 20.2774959 ], [ -103.4314079, 20.2772043 ], [ -103.4313291, 20.276983 ], [ -103.4311872, 20.276802 ], [ -103.4311227, 20.2764092 ], [ -103.4310337, 20.2761985 ], [ -103.4307642, 20.27596 ], [ -103.4305855, 20.275575 ], [ -103.4307654, 20.2752132 ], [ -103.437019, 20.2732498 ], [ -103.4364124, 20.2755975 ], [ -103.4375261, 20.2758278 ], [ -103.4371899, 20.2772046 ], [ -103.4375771, 20.2774734 ], [ -103.4377268, 20.2775066 ], [ -103.4393114, 20.278016 ], [ -103.4396368, 20.2784718 ], [ -103.4397789, 20.278578 ], [ -103.4404081, 20.2786431 ], [ -103.4410485, 20.2786356 ], [ -103.4419392, 20.278719 ], [ -103.4442713, 20.2790522 ], [ -103.4422107, 20.279814 ], [ -103.439573, 20.280787 ], [ -103.4378652, 20.281417 ], [ -103.4372599, 20.2816111 ], [ -103.4358864, 20.2821151 ], [ -103.4351711, 20.2824 ], [ -103.4348373, 20.2825292 ], [ -103.4346481, 20.2825942 ], [ -103.43398, 20.2828283 ], [ -103.4340975, 20.2819755 ], [ -103.4341389, 20.281678 ], [ -103.4342278, 20.2811472 ] ] ] } },
{ "type": "Feature", "properties": { "OBJECTID": 35944, "CVE_COL": "14050_0016", "ID_COL": 35944, "COLONIA": "La Purisima Y La Calabaza", "CP": "45800", "CVE_ENT": "14", "NOM_ENT": "Jalisco", "MUN": "050", "CVE_MUN": "14050", "NOM_MUN": "Jocotepec", "LOC": "0001", "CVE_LOC": "140500001", "NOM_LOC": "Jocotepec", "SUN_2018": null, "NOM_SUN": null, "POBTOT": 623.755112, "P6A14NAE": 11.233543, "SBASC": 43.364482, "PSDSS": 38.604386, "OVSDE": 0.042269, "OVSEE": 0.276655, "OVSAE": 0.315998, "OVPT": 2.356083, "OVHAC": 34.159617, "OVSREF": 4.50613, "OVSINT": 50.260544, "OVSCEL": 6.41454, "IM_2020": 145.63373224307699, "GM_2020": "Alto", "IMN_2020": 0.92850249851139999, "CLASIF": "Barrio" }, "geometry": { "type": "Polygon", "coordinates": [ [ [ -103.4344013, 20.2895777 ], [ -103.434617, 20.2884895 ], [ -103.434696, 20.2880895 ], [ -103.4349476, 20.2867517 ], [ -103.4357405, 20.2868936 ], [ -103.4362159, 20.2870178 ], [ -103.4362045, 20.2871887 ], [ -103.4359299, 20.2883598 ], [ -103.4368402, 20.2885094 ], [ -103.4376755, 20.28867 ], [ -103.4388857, 20.2888223 ], [ -103.4387002, 20.2902448 ], [ -103.4385917, 20.29123 ], [ -103.4378758, 20.2911232 ], [ -103.438021, 20.290124 ], [ -103.4376937, 20.2900908 ], [ -103.4373696, 20.2900395 ], [ -103.4366873, 20.2899206 ], [ -103.4356808, 20.2897665 ], [ -103.4344013, 20.2895777 ] ] ] } },
{ "type": "Feature", "properties": { "OBJECTID": 35945, "CVE_COL": "14050_0017", "ID_COL": 35945, "COLONIA": "La Unidad deportiva", "CP": "45800", "CVE_ENT": "14", "NOM_ENT": "Jalisco", "MUN": "050", "CVE_MUN": "14050", "NOM_MUN": "Jocotepec", "LOC": "0001", "CVE_LOC": "140500001", "NOM_LOC": "Jocotepec", "SUN_2018": null, "NOM_SUN": null, "POBTOT": 730.803444, "P6A14NAE": 10.891451, "SBASC": 41.15764, "PSDSS": 36.843991, "OVSDE": 0.0422, "OVSEE": 0.290156, "OVSAE": 0.102471, "OVPT": 3.890595, "OVHAC": 32.04941, "OVSREF": 4.357858, "OVSINT": 46.647827, "OVSCEL": 5.145463, "IM_2020": 146.034838530282, "GM_2020": "Alto", "IMN_2020": 0.93105979196330002, "CLASIF": "Barrio" }, "geometry": { "type": "Polygon", "coordinates": [ [ [ -103.433783, 20.2929296 ], [ -103.4338048, 20.2928288 ], [ -103.4338949, 20.2923621 ], [ -103.433999, 20.2918706 ], [ -103.4341093, 20.2911715 ], [ -103.4342389, 20.2904307 ], [ -103.4344013, 20.2895777 ], [ -103.4356808, 20.2897665 ], [ -103.4366873, 20.2899206 ], [ -103.4373696, 20.2900395 ], [ -103.4376937, 20.2900908 ], [ -103.438021, 20.290124 ], [ -103.4378758, 20.2911232 ], [ -103.4385917, 20.29123 ], [ -103.4387002, 20.2902448 ], [ -103.4394247, 20.2903676 ], [ -103.4393672, 20.2906545 ], [ -103.4393024, 20.291349 ], [ -103.439229, 20.2920389 ], [ -103.4391008, 20.2928922 ], [ -103.4389938, 20.2933426 ], [ -103.4393521, 20.2934703 ], [ -103.4393171, 20.2939337 ], [ -103.438315, 20.2937471 ], [ -103.437527, 20.2936004 ], [ -103.4370866, 20.2935284 ], [ -103.4364552, 20.293414 ], [ -103.4351579, 20.2931785 ], [ -103.434882, 20.2931284 ], [ -103.433783, 20.2929296 ] ] ] } },
{ "type": "Feature", "properties": { "OBJECTID": 35947, "CVE_COL": "14050_0018", "ID_COL": 35947, "COLONIA": "Los Huerta O Barrio de Los Herrera", "CP": "45800", "CVE_ENT": "14", "NOM_ENT": "Jalisco", "MUN": "050", "CVE_MUN": "14050", "NOM_MUN": "Jocotepec", "LOC": "0001", "CVE_LOC": "140500001", "NOM_LOC": "Jocotepec", "SUN_2018": null, "NOM_SUN": null, "POBTOT": 492.054707, "P6A14NAE": 12.8069, "SBASC": 45.426658, "PSDSS": 38.260677, "OVSDE": 0.055666, "OVSEE": 0.35255, "OVSAE": 0.483537, "OVPT": 2.526525, "OVHAC": 36.588817, "OVSREF": 5.119131, "OVSINT": 54.582824, "OVSCEL": 7.092006, "IM_2020": 144.86916009289899, "GM_2020": "Alto", "IMN_2020": 0.92362789191579997, "CLASIF": "Ejido" }, "geometry": { "type": "Polygon", "coordinates": [ [ [ -103.4250839, 20.2912812 ], [ -103.4250409, 20.2905401 ], [ -103.4249757, 20.2902747 ], [ -103.4249774, 20.2901028 ], [ -103.4250145, 20.2900128 ], [ -103.4250033, 20.2897272 ], [ -103.4249956, 20.2895307 ], [ -103.4250299, 20.2892221 ], [ -103.4251095, 20.2885704 ], [ -103.4257788, 20.2885773 ], [ -103.4263634, 20.2885977 ], [ -103.4276768, 20.2886223 ], [ -103.4275509, 20.2892952 ], [ -103.4274935, 20.2897785 ], [ -103.4274344, 20.29005 ], [ -103.4273647, 20.2903564 ], [ -103.4272463, 20.2910554 ], [ -103.4271963, 20.2914727 ], [ -103.4268839, 20.2914665 ], [ -103.4259869, 20.2913806 ], [ -103.4250839, 20.2912812 ] ] ] } },
{ "type": "Feature", "properties": { "OBJECTID": 35948, "CVE_COL": "14050_0019", "ID_COL": 35948, "COLONIA": "Los Mangos", "CP": "45800", "CVE_ENT": "14", "NOM_ENT": "Jalisco", "MUN": "050", "CVE_MUN": "14050", "NOM_MUN": "Jocotepec", "LOC": "0001", "CVE_LOC": "140500001", "NOM_LOC": "Jocotepec", "SUN_2018": null, "NOM_SUN": null, "POBTOT": 610.501472, "P6A14NAE": 7.062765, "SBASC": 39.505388, "PSDSS": 40.360863, "OVSDE": 0.008272, "OVSEE": 0.076002, "OVSAE": 0.008272, "OVPT": 1.141588, "OVHAC": 29.110408, "OVSREF": 3.048837, "OVSINT": 41.321301, "OVSCEL": 5.435454, "IM_2020": 147.42246484891399, "GM_2020": "Medio", "IMN_2020": 0.93990674303709998, "CLASIF": "Barrio" }, "geometry": { "type": "Polygon", "coordinates": [ [ [ -103.4327912, 20.2844566 ], [ -103.4329409, 20.2836352 ], [ -103.4330282, 20.2829911 ], [ -103.4332276, 20.2830177 ], [ -103.4334422, 20.2829948 ], [ -103.43398, 20.2828283 ], [ -103.4346481, 20.2825942 ], [ -103.4348373, 20.2825292 ], [ -103.4351711, 20.2824 ], [ -103.4358864, 20.2821151 ], [ -103.4372599, 20.2816111 ], [ -103.4370712, 20.2826343 ], [ -103.4368543, 20.2838101 ], [ -103.4367388, 20.2844363 ], [ -103.4367292, 20.2844861 ], [ -103.4365664, 20.2853272 ], [ -103.4353071, 20.2850774 ], [ -103.434096, 20.2847684 ], [ -103.4327912, 20.2844566 ] ] ] } },
{ "type": "Feature", "properties": { "OBJECTID": 35949, "CVE_COL": "14050_0020", "ID_COL": 35949, "COLONIA": "Magisterial", "CP": "45800", "CVE_ENT": "14", "NOM_ENT": "Jalisco", "MUN": "050", "CVE_MUN": "14050", "NOM_MUN": "Jocotepec", "LOC": "0001", "CVE_LOC": "140500001", "NOM_LOC": "Jocotepec", "SUN_2018": null, "NOM_SUN": null, "POBTOT": 589.551435, "P6A14NAE": 10.563167, "SBASC": 40.462688, "PSDSS": 36.613789, "OVSDE": 0.039918, "OVSEE": 0.279428, "OVSAE": 0.039918, "OVPT": 4.111582, "OVHAC": 31.297264, "OVSREF": 4.23146, "OVSINT": 45.337874, "OVSCEL": 4.830379, "IM_2020": 146.22949540459999, "GM_2020": "Alto", "IMN_2020": 0.93230084643169997, "CLASIF": "Barrio" }, "geometry": { "type": "Polygon", "coordinates": [ [ [ -103.4364626, 20.2858634 ], [ -103.4365664, 20.2853272 ], [ -103.4367292, 20.2844861 ], [ -103.4367388, 20.2844363 ], [ -103.4368543, 20.2838101 ], [ -103.4370712, 20.2826343 ], [ -103.4372599, 20.2816111 ], [ -103.4378652, 20.281417 ], [ -103.439573, 20.280787 ], [ -103.4422107, 20.279814 ], [ -103.4417749, 20.2818807 ], [ -103.441077, 20.2817558 ], [ -103.4404615, 20.2816457 ], [ -103.4400415, 20.2832385 ], [ -103.4401422, 20.2833463 ], [ -103.4405215, 20.2838537 ], [ -103.4407566, 20.2841845 ], [ -103.4408246, 20.2842539 ], [ -103.4411789, 20.284616 ], [ -103.4408518, 20.2858275 ], [ -103.4407098, 20.2865226 ], [ -103.440215, 20.2864093 ], [ -103.4398258, 20.2863279 ], [ -103.4397336, 20.286334 ], [ -103.4394593, 20.2864775 ], [ -103.4389711, 20.2863406 ], [ -103.4389464, 20.2863325 ], [ -103.4389217, 20.2863244 ], [ -103.4387591, 20.2862712 ], [ -103.4386833, 20.2862464 ], [ -103.4383763, 20.2861459 ], [ -103.4380209, 20.2860296 ], [ -103.4379978, 20.286027 ], [ -103.4379747, 20.2860244 ], [ -103.4379286, 20.2860191 ], [ -103.4378541, 20.2860105 ], [ -103.437254, 20.2859418 ], [ -103.4364626, 20.2858634 ] ] ] } },
{ "type": "Feature", "properties": { "OBJECTID": 35950, "CVE_COL": "14050_0021", "ID_COL": 35950, "COLONIA": "Nextipac", "CP": "45800", "CVE_ENT": "14", "NOM_ENT": "Jalisco", "MUN": "050", "CVE_MUN": "14050", "NOM_MUN": "Jocotepec", "LOC": "0001", "CVE_LOC": "140500001", "NOM_LOC": "Jocotepec", "SUN_2018": null, "NOM_SUN": null, "POBTOT": 5145.38028, "P6A14NAE": 12.483548, "SBASC": 43.498056, "PSDSS": 38.443458, "OVSDE": 0.034408, "OVSEE": 0.210579, "OVSAE": 0.358513, "OVPT": 2.365953, "OVHAC": 33.756975, "OVSREF": 4.72167, "OVSINT": 50.761009, "OVSCEL": 7.351094, "IM_2020": 145.32541365154901, "GM_2020": "Alto", "IMN_2020": 0.92653678234000003, "CLASIF": "Barrio" }, "geometry": { "type": "Polygon", "coordinates": [ [ [ -103.4178094, 20.2845434 ], [ -103.4187188, 20.2841389 ], [ -103.4192972, 20.2840446 ], [ -103.4204149, 20.2842328 ], [ -103.424027, 20.2848447 ], [ -103.4255532, 20.2850817 ], [ -103.4266995, 20.2852492 ], [ -103.4282353, 20.285503 ], [ -103.4290457, 20.2856287 ], [ -103.429053, 20.2857481 ], [ -103.4288513, 20.2867125 ], [ -103.4287616, 20.2875365 ], [ -103.4287523, 20.2876566 ], [ -103.428582, 20.2888348 ], [ -103.4276768, 20.2886223 ], [ -103.4263634, 20.2885977 ], [ -103.4257788, 20.2885773 ], [ -103.4251095, 20.2885704 ], [ -103.4250299, 20.2892221 ], [ -103.4249956, 20.2895307 ], [ -103.4250033, 20.2897272 ], [ -103.4250145, 20.2900128 ], [ -103.4249774, 20.2901028 ], [ -103.4249757, 20.2902747 ], [ -103.4250409, 20.2905401 ], [ -103.4250839, 20.2912812 ], [ -103.4203738, 20.2902155 ], [ -103.4197536, 20.2901525 ], [ -103.4195545, 20.2901379 ], [ -103.4192129, 20.2901128 ], [ -103.4188497, 20.2900862 ], [ -103.4186049, 20.2900683 ], [ -103.4181121, 20.2900313 ], [ -103.4178244, 20.2920578 ], [ -103.4174578, 20.2923529 ], [ -103.4172038, 20.2925225 ], [ -103.416892, 20.2924903 ], [ -103.4157353, 20.2922051 ], [ -103.4122639, 20.2926628 ], [ -103.4122309, 20.2920021 ], [ -103.4130592, 20.2916496 ], [ -103.4127742, 20.290332 ], [ -103.414442, 20.2895906 ], [ -103.4150729, 20.2889849 ], [ -103.4153521, 20.2885128 ], [ -103.4157972, 20.2877604 ], [ -103.4164616, 20.2866371 ], [ -103.4175856, 20.2847402 ], [ -103.4178094, 20.2845434 ] ] ] } },
{ "type": "Feature", "properties": { "OBJECTID": 35952, "CVE_COL": "14050_0022", "ID_COL": 35952, "COLONIA": "Puerta del Lago", "CP": "45800", "CVE_ENT": "14", "NOM_ENT": "Jalisco", "MUN": "050", "CVE_MUN": "14050", "NOM_MUN": "Jocotepec", "LOC": "0001", "CVE_LOC": "140500001", "NOM_LOC": "Jocotepec", "SUN_2018": null, "NOM_SUN": null, "POBTOT": 144.607986, "P6A14NAE": 12.815125, "SBASC": 45.476445, "PSDSS": 38.257785, "OVSDE": 0.056222, "OVSEE": 0.356072, "OVSAE": 0.487256, "OVPT": 2.529985, "OVHAC": 36.675415, "OVSREF": 5.134933, "OVSINT": 54.68516, "OVSCEL": 7.083958, "IM_2020": 144.85675852781699, "GM_2020": "Alto", "IMN_2020": 0.92354882449109998, "CLASIF": "Colonia" }, "geometry": { "type": "Polygon", "coordinates": [ [ [ -103.4186049, 20.2900683 ], [ -103.4188497, 20.2900862 ], [ -103.4192129, 20.2901128 ], [ -103.4195545, 20.2901379 ], [ -103.4197536, 20.2901525 ], [ -103.4196232, 20.2915262 ], [ -103.4184468, 20.2913984 ], [ -103.4186049, 20.2900683 ] ] ] } },
{ "type": "Feature", "properties": { "OBJECTID": 35953, "CVE_COL": "14050_0023", "ID_COL": 35953, "COLONIA": "San Cristobal Zapotitlan", "CP": "45800", "CVE_ENT": "14", "NOM_ENT": "Jalisco", "MUN": "050", "CVE_MUN": "14050", "NOM_MUN": "Jocotepec", "LOC": null, "CVE_LOC": null, "NOM_LOC": null, "SUN_2018": null, "NOM_SUN": null, "POBTOT": 2510.927734, "P6A14NAE": 10.071529, "SBASC": 47.48598, "PSDSS": 38.501926, "OVSDE": 0.0, "OVSEE": 0.366167, "OVSAE": 0.932337, "OVPT": 4.2268, "OVHAC": 42.934426, "OVSREF": 8.551417, "OVSINT": 46.596835, "OVSCEL": 3.537118, "IM_2020": 145.086226024345, "GM_2020": "Alto", "IMN_2020": 0.92501181758039996, "CLASIF": "-" }, "geometry": { "type": "Polygon", "coordinates": [ [ [ -103.3804781, 20.2256914 ], [ -103.3804768, 20.2256901 ], [ -103.3800092, 20.2256886 ], [ -103.3798447, 20.2256385 ], [ -103.3798436, 20.2256382 ], [ -103.3796574, 20.2255815 ], [ -103.3791715, 20.2255894 ], [ -103.3780716, 20.2257235 ], [ -103.3780715, 20.2257235 ], [ -103.3780707, 20.2257236 ], [ -103.378073, 20.2257485 ], [ -103.3780733, 20.2257517 ], [ -103.3780915, 20.2259498 ], [ -103.3780641, 20.2259697 ], [ -103.3774742, 20.2261082 ], [ -103.376628, 20.2264023 ], [ -103.3754049, 20.2265831 ], [ -103.3746757, 20.2267959 ], [ -103.3737417, 20.227144 ], [ -103.3726654, 20.227189 ], [ -103.3718795, 20.227264 ], [ -103.3713834, 20.2274043 ], [ -103.3702409, 20.2273808 ], [ -103.3702399, 20.2273807 ], [ -103.3702294, 20.2273791 ], [ -103.3701645, 20.2273695 ], [ -103.3698083, 20.2273169 ], [ -103.3696523, 20.2273279 ], [ -103.3694689, 20.2273408 ], [ -103.3694039, 20.227305 ], [ -103.3692836, 20.2272389 ], [ -103.3692316, 20.2272563 ], [ -103.3692265, 20.227255 ], [ -103.3692251, 20.2272546 ], [ -103.3690254, 20.2272045 ], [ -103.3684341, 20.2270561 ], [ -103.3678234, 20.2266769 ], [ -103.3677575, 20.2266421 ], [ -103.3676488, 20.2265847 ], [ -103.3674822, 20.2265236 ], [ -103.3673541, 20.2264766 ], [ -103.367153, 20.2265133 ], [ -103.3670519, 20.2265318 ], [ -103.3670508, 20.226532 ], [ -103.3667297, 20.2266173 ], [ -103.3659689, 20.2268195 ], [ -103.3655238, 20.2269378 ], [ -103.3654699, 20.2267317 ], [ -103.365179, 20.2265296 ], [ -103.3650305, 20.2263931 ], [ -103.3642725, 20.2259822 ], [ -103.3642707, 20.2259807 ], [ -103.364155, 20.2258922 ], [ -103.3640953, 20.2258449 ], [ -103.3642987, 20.2246946 ], [ -103.364457, 20.2245481 ], [ -103.364917, 20.2229121 ], [ -103.3645505, 20.2227672 ], [ -103.3647745, 20.2223546 ], [ -103.364948, 20.222292 ], [ -103.3654726, 20.2217475 ], [ -103.3662852, 20.2220044 ], [ -103.3666223, 20.2207925 ], [ -103.3670219, 20.2208742 ], [ -103.367143, 20.2202035 ], [ -103.3674245, 20.2188355 ], [ -103.3675277, 20.218273 ], [ -103.3683901, 20.2176487 ], [ -103.3741873, 20.2184881 ], [ -103.3744387, 20.2170266 ], [ -103.3744575, 20.2167732 ], [ -103.3811784, 20.2173752 ], [ -103.3828618, 20.2178348 ], [ -103.382035, 20.218321 ], [ -103.3813222, 20.2190733 ], [ -103.3806802, 20.2208694 ], [ -103.3806525, 20.2210675 ], [ -103.3807456, 20.2213637 ], [ -103.3807446, 20.2216915 ], [ -103.3805543, 20.2222684 ], [ -103.3805727, 20.2225559 ], [ -103.3806741, 20.2229042 ], [ -103.3807311, 20.2234112 ], [ -103.3808248, 20.2236865 ], [ -103.3808591, 20.2239619 ], [ -103.3807527, 20.2244724 ], [ -103.3808784, 20.2258926 ], [ -103.3806751, 20.2258988 ], [ -103.3804781, 20.2256914 ] ] ] } },
{ "type": "Feature", "properties": { "OBJECTID": 35954, "CVE_COL": "14050_0024", "ID_COL": 35954, "COLONIA": "San Juan Cosala", "CP": "45800", "CVE_ENT": "14", "NOM_ENT": "Jalisco", "MUN": "050", "CVE_MUN": "14050", "NOM_MUN": "Jocotepec", "LOC": "0011", "CVE_LOC": "140500011", "NOM_LOC": "San Juan CosalÃ¡", "SUN_2018": null, "NOM_SUN": null, "POBTOT": 7492.954084, "P6A14NAE": 8.941969, "SBASC": 49.671388, "PSDSS": 42.25464, "OVSDE": 0.376209, "OVSEE": 0.20816, "OVSAE": 1.390863, "OVPT": 2.578212, "OVHAC": 47.592306, "OVSREF": 9.205495, "OVSINT": 54.384809, "OVSCEL": 4.179081, "IM_2020": 144.665121230408, "GM_2020": "Alto", "IMN_2020": 0.92232702163869995, "CLASIF": "-" }, "geometry": { "type": "Polygon", "coordinates": [ [ [ -103.3415497, 20.2846869 ], [ -103.342117, 20.2851734 ], [ -103.3428535, 20.2857379 ], [ -103.3431773, 20.286074 ], [ -103.3437301, 20.2862345 ], [ -103.3443176, 20.2863499 ], [ -103.3447184, 20.2867371 ], [ -103.3452497, 20.2872414 ], [ -103.3455169, 20.2876562 ], [ -103.3457582, 20.287862 ], [ -103.3465087, 20.2881949 ], [ -103.3475336, 20.2883908 ], [ -103.3486501, 20.2885003 ], [ -103.3494258, 20.2887243 ], [ -103.35016, 20.2889957 ], [ -103.3509246, 20.2891347 ], [ -103.35165, 20.2890907 ], [ -103.3517072, 20.2890801 ], [ -103.3517116, 20.2890872 ], [ -103.3519948, 20.2892692 ], [ -103.3527017, 20.2892487 ], [ -103.3527771, 20.2892665 ], [ -103.3530966, 20.2894098 ], [ -103.3535047, 20.2894383 ], [ -103.3537948, 20.2895069 ], [ -103.3540721, 20.289588 ], [ -103.354029, 20.2897528 ], [ -103.3540044, 20.2898624 ], [ -103.3537631, 20.2909309 ], [ -103.3537035, 20.2911907 ], [ -103.3535898, 20.2915979 ], [ -103.3535555, 20.291724 ], [ -103.3535305, 20.2918265 ], [ -103.3534855, 20.291992 ], [ -103.3533946, 20.292282 ], [ -103.3532891, 20.2925706 ], [ -103.3530666, 20.2931684 ], [ -103.353016, 20.2933115 ], [ -103.3522473, 20.2932205 ], [ -103.3520695, 20.2931995 ], [ -103.3514321, 20.2931591 ], [ -103.3508131, 20.2931017 ], [ -103.3504652, 20.2930873 ], [ -103.3503033, 20.2930625 ], [ -103.3504749, 20.292342 ], [ -103.3504351, 20.2923378 ], [ -103.3492189, 20.2922098 ], [ -103.3485635, 20.292152 ], [ -103.3474028, 20.2920826 ], [ -103.3471976, 20.2920703 ], [ -103.3459959, 20.291973 ], [ -103.3441568, 20.2918353 ], [ -103.3432757, 20.2926886 ], [ -103.3423181, 20.2936029 ], [ -103.3412243, 20.2934065 ], [ -103.3406134, 20.2925926 ], [ -103.3408385, 20.291993 ], [ -103.3393607, 20.2921509 ], [ -103.3389625, 20.2926543 ], [ -103.3386587, 20.2930383 ], [ -103.3381257, 20.2934631 ], [ -103.337703, 20.293803 ], [ -103.3372968, 20.2942977 ], [ -103.3367987, 20.2948604 ], [ -103.3357883, 20.2956245 ], [ -103.3348844, 20.2966475 ], [ -103.3335013, 20.2964624 ], [ -103.3322628, 20.296399 ], [ -103.3310614, 20.2962672 ], [ -103.3304113, 20.2957677 ], [ -103.3292991, 20.2956885 ], [ -103.3285388, 20.2959391 ], [ -103.3280126, 20.296189 ], [ -103.3275446, 20.2962732 ], [ -103.3276021, 20.295818 ], [ -103.3269628, 20.2961077 ], [ -103.326549, 20.2959867 ], [ -103.3259235, 20.2954725 ], [ -103.3266839, 20.2925721 ], [ -103.3282283, 20.2867714 ], [ -103.3285283, 20.2858409 ], [ -103.329196, 20.2857403 ], [ -103.329808, 20.285532 ], [ -103.3305346, 20.2852311 ], [ -103.3310194, 20.2848993 ], [ -103.3316748, 20.2847067 ], [ -103.332086, 20.2844938 ], [ -103.3323563, 20.284333 ], [ -103.3325816, 20.284199 ], [ -103.3326951, 20.2841895 ], [ -103.3327518, 20.2841847 ], [ -103.3328085, 20.28418 ], [ -103.3329857, 20.2842696 ], [ -103.3330794, 20.2844111 ], [ -103.3332672, 20.2844755 ], [ -103.3333808, 20.2845 ], [ -103.3334532, 20.2845065 ], [ -103.3334921, 20.2845499 ], [ -103.3336246, 20.2845482 ], [ -103.3336723, 20.2845477 ], [ -103.333727, 20.2845668 ], [ -103.3338316, 20.284559 ], [ -103.3338547, 20.2845547 ], [ -103.3339406, 20.2845385 ], [ -103.334034, 20.284516 ], [ -103.3340657, 20.2845068 ], [ -103.3340935, 20.2844988 ], [ -103.3341358, 20.2844867 ], [ -103.3341844, 20.28449 ], [ -103.3341981, 20.2844672 ], [ -103.3342118, 20.2844444 ], [ -103.3342962, 20.2843934 ], [ -103.3344049, 20.2843935 ], [ -103.3344555, 20.2844057 ], [ -103.3345043, 20.2844013 ], [ -103.334567, 20.2843442 ], [ -103.3346089, 20.2842958 ], [ -103.3346642, 20.2842572 ], [ -103.3347337, 20.2842452 ], [ -103.3349501, 20.2841495 ], [ -103.3350995, 20.2841236 ], [ -103.3352571, 20.2841075 ], [ -103.3353923, 20.2840443 ], [ -103.335498, 20.2840414 ], [ -103.335579, 20.2840148 ], [ -103.3357073, 20.2840239 ], [ -103.3359044, 20.2839906 ], [ -103.336018, 20.284019 ], [ -103.3361171, 20.2840434 ], [ -103.3362083, 20.2840403 ], [ -103.3362717, 20.2840136 ], [ -103.3363352, 20.2839868 ], [ -103.3364109, 20.2838742 ], [ -103.3365539, 20.2836782 ], [ -103.3367164, 20.2835801 ], [ -103.3368583, 20.2834779 ], [ -103.3368981, 20.2834793 ], [ -103.3370053, 20.2834832 ], [ -103.3371017, 20.2835682 ], [ -103.3371662, 20.283607 ], [ -103.337184, 20.2836178 ], [ -103.3373291, 20.2836113 ], [ -103.3374846, 20.2835921 ], [ -103.3376378, 20.2835947 ], [ -103.337765, 20.283611 ], [ -103.3379251, 20.2836407 ], [ -103.33809, 20.2837182 ], [ -103.338253, 20.2837725 ], [ -103.3383419, 20.283789 ], [ -103.3384653, 20.2838632 ], [ -103.3386982, 20.2839975 ], [ -103.3387282, 20.2840265 ], [ -103.3387892, 20.2840854 ], [ -103.3388407, 20.2841806 ], [ -103.3389203, 20.2842465 ], [ -103.3389824, 20.2842933 ], [ -103.3390358, 20.2843329 ], [ -103.3390972, 20.2843998 ], [ -103.33913, 20.2844354 ], [ -103.3392643, 20.284464 ], [ -103.3393452, 20.2844351 ], [ -103.3394261, 20.2844061 ], [ -103.3395325, 20.2844076 ], [ -103.3395546, 20.2844079 ], [ -103.3396128, 20.2844087 ], [ -103.3397678, 20.2844356 ], [ -103.3398942, 20.2844251 ], [ -103.339979, 20.2844415 ], [ -103.3400825, 20.2844445 ], [ -103.3402174, 20.2844739 ], [ -103.3402416, 20.2844792 ], [ -103.3404494, 20.2844108 ], [ -103.3407588, 20.2843336 ], [ -103.3409773, 20.2842602 ], [ -103.3415497, 20.2846869 ] ] ] } },
{ "type": "Feature", "properties": { "OBJECTID": 35956, "CVE_COL": "14050_0025", "ID_COL": 35956, "COLONIA": "Sin Nombre", "CP": "45800", "CVE_ENT": "14", "NOM_ENT": "Jalisco", "MUN": "050", "CVE_MUN": "14050", "NOM_MUN": "Jocotepec", "LOC": "0001", "CVE_LOC": "140500001", "NOM_LOC": "Jocotepec", "SUN_2018": null, "NOM_SUN": null, "POBTOT": 1772.877317, "P6A14NAE": 11.313742, "SBASC": 40.515628, "PSDSS": 38.892249, "OVSDE": 0.000469, "OVSEE": 0.006364, "OVSAE": 0.219748, "OVPT": 1.842338, "OVHAC": 31.234015, "OVSREF": 4.630067, "OVSINT": 45.238051, "OVSCEL": 7.15663, "IM_2020": 146.14094246757799, "GM_2020": "Alto", "IMN_2020": 0.9317362682807, "CLASIF": "-" }, "geometry": { "type": "MultiPolygon", "coordinates": [ [ [ [ -103.4349476, 20.2867517 ], [ -103.4351973, 20.2856147 ], [ -103.4326912, 20.2850338 ], [ -103.4327912, 20.2844566 ], [ -103.434096, 20.2847684 ], [ -103.4353071, 20.2850774 ], [ -103.4365664, 20.2853272 ], [ -103.4364626, 20.2858634 ], [ -103.436399, 20.28618 ], [ -103.4363152, 20.286614 ], [ -103.4362159, 20.2870178 ], [ -103.4357405, 20.2868936 ], [ -103.4349476, 20.2867517 ] ] ], [ [ [ -103.4192972, 20.2840446 ], [ -103.4196125, 20.2829031 ], [ -103.4196811, 20.28276 ], [ -103.4199876, 20.2817417 ], [ -103.4202199, 20.2810585 ], [ -103.4245067, 20.2818608 ], [ -103.4261027, 20.2821155 ], [ -103.4271891, 20.2822808 ], [ -103.42753, 20.2823221 ], [ -103.4279922, 20.2823896 ], [ -103.428861, 20.2825126 ], [ -103.4289208, 20.2820319 ], [ -103.4292329, 20.2802892 ], [ -103.4298546, 20.2803324 ], [ -103.4294934, 20.2825901 ], [ -103.4309162, 20.2827855 ], [ -103.4306732, 20.2840029 ], [ -103.4292969, 20.2837521 ], [ -103.4291539, 20.2844461 ], [ -103.4290457, 20.2856287 ], [ -103.4282353, 20.285503 ], [ -103.4266995, 20.2852492 ], [ -103.4255532, 20.2850817 ], [ -103.424027, 20.2848447 ], [ -103.4204149, 20.2842328 ], [ -103.4192972, 20.2840446 ] ] ] ] } },
{ "type": "Feature", "properties": { "OBJECTID": 35957, "CVE_COL": "14050_0026", "ID_COL": 35957, "COLONIA": "Unidad deportiva Sur", "CP": "45800", "CVE_ENT": "14", "NOM_ENT": "Jalisco", "MUN": "050", "CVE_MUN": "14050", "NOM_MUN": "Jocotepec", "LOC": "0001", "CVE_LOC": "140500001", "NOM_LOC": "Jocotepec", "SUN_2018": null, "NOM_SUN": null, "POBTOT": 937.054259, "P6A14NAE": 9.931333, "SBASC": 40.373525, "PSDSS": 39.384298, "OVSDE": 0.0, "OVSEE": 0.007252, "OVSAE": 0.078525, "OVPT": 1.623681, "OVHAC": 28.130433, "OVSREF": 3.292631, "OVSINT": 43.099181, "OVSCEL": 7.185363, "IM_2020": 146.64864006505999, "GM_2020": "Alto", "IMN_2020": 0.93497314534539999, "CLASIF": "Barrio" }, "geometry": { "type": "Polygon", "coordinates": [ [ [ -103.4333096, 20.2809535 ], [ -103.4323053, 20.2807581 ], [ -103.4313072, 20.2805559 ], [ -103.4298546, 20.2803324 ], [ -103.4292329, 20.2802892 ], [ -103.4291651, 20.2802102 ], [ -103.429418, 20.2763748 ], [ -103.4295202, 20.2751799 ], [ -103.4294975, 20.2746154 ], [ -103.4296171, 20.2746786 ], [ -103.4300888, 20.2748854 ], [ -103.430395, 20.2750343 ], [ -103.4307654, 20.2752132 ], [ -103.4305855, 20.275575 ], [ -103.4307642, 20.27596 ], [ -103.4310337, 20.2761985 ], [ -103.4311227, 20.2764092 ], [ -103.4311872, 20.276802 ], [ -103.4313291, 20.276983 ], [ -103.4314079, 20.2772043 ], [ -103.4315552, 20.2774959 ], [ -103.4316275, 20.2777229 ], [ -103.4316624, 20.2780331 ], [ -103.4318096, 20.2782447 ], [ -103.4318617, 20.2783868 ], [ -103.4319572, 20.2785074 ], [ -103.4319944, 20.278635 ], [ -103.4320529, 20.2787479 ], [ -103.4320915, 20.2789421 ], [ -103.4322281, 20.279067 ], [ -103.4323529, 20.279192 ], [ -103.4324199, 20.2793214 ], [ -103.4325554, 20.2794218 ], [ -103.4327267, 20.2796216 ], [ -103.4330405, 20.2797582 ], [ -103.4332714, 20.279876 ], [ -103.4335055, 20.2800102 ], [ -103.4338332, 20.2800826 ], [ -103.4339944, 20.2800714 ], [ -103.4341652, 20.2801101 ], [ -103.4344001, 20.2801834 ], [ -103.4342278, 20.2811472 ], [ -103.4333096, 20.2809535 ] ] ] } },
{ "type": "Feature", "properties": { "OBJECTID": 35958, "CVE_COL": "14050_0027", "ID_COL": 35958, "COLONIA": "Virgen de Guadalupe", "CP": "45800", "CVE_ENT": "14", "NOM_ENT": "Jalisco", "MUN": "050", "CVE_MUN": "14050", "NOM_MUN": "Jocotepec", "LOC": "0001", "CVE_LOC": "140500001", "NOM_LOC": "Jocotepec", "SUN_2018": null, "NOM_SUN": null, "POBTOT": 280.240175, "P6A14NAE": 11.596802, "SBASC": 30.356091, "PSDSS": 57.312188, "OVSDE": 0.0, "OVSEE": 1.209153, "OVSAE": 0.001465, "OVPT": 0.027236, "OVHAC": 17.481212, "OVSREF": 2.463296, "OVSINT": 35.621592, "OVSCEL": 4.532246, "IM_2020": 145.728094859116, "GM_2020": "Alto", "IMN_2020": 0.92910411685500005, "CLASIF": "Barrio" }, "geometry": { "type": "Polygon", "coordinates": [ [ [ -103.4202199, 20.2810585 ], [ -103.4220308, 20.274565 ], [ -103.4257053, 20.2755039 ], [ -103.4269251, 20.2757848 ], [ -103.429418, 20.2763748 ], [ -103.4291651, 20.2802102 ], [ -103.4292329, 20.2802892 ], [ -103.4289208, 20.2820319 ], [ -103.428861, 20.2825126 ], [ -103.4279922, 20.2823896 ], [ -103.42753, 20.2823221 ], [ -103.4271891, 20.2822808 ], [ -103.4261027, 20.2821155 ], [ -103.4245067, 20.2818608 ], [ -103.4202199, 20.2810585 ] ] ] } },
{ "type": "Feature", "properties": { "OBJECTID": 35959, "CVE_COL": "14050_0028", "ID_COL": 35959, "COLONIA": "Zapotitan de Hidalgo", "CP": "45800", "CVE_ENT": "14", "NOM_ENT": "Jalisco", "MUN": "050", "CVE_MUN": "14050", "NOM_MUN": "Jocotepec", "LOC": "0017", "CVE_LOC": "140500017", "NOM_LOC": "ZapotitÃ¡n de Hidalgo", "SUN_2018": null, "NOM_SUN": null, "POBTOT": 3462.455414, "P6A14NAE": 11.856302, "SBASC": 49.435231, "PSDSS": 37.673795, "OVSDE": 0.350725, "OVSEE": 0.0, "OVSAE": 0.151972, "OVPT": 1.572855, "OVHAC": 32.525023, "OVSREF": 6.03141, "OVSINT": 55.952317, "OVSCEL": 4.470925, "IM_2020": 145.31629972527799, "GM_2020": "Alto", "IMN_2020": 0.92647867558700003, "CLASIF": "-" }, "geometry": { "type": "Polygon", "coordinates": [ [ [ -103.4711929, 20.3242989 ], [ -103.4711752, 20.3199089 ], [ -103.4763921, 20.3186512 ], [ -103.4781773, 20.3182207 ], [ -103.481907, 20.3212724 ], [ -103.4836321, 20.3215031 ], [ -103.484877, 20.3214899 ], [ -103.4854473, 20.3221827 ], [ -103.4856835, 20.3224379 ], [ -103.4885659, 20.3205919 ], [ -103.4892079, 20.3201807 ], [ -103.4897321, 20.319845 ], [ -103.4899881, 20.3196888 ], [ -103.4925845, 20.3225244 ], [ -103.4929709, 20.3229551 ], [ -103.4937084, 20.3240047 ], [ -103.4888465, 20.3261457 ], [ -103.4894554, 20.3287183 ], [ -103.48729, 20.3293465 ], [ -103.487987, 20.3308143 ], [ -103.4854969, 20.3334765 ], [ -103.4807213, 20.3334351 ], [ -103.4785637, 20.3306606 ], [ -103.4776278, 20.3302451 ], [ -103.4772011, 20.3297142 ], [ -103.4768986, 20.329472 ], [ -103.4766714, 20.3293262 ], [ -103.4764307, 20.3292642 ], [ -103.47619, 20.3292022 ], [ -103.4739429, 20.3283185 ], [ -103.4735929, 20.3281809 ], [ -103.4729828, 20.327941 ], [ -103.4712047, 20.3272417 ], [ -103.4711929, 20.3242989 ] ] ] } }
]
}
