{
"type": "FeatureCollection",
"name": "CULTURA_JOCO",
"crs": { "type": "name", "properties": { "name": "urn:ogc:def:crs:OGC:1.3:CRS84" } },
"features": [
{ "type": "Feature", "properties": { "id": 1635332, "clee": "14050931210000011010000000U5", "nom_estab": "CULTURA Y DEPORTE DE SAN JUAN COSALA", "raz_social": "H AYUNTAMIENTO DE JOCOTEPEC JALISCO", "codigo_act": "711312", "nombre_act": "Promotores del sector público de espectáculos artísticos, culturales, deportivos y similares que cuentan con instalaciones para presentarlos", "per_ocu": "0 a 5 personas", "tipo_vial": "CALLE", "nom_vial": "CALLE DEL CARDENAL", "tipo_v_e_1": "CARRETERA", "nom_v_e_1": "JOCOTEPEC-CHAPALA", "tipo_v_e_2": "CALLE", "nom_v_e_2": "PORFIRIO DIAZ", "tipo_v_e_3": "CALLE", "nom_v_e_3": "ITURBIDE", "numero_ext": null, "letra_ext": "DOMICILIO CONOCIDO", "edificio": null, "edificio_e": null, "numero_int": "0", "letra_int": null, "tipo_asent": "MANZANA", "nomb_asent": "SAN JUAN COSALA", "tipoCenCom": null, "nom_CenCom": null, "num_local": null, "cod_postal": "45800", "cve_ent": "14", "entidad": "JALISCO", "cve_mun": "050", "municipio": "Jocotepec", "cve_loc": "0011", "localidad": "San Juan Cosalá", "ageb": "0201", "manzana": "013", "telefono": null, "correoelec": null, "www": null, "tipoUniEco": "Fijo", "latitud": 20.28721466, "longitud": -103.34053677, "fecha_alta": "2010-07" }, "geometry": { "type": "Point", "coordinates": [ -103.3405368, 20.2872147 ] } },
{ "type": "Feature", "properties": { "id": 1634841, "clee": "14050531113000121001000000U2", "nom_estab": "LIENZO CHARRO JOCOTEPEC", "raz_social": "MANUEL OLMEDO RAMOS SA", "codigo_act": "711311", "nombre_act": "Promotores del sector privado de espectáculos artísticos, culturales, deportivos y similares que cuentan con instalaciones para presentarlos", "per_ocu": "11 a 30 personas", "tipo_vial": "CALLE", "nom_vial": "DEGOLLADO", "tipo_v_e_1": "CALLE", "nom_v_e_1": "MATAMOROS NORTE", "tipo_v_e_2": "PROLONGACION", "nom_v_e_2": "PEDRO MORENO", "tipo_v_e_3": "CALLE", "nom_v_e_3": "ALDAMA ORIENTE", "numero_ext": "177", "letra_ext": null, "edificio": null, "edificio_e": null, "numero_int": "0", "letra_int": null, "tipo_asent": "COLONIA", "nomb_asent": "CENTRO", "tipoCenCom": null, "nom_CenCom": null, "num_local": null, "cod_postal": "45800", "cve_ent": "14", "entidad": "JALISCO", "cve_mun": "050", "municipio": "Jocotepec", "cve_loc": "0001", "localidad": "Jocotepec", "ageb": "0184", "manzana": "007", "telefono": null, "correoelec": null, "www": null, "tipoUniEco": "Fijo", "latitud": 20.28756699, "longitud": -103.42659094, "fecha_alta": "2010-07" }, "geometry": { "type": "Point", "coordinates": [ -103.4265909, 20.287567 ] } },
{ "type": "Feature", "properties": { "id": 10886616, "clee": "14050711131000021000000000U8", "nom_estab": "MUSICO PROFESIONAL", "raz_social": null, "codigo_act": "711131", "nombre_act": "Cantantes y grupos musicales del sector privado", "per_ocu": "0 a 5 personas", "tipo_vial": "CALLE", "nom_vial": "MORELOS PONIENTE", "tipo_v_e_1": "CALLE", "nom_v_e_1": "NIÑOS HEROES NORTE", "tipo_v_e_2": "CALLE", "nom_v_e_2": "LOPEZ RAYON", "tipo_v_e_3": "CALLE", "nom_v_e_3": "JAVIER MINA", "numero_ext": "180", "letra_ext": null, "edificio": null, "edificio_e": null, "numero_int": null, "letra_int": null, "tipo_asent": "MANZANA", "nomb_asent": "JOCOTEPEC", "tipoCenCom": null, "nom_CenCom": null, "num_local": null, "cod_postal": "45800", "cve_ent": "14", "entidad": "JALISCO", "cve_mun": "050", "municipio": "Jocotepec", "cve_loc": "0001", "localidad": "Jocotepec", "ageb": "017A", "manzana": "008", "telefono": "3314678491", "correoelec": null, "www": null, "tipoUniEco": "Fijo", "latitud": 20.28652544, "longitud": -103.43377689, "fecha_alta": "2024-11" }, "geometry": { "type": "Point", "coordinates": [ -103.4337769, 20.2865254 ] } },
{ "type": "Feature", "properties": { "id": 1633946, "clee": "14050711311000011000000000U7", "nom_estab": "PLAZA DE TOROS ZAPOTITAN", "raz_social": null, "codigo_act": "711311", "nombre_act": "Promotores del sector privado de espectáculos artísticos, culturales, deportivos y similares que cuentan con instalaciones para presentarlos", "per_ocu": "0 a 5 personas", "tipo_vial": "CALLE", "nom_vial": "18 DE MARZO", "tipo_v_e_1": "OTRO(ESPECIFIQUE)", "nom_v_e_1": "NINGUNO", "tipo_v_e_2": "CALLE", "nom_v_e_2": "LUIS GOMEZ", "tipo_v_e_3": "OTRO(ESPECIFIQUE)", "nom_v_e_3": "NINGUNO", "numero_ext": "201", "letra_ext": null, "edificio": null, "edificio_e": null, "numero_int": null, "letra_int": null, "tipo_asent": "EJIDO", "nomb_asent": "ZAPOTITAN DE HIDALGO", "tipoCenCom": null, "nom_CenCom": null, "num_local": null, "cod_postal": "45810", "cve_ent": "14", "entidad": "JALISCO", "cve_mun": "050", "municipio": "Jocotepec", "cve_loc": "0017", "localidad": "Zapotitán de Hidalgo", "ageb": "0324", "manzana": "004", "telefono": "3312863176", "correoelec": null, "www": null, "tipoUniEco": "Fijo", "latitud": 20.32935088, "longitud": -103.48489089, "fecha_alta": "2010-07" }, "geometry": { "type": "Point", "coordinates": [ -103.4848909, 20.3293509 ] } },
{ "type": "Feature", "properties": { "id": 1634393, "clee": "14050531115000011010000000U0", "nom_estab": "AUDITORIO ANTONIO PALOMARES PEÑA", "raz_social": "AYUNTAMIENTO DE JOCOTEPEC JALISCO", "codigo_act": "711312", "nombre_act": "Promotores del sector público de espectáculos artísticos, culturales, deportivos y similares que cuentan con instalaciones para presentarlos", "per_ocu": "0 a 5 personas", "tipo_vial": "CALLE", "nom_vial": "HIDALGO SUR", "tipo_v_e_1": "OTRO(ESPECIFIQUE)", "nom_v_e_1": "NINGUNO", "tipo_v_e_2": "CALLE", "nom_v_e_2": "DONATO GUERRA ORIENTE", "tipo_v_e_3": "CALLE", "nom_v_e_3": "MATAMOROS SUR", "numero_ext": "299", "letra_ext": null, "edificio": null, "edificio_e": null, "numero_int": null, "letra_int": null, "tipo_asent": "COLONIA", "nomb_asent": "CENTRO", "tipoCenCom": null, "nom_CenCom": null, "num_local": null, "cod_postal": "49440", "cve_ent": "14", "entidad": "JALISCO", "cve_mun": "050", "municipio": "Jocotepec", "cve_loc": "0001", "localidad": "Jocotepec", "ageb": "0184", "manzana": "038", "telefono": null, "correoelec": null, "www": null, "tipoUniEco": "Fijo", "latitud": 20.28014789, "longitud": -103.43132341, "fecha_alta": "2010-07" }, "geometry": { "type": "Point", "coordinates": [ -103.4313234, 20.2801479 ] } },
{ "type": "Feature", "properties": { "id": 1634259, "clee": "14050711312000012001000000U3", "nom_estab": "CASA DE LA CULTURA JOCOTEPEC", "raz_social": "MUNICIPIO DE JOCOTEPEC", "codigo_act": "711312", "nombre_act": "Promotores del sector público de espectáculos artísticos, culturales, deportivos y similares que cuentan con instalaciones para presentarlos", "per_ocu": "6 a 10 personas", "tipo_vial": "CALLE", "nom_vial": "HIDALGO", "tipo_v_e_1": "CALLE", "nom_v_e_1": "RAMON CORONA", "tipo_v_e_2": "CALLE", "nom_v_e_2": "ABASOLO", "tipo_v_e_3": "CALLE", "nom_v_e_3": "INDEPENDENCIA SUR", "numero_ext": "38", "letra_ext": null, "edificio": null, "edificio_e": null, "numero_int": "0", "letra_int": null, "tipo_asent": "MANZANA", "nomb_asent": "JOCOTEPEC", "tipoCenCom": null, "nom_CenCom": null, "num_local": null, "cod_postal": "45800", "cve_ent": "14", "entidad": "JALISCO", "cve_mun": "050", "municipio": "Jocotepec", "cve_loc": "0001", "localidad": "Jocotepec", "ageb": "017A", "manzana": "013", "telefono": null, "correoelec": null, "www": null, "tipoUniEco": "Fijo", "latitud": 20.28589769, "longitud": -103.43037054, "fecha_alta": "2010-07" }, "geometry": { "type": "Point", "coordinates": [ -103.4303705, 20.2858977 ] } },
{ "type": "Feature", "properties": { "id": 9584515, "clee": "14050711312000041000000000U2", "nom_estab": "CASA DEL ARTESANO ELABORACION DE ARTESANIAS", "raz_social": "GOBIERNO DEL ESTADO", "codigo_act": "711312", "nombre_act": "Promotores del sector público de espectáculos artísticos, culturales, deportivos y similares que cuentan con instalaciones para presentarlos", "per_ocu": "0 a 5 personas", "tipo_vial": "OTRO(ESPECIFIQUE)", "nom_vial": "NINGUNO", "tipo_v_e_1": "OTRO(ESPECIFIQUE)", "nom_v_e_1": "NINGUNO", "tipo_v_e_2": "OTRO(ESPECIFIQUE)", "nom_v_e_2": "NINGUNO", "tipo_v_e_3": "OTRO(ESPECIFIQUE)", "nom_v_e_3": "NINGUNO", "numero_ext": null, "letra_ext": "SN", "edificio": null, "edificio_e": null, "numero_int": null, "letra_int": null, "tipo_asent": "COLONIA", "nomb_asent": "CENTRO", "tipoCenCom": null, "nom_CenCom": null, "num_local": null, "cod_postal": "45840", "cve_ent": "14", "entidad": "JALISCO", "cve_mun": "050", "municipio": "Jocotepec", "cve_loc": "0008", "localidad": "San Cristóbal Zapotitlán", "ageb": "049A", "manzana": "027", "telefono": null, "correoelec": null, "www": null, "tipoUniEco": "Fijo", "latitud": 20.2232621, "longitud": -103.36617916, "fecha_alta": "2024-11" }, "geometry": { "type": "Point", "coordinates": [ -103.3661792, 20.2232621 ] } }
]
}
